{"version": 0.6, "generator": "Overpass API 0.7.62.8 e802775f", "osm3s": {"timestamp_osm_base": "2025-09-21T02:35:56Z", "copyright": "The data included in this document is from www.openstreetmap.org. The data is made available under ODbL."}, "elements": [{"type": "node", "id": 333786044, "lat": 39.9408584, "lon": -75.1589281, "tags": {"addr:city": "Philadelphia", "addr:housenumber": "735", "addr:postcode": "19147", "addr:state": "PA", "addr:street": "South 10th Street", "alt_name": "Morning Glory Diner", "amenity": "restaurant", "atm": "yes", "contact:facebook": "https://www.facebook.com/MorningGloryDiner/", "cuisine": "diner", "diet:vegetarian": "yes", "name": "Sam's Morning Glory", "opening_hours": "Mo-Fr 08:00-14:00; Sa,Su 08:00-15:00", "payment:cash": "yes", "payment:credit_cards": "no", "payment:debit_cards": "no", "source": "knowledge;survey", "wheelchair": "limited"}}, {"type": "node", "id": 333786095, "lat": 39.9419244, "lon": -75.1573574, "tags": {"amenity": "cafe", "created_by": "Potlatch 0.10f", "name": "Chapter House", "source": "knowledge"}}, {"type": "node", "id": 333786275, "lat": 39.9428324, "lon": -75.1581249, "tags": {"addr:city": "Philadelphia", "addr:housenumber": "929", "addr:postcode": "19147", "addr:state": "PA", "addr:street": "South Street", "branch": "South Street", "brand": "Whole Foods Market", "brand:wikidata": "Q1809448", "check_date": "2024-10-03", "check_date:opening_hours": "2024-10-03", "name": "Whole Foods Market", "opening_hours": "Mo-Su 07:00-22:00", "phone": "+1 215-733-9788", "ref": "southstreet", "shop": "supermarket", "source": "knowledge", "website": "https://www.wholefoodsmarket.com/stores/southstreet", "wheelchair": "yes"}}, {"type": "node", "id": 1011911807, "lat": 39.9479938, "lon": -75.1541539, "tags": {"addr:city": "The Saint James", "addr:housenumber": "200", "addr:postcode": "19106", "addr:state": "PA", "addr:street": "West Washington Square", "air_conditioning": "yes", "amenity": "cafe", "branch": "8th & Walnut", "brand": "Starbucks", "brand:wikidata": "Q37158", "check_date": "2023-04-13", "cuisine": "coffee_shop", "indoor_seating": "yes", "internet_access": "yes", "name": "Starbucks", "official_name": "Starbucks Coffee", "opening_hours": "Mo-Fr 05:00-19:30; Sa-Su 05:30-19:30", "outdoor_seating": "no", "phone": "+1 215-627-2945", "smoking": "no", "takeaway": "yes", "website": "https://www.starbucks.com/store-locator/store/12580/8th-walnut-200-washington-square-west-philadelphia-pa-1910635", "wheelchair": "yes"}}, {"type": "node", "id": 1032321422, "lat": 39.948676, "lon": -75.160688, "tags": {"name": "Pac a Deli", "opening_hours": "07:00 - 24:00", "shop": "convenience"}}, {"type": "node", "id": 1034412875, "lat": 39.9489302, "lon": -75.1600819, "tags": {"addr:housenumber": "1123", "addr:street": "Walnut Street", "amenity": "restaurant", "check_date": "2023-04-12", "contact:instagram": "https://www.instagram.com/thehayesphl", "contact:phone": "+1 215-982-2192", "contact:website": "https://www.thehayesphl.com", "email": "info@twrg.com", "name": "The Hayes", "opening_hours": "Mo off; Tu 16:00-22:00; We-Th,Su 12:00-22:00; Fr-Sa 12:00-24:00"}}, {"type": "node", "id": 1034424507, "lat": 39.9383834, "lon": -75.1444803, "tags": {"amenity": "restaurant", "cuisine": "greek", "name": "Kanella"}}, {"type": "node", "id": 1034425431, "lat": 39.9462088, "lon": -75.1577445, "tags": {"addr:housenumber": "941", "addr:street": "Spruce Street", "amenity": "pub", "check_date": "2023-04-12", "contact:facebook": "https://www.facebook.com/vargabar", "contact:phone": "+1 215-627-5200", "contact:website": "https://vargabar.com", "name": "Varga", "opening_hours": "Mo-Th 16:00-24:00; Fr 16:00-26:00; Sa 12:00-26:00; Su 12:00-24:00"}}, {"type": "node", "id": 1167105119, "lat": 39.9507269, "lon": -75.1637185, "tags": {"addr:city": "Philadelphia", "addr:housenumber": "1388", "addr:postcode": "19107", "addr:street": "Chestnut Street", "amenity": "restaurant", "check_date": "2023-10-12", "name": "The Capital Grille", "opening_hours": "Mo-Th 11:30-21:00; Fr 11:30-22:00; Sa 16:00-22:00; Su 16:00-21:00", "phone": "+1 215-545-9588", "website": "https://m.thecapitalgrille.com/locations/pa/philadelphia/philadelphia/8013", "wikimedia_commons": "File:The Capital Grille restaurant in Philadelphia, Pennsylvania.jpg"}}, {"type": "node", "id": 1316800583, "lat": 39.9425366, "lon": -75.1571737, "tags": {"addr:city": "Philadelphia", "addr:housenumber": "600", "addr:postcode": "19147", "addr:state": "PA", "addr:street": "South 9th Street", "amenity": "cafe", "branch": "9th & South", "brand": "Starbucks", "brand:wikidata": "Q37158", "cuisine": "coffee_shop", "name": "Starbucks", "official_name": "Starbucks Coffee", "phone": "+1 215-923-2389", "ref": "8238", "takeaway": "yes", "website": "https://www.starbucks.com/store-locator/store/8238/9th-south-600-9th-street-philadelphia-pa-191472018-us"}}, {"type": "node", "id": 1459443425, "lat": 39.9376248, "lon": -75.1532065, "tags": {"amenity": "cafe", "cuisine": "coffee_shop", "internet_access": "wlan", "internet_access:fee": "no", "name": "Shot Tower"}}, {"type": "node", "id": 1463841254, "lat": 39.9485657, "lon": -75.1448374, "tags": {"addr:city": "Philadelphia", "addr:housenumber": "217-219", "addr:postcode": "19106", "addr:state": "PA", "addr:street": "Chestnut Street", "amenity": "restaurant", "cuisine": "spanish;tapas", "name": "Amada", "phone": "+1-215-625-2450", "website": "https://www.amadarestaurant.com/amada-philadelphia/"}}, {"type": "node", "id": 1479226444, "lat": 39.9389682, "lon": -75.1582686, "tags": {"addr:city": "Philadelphia", "addr:housenumber": "910", "addr:postcode": "19147", "addr:state": "PA", "addr:street": "Christian Street", "amenity": "restaurant", "description": "Sit-down BYOB restaurant serving breakfast, lunch, and dinner. There are substantial vegetarian options and limited vegan options.", "diet:vegan": "yes", "diet:vegetarian": "yes", "name": "Sabrina's Cafe", "opening_hours": "Mo-Fr 08:00-17:00", "phone": "+1 215-574-1599", "website": "https://www.sabrinascafe.com/"}}, {"type": "node", "id": 1479227496, "lat": 39.9389166, "lon": -75.1579425, "tags": {"amenity": "restaurant", "cuisine": "pizza", "name": "Lorenzo's Pizza", "website": "lorenzospizza.net"}}, {"type": "node", "id": 1479235293, "lat": 39.9384698, "lon": -75.1578893, "tags": {"addr:city": "Philadelphia", "addr:housenumber": "917", "addr:postcode": "19147", "addr:state": "PA", "addr:street": "South 9th Street", "air_conditioning": "yes", "amenity": "cafe", "atm": "yes", "capacity": "12", "check_date": "2025-03-04", "contact:instagram": "https://www.instagram.com/gleanerscafe/", "contact:myspace": "https://myspace.com/thegleanerscafe", "cuisine": "coffee_shop", "description": "Vegetarian cafe and art gallery with vegan options.", "diet:vegan": "yes", "diet:vegetarian": "only", "email": "gleanerscafe@gmail.com", "internet_access": "no", "name": "Gleaner's Cafe Gallery", "opening_hours": "Mo-Fr 07:00-19:00; Sa-Su 08:00-17:00", "outdoor_seating": "yes", "payment:cash": "only", "phone": "+1-215-923-3205", "takeaway": "yes", "website": "https://gleanerscafe.com"}}, {"type": "node", "id": 1479235296, "lat": 39.938851, "lon": -75.157766, "tags": {"addr:city": "Philadelphia", "addr:housenumber": "903", "addr:postcode": "19147", "addr:state": "PA", "addr:street": "South 9th Street", "amenity": "cafe", "atm": "no", "cuisine": "coffee_shop", "description": "Italian coffeehouse in historic Italian Market neighborhood", "drive_through": "no", "fax": "+1 215-627-5822", "name": "Anthony's Italian Coffee & Chocolate House", "opening_hours": "Mo-Fr 07:00-19:00; Sa 07:00-20:00; Su 07:30-17:00", "outdoor_seating": "yes", "phone": "+1 215-627-2586", "smoking": "no", "source": "Site visit", "takeaway": "yes", "website": "https://www.italiancoffeehouse.com", "wheelchair": "no"}}, {"type": "node", "id": 1479237282, "lat": 39.9384973, "lon": -75.1562664, "tags": {"amenity": "restaurant", "cuisine": "mexican", "name": "Paloma", "website": "palomafinedining.com"}}, {"type": "node", "id": 1482492640, "lat": 39.9433047, "lon": -75.1638906}, {"type": "node", "id": 1482514637, "lat": 39.9436423, "lon": -75.1666388, "tags": {"addr:city": "Philadelphia", "addr:housename": "Jamacian Jerk Hut", "addr:housenumber": "1436", "addr:postcode": "19146", "addr:street": "South Street", "amenity": "restaurant", "contact:phone": "+1 215-545-8644", "contact:website": "https://orderjamaicanjerkhut.com", "cuisine": "international", "name": "Jamaican Jerk Hut", "opening_hours": "Mo off; Tu-Th 11:30-19:00; Fr-Sa 11:30-17:00; Su 12:00-19:00", "wheelchair": "limited"}}, {"type": "node", "id": 1482514639, "lat": 39.9455278, "lon": -75.1654742, "tags": {"addr:housenumber": "1410", "addr:postcode": "19102", "addr:street": "Pine Street", "amenity": "restaurant", "cuisine": "italian", "name": "Girasole"}}, {"type": "node", "id": 1483785455, "lat": 39.9445508, "lon": -75.1500847}, {"type": "node", "id": 1489690688, "lat": 39.9484315, "lon": -75.1621587, "tags": {"addr:housename": "13th Street Pizza", "addr:housenumber": "209", "addr:postcode": "19107", "addr:street": "South 13th Street", "amenity": "restaurant", "check_date": "2023-10-12", "cuisine": "pizza", "name": "Cappelli", "phone": "+1 215-309-5490"}}, {"type": "node", "id": 1489697259, "lat": 39.950078, "lon": -75.161799, "tags": {"addr:housename": "Zio Pizza", "addr:housenumber": "111", "addr:postcode": "19107", "addr:street": "South 13th Street", "amenity": "restaurant", "check_date": "2023-10-12", "contact:facebook": "https://www.facebook.com/ziosbrickovenpizza", "cuisine": "pizza", "name": "Zio's Brickoven Pizzeria", "opening_hours": "Mo-Th 10:00-21:00; Fr-Sa 11:00-22:00; Su 11:00-21:00", "phone": "+1 215-627-1615; +1 215-627-5018", "source": "Good Maps", "website": "https://www.ziosbrickoven.com"}}, {"type": "node", "id": 1509757250, "lat": 39.9398247, "lon": -75.1575625, "tags": {"addr:housenumber": "767", "addr:postcode": "19147", "addr:street": "South 9th Street", "amenity": "pub", "name": "The Wishing Well", "website": "http://www.wishingwellphilly.com/"}}, {"type": "node", "id": 1513098751, "lat": 39.9452188, "lon": -75.1630938, "tags": {"addr:housenumber": "1300", "addr:postcode": "19107", "addr:street": "Pine Street", "amenity": "cafe", "internet_access": "wlan", "internet_access:fee": "no", "name": "Last Drop Cafe", "opening_hours": "Mo-Fr 07:00-17:00; Sa 08:00-16:00; Su 08:00-13:00", "website": "http://www.facebook.com/pages/last-drop/106437959398826"}}, {"type": "node", "id": 1513601815, "lat": 39.9456332, "lon": -75.1648301, "tags": {"addr:city": "Philadelphia", "addr:housenumber": "337-341", "addr:postcode": "19107", "addr:street": "South Broad Street", "amenity": "cafe", "brand": "Starbucks", "brand:wikidata": "Q37158", "check_date": "2011", "cuisine": "coffee_shop", "internet_access": "wlan", "internet_access:fee": "no", "name": "Starbucks", "official_name": "Starbucks Coffee", "source": "www.starbucks.com", "takeaway": "yes"}}, {"type": "node", "id": 1605500957, "lat": 39.9413018, "lon": -75.1473173, "tags": {"addr:housenumber": "248", "addr:street": "South Street", "amenity": "fast_food", "check_date": "2023-04-12", "contact:facebook": "https://www.facebook.com/noraskitchenphilly", "contact:phone": "+1 267-758-2413", "contact:website": "https://www.norastacos.com", "cuisine": "mexican", "name": "Nora's Kitchen", "opening_hours": "Mo-Sa 12:00-21:00; Su off", "website:menu": "https://www.noraskitchenphilly.com"}}, {"type": "node", "id": 1606846530, "lat": 39.9420101, "lon": -75.1528974, "tags": {"addr:city": "Philadelphia", "addr:housenumber": "618", "addr:state": "PA", "addr:street": "South Street", "amenity": "restaurant", "cuisine": "chinese", "diet:vegan": "yes", "name": "Golden Empress Garden", "phone": "+1-215-627-7666", "website": "https://www.goldenempressgarden.com/"}}, {"type": "node", "id": 1606862187, "lat": 39.9410646, "lon": -75.1455347, "tags": {"addr:housenumber": "150", "addr:street": "South Street", "amenity": "pub", "check_date": "2023-04-12", "contact:facebook": "https://www.facebook.com/PaddyWhacks", "contact:phone": "+1 215-464-7544", "contact:website": "http://paddywhackspub.com/2nd/homepage.php", "name": "Paddy Whacks", "opening_hours": "11:00-26:00"}}, {"type": "node", "id": 1606862517, "lat": 39.94177, "lon": -75.145776, "tags": {"brand": "Wawa", "brand:wikidata": "Q5936320", "name": "Wawa", "shop": "convenience", "vacant": "shop"}}, {"type": "node", "id": 1712034405, "lat": 39.9418748, "lon": -75.1518877, "tags": {"addr:city": "Philadelphia", "addr:housenumber": "530", "addr:postcode": "19147", "addr:state": "PA", "addr:street": "South Street", "amenity": "pub", "check_date": "2023-04-12", "contact:facebook": "https://www.facebook.com/tattooedmomphilly", "contact:phone": "+1 215-238-9880", "contact:website": "https://www.tattoedmomphilly.com", "name": "Tattooed Mom", "opening_hours": "Mo-Th 16:00-23:00; Fr-Sa 12:00-26:00; Su 12:00-23:00"}}, {"type": "node", "id": 1712035844, "lat": 39.9410621, "lon": -75.1475854, "tags": {"addr:city": "Philadelphia", "addr:housenumber": "611", "addr:postcode": "19147", "addr:state": "PA", "addr:street": "South 3rd Street", "amenity": "pub", "check_date": "2023-10-17", "name": "Oneal's Pub", "opening_hours": "Mo-Fr 11:00-26:00, Sa-Su 09:00-26:00", "phone": "+1 215-574-9495", "website": "https://onealspub.com/"}}, {"type": "node", "id": 1712079227, "lat": 39.941549, "lon": -75.1478824, "tags": {"addr:city": "Philadelphia", "addr:housenumber": "305", "addr:postcode": "19147", "addr:state": "PA", "addr:street": "South Street", "amenity": "fast_food", "check_date": "2023-10-17", "cuisine": "pizza", "name": "Lorenzo and Sons Pizza", "phone": "+1 215-800-1942"}}, {"type": "node", "id": 1889907923, "lat": 39.9429467, "lon": -75.1571176, "tags": {"addr:housenumber": "901", "addr:postcode": "19147", "addr:street": "South St", "amenity": "restaurant", "cuisine": "pizza", "name": "Little Italy Pizza", "website": "http://www.littleitalyone.com"}}, {"type": "node", "id": 1896674285, "lat": 39.9498086, "lon": -75.1441297, "tags": {"addr:city": "Philadelphia", "addr:housenumber": "206", "addr:postcode": "19106", "addr:state": "PA", "addr:street": "Market Street", "amenity": "fast_food", "check_date": "2023-10-17", "cuisine": "burger;sandwich", "name": "Oh Brother", "opening_hours": "Mo-Th,Su 12:00-23:00; Fr-Sa 12:00-24:00", "phone": "+1-215-515-3255", "website": "https://www.ohbrotherphilly.com"}}, {"type": "node", "id": 2002973851, "lat": 39.9493006, "lon": -75.1525508, "tags": {"addr:city": "Philadelphia", "addr:housenumber": "700", "addr:postcode": "19016", "addr:street": "Chestnut Street", "amenity": "restaurant", "cuisine": "american", "designation": "Anna McPeak", "name": "Jones Restaurant", "website": "https://jones-restaurant.com/"}}, {"type": "node", "id": 2012635213, "lat": 39.9414059, "lon": -75.1491095, "tags": {"addr:housenumber": "603", "addr:street": "South 4th Street", "amenity": "restaurant", "cuisine": "middle_eastern", "name": "Alayan's Restaurant"}}, {"type": "node", "id": 2012639870, "lat": 39.9415479, "lon": -75.1493044, "tags": {"addr:housenumber": "400", "addr:postcode": "19147", "addr:street": "South Street", "amenity": "restaurant", "check_date": "2025-02-15", "contact:facebook": "https://www.facebook.com/JimsSouthSt", "contact:website": "https://jimssouthstreet.com", "cuisine": "american", "name": "Jim's Steaks", "opening_hours": "Mo-Th 11:00-24:00; Fr-Sa 11:00-01:00; Su 11:00-24:00", "phone": "+1-215-928-1911"}}, {"type": "node", "id": 2040315443, "lat": 39.944812, "lon": -75.1632105, "tags": {"addr:city": "Philadelphia", "addr:housenumber": "412", "addr:postcode": "19147", "addr:state": "PA", "addr:street": "South 13th Street", "amenity": "restaurant", "bar": "yes", "cuisine": "pizza", "designation": "13th and Waverly street", "name": "Paulie Gee's Soul City", "opening_hours": "Su-Th 11:30-23:00, Fr-Sa 11:30-02:00", "phone": "+1-267-239-5761", "sport": "billiards", "website": "https://pauliegee.com/soul-city/"}}, {"type": "node", "id": 2040424579, "lat": 39.9467368, "lon": -75.163189, "tags": {"addr:housenumber": "1312", "addr:street": "Spruce Street", "amenity": "restaurant", "check_date": "2023-04-11", "contact:phone": "+1 215-732-3478", "cuisine": "italian", "name": "Vetri Cucina", "opening_hours": "17:00+ \"Dinner every day starting at 5PM\"", "website": "https://vetricucina.com"}}, {"type": "node", "id": 2040446963, "lat": 39.940255, "lon": -75.1576476, "tags": {"addr:city": "Philadelphia", "addr:housenumber": "760", "addr:postcode": "19147", "addr:state": "PA", "addr:street": "South 9th Street", "alt_name": "Ralph's Italian Restaurant", "amenity": "restaurant", "cuisine": "italian", "name": "Ralph's", "opening_hours": "Mo-Th 16:00-21:00; Fr 16:00-21:30; Sa 13:00-21:30; Su 13:00-21:00", "phone": "+1-215-627-6011", "website": "https://ralphsrestaurant.com"}}, {"type": "node", "id": 2179184400, "lat": 39.9512282, "lon": -75.1660978, "tags": {"addr:city": "Philadelphia", "addr:housenumber": "1515", "addr:postcode": "19102", "addr:state": "PA", "addr:street": "Chestnut Street", "amenity": "fast_food", "brand": "Wendy's", "brand:wikidata": "Q550258", "check_date": "2023-10-08", "cuisine": "burger", "name": "Wendy's", "opening_hours": "06:30-01:00", "phone": "+1 215-569-4087", "takeaway": "yes", "website": "https://locations.wendys.com/united-states/pa/philadelphia/1515-chestnut-street"}}, {"type": "node", "id": 2186349324, "lat": 39.9509449, "lon": -75.1655084, "tags": {"addr:city": "Philadelphia", "addr:housenumber": "1428-1432", "addr:postcode": "19102", "addr:state": "PA", "addr:street": "Chestnut Street", "amenity": "restaurant", "brand": "Del Frisco's Double Eagle Steakhouse", "brand:wikidata": "Q23461481", "check_date": "2023-10-08", "cuisine": "steak_house", "name": "Del Frisco's Double Eagle Steakhouse", "opening_hours": "Mo-We 17:00-21:00; Th-Fr 17:00-22:00; Sa 16:00-22:00; Su 16:00-21:00", "phone": "+1 215-246-0533", "website": "https://www.delfriscos.com/location/del-friscos-double-eagle-steakhouse-philadelphia-pa"}}, {"type": "node", "id": 2254889201, "lat": 39.9508621, "lon": -75.1629441, "tags": {"addr:city": "Philadelphia", "addr:housenumber": "1337", "addr:postcode": "19107", "addr:street": "Chestnut Street", "amenity": "restaurant", "check_date": "2025-06-27", "check_date:opening_hours": "2025-06-27", "cuisine": "brazilian", "name": "Fogo de Chao", "opening_hours": "Mo-Fr 11:30-15:00, Mo-Th 15:00-22:00, Sa,Su 11:30-21:00, Fr 15:00-22:30, Sa,Su 11:30-14:00, Sa 14:00-22:30, Su 14:00-21:00", "phone": "+1 215-636-9700", "website": "https://fogodechao.com/location/philadelphia"}}, {"type": "node", "id": 2262657990, "lat": 39.9495671, "lon": -75.1652623, "tags": {"addr:city": "Philadelphia", "addr:housenumber": "1425", "addr:postcode": "19102", "addr:street": "Walnut Street", "amenity": "cafe", "brand": "Le Pain Quotidien", "brand:wikidata": "Q2046903", "check_date": "2025-06-27", "check_date:opening_hours": "2025-06-27", "cuisine": "coffee_shop", "name": "Le Pain Quotidien", "opening_hours": "Mo-Fr 06:30-17:00; Sa,Su 07:00-18:00", "phone": "+1 215-751-0570", "takeaway": "yes", "website": "https://www.lepainquotidien.com/us/en/locations/501:%20rittenhouse_row/1425-walnut-st/"}}, {"type": "node", "id": 2267258440, "lat": 39.9491709, "lon": -75.1636593, "tags": {"addr:city": "Philadelphia", "addr:housenumber": "1334", "addr:postcode": "19107", "addr:street": "Walnut Street", "amenity": "restaurant", "check_date": "2023-04-11", "contact:phone": "+1 215-985-4155", "contact:website": "https://www.saharagrillphiladelphia.com/", "cuisine": "middle_eastern", "name": "Sahara Grill", "opening_hours": "11:00-22:00"}}, {"type": "node", "id": 2296211827, "lat": 39.9397655, "lon": -75.1561811, "tags": {"addr:city": "Philadelphia", "addr:housenumber": "768", "addr:postcode": "19147", "addr:state": "PA", "addr:street": "South 8th Street", "amenity": "restaurant", "contact:facebook": "https://www.facebook.com/Cucinamariasouthphilly/", "cuisine": "italian", "name": "Cucina Maria", "opening_hours": "Mo off; Tu-Th,Su 11:00-22:00; Fr-Sa 11:00-23:00", "phone": "+1 215-408-0020", "website": "https://cucinamaria.restaurant/menu.html"}}, {"type": "node", "id": 2302752751, "lat": 39.9399838, "lon": -75.1529309, "tags": {"amenity": "restaurant", "check_date:opening_hours": "2025-02-18", "cuisine": "seafood", "name": "Little Fish", "opening_hours:signed": "no"}}, {"type": "node", "id": 2340613008, "lat": 39.9406306, "lon": -75.1476433, "tags": {"addr:city": "Philadelphia", "addr:housenumber": "627", "addr:state": "PA", "addr:street": "South 3rd Street", "amenity": "restaurant", "check_date": "2023-10-17", "cuisine": "italian", "name": "Cry Baby Pasta", "opening_hours": "Mo off; Tu-Su 17:00+", "phone": "+1-267-534-3076", "website": "http://crybabypasta.com"}}, {"type": "node", "id": 2340693461, "lat": 39.940722, "lon": -75.147855, "tags": {"addr:housenumber": "624", "addr:street": "South 3rd Street", "amenity": "restaurant", "check_date": "2023-04-12", "contact:phone": "+1 215-922-5000", "contact:website": "https://www.sushiplanet-pa.com/", "cuisine": "sushi", "name": "Sushi Planet", "opening_hours": "Mo-Tu,Su 16:00-21:30; We-Th 12:00-21:30; Fr-Sa 12:00-22:30"}}, {"type": "node", "id": 2340697895, "lat": 39.9404505, "lon": -75.1492578, "tags": {"addr:housenumber": "701", "addr:street": "South 4th Street", "amenity": "restaurant", "check_date": "2023-10-17", "name": "SouthWark", "phone": "+1 267-930-8538", "website": "http://southwarkrestaurantphilly.com"}}, {"type": "node", "id": 2377568637, "lat": 39.9482175, "lon": -75.1543435, "tags": {"addr:housenumber": "801", "addr:street": "Walnut Street", "air_conditioning": "yes", "amenity": "cafe", "brand": "Le Pain Quotidien", "brand:wikidata": "Q2046903", "check_date": "2023-04-13", "contact:facebook": "https://www.facebook.com/lepainquotidienus", "contact:phone": "+1 215-989-4830", "contact:website": "https://www.lepainquotidien.com/us/en/locations/502:%208th_&_walnut/801-walnut-st", "cuisine": "coffee_shop", "indoor_seating": "yes", "name": "Le Pain Quotidien", "opening_hours": "Mo-Fr 07:30-16:00; Sa-Su 08:00-16:00", "outdoor_seating": "no", "smoking": "no", "takeaway": "yes", "wheelchair": "yes"}}, {"type": "node", "id": 2390519810, "lat": 39.9362197, "lon": -75.146852, "tags": {"amenity": "restaurant", "name": "Kennett Restaurant"}}, {"type": "node", "id": 2390519811, "lat": 39.9359277, "lon": -75.1467715, "tags": {"name": "Palm Tree", "shop": "convenience"}}, {"type": "node", "id": 2390519812, "lat": 39.9360593, "lon": -75.146911, "tags": {"amenity": "cafe", "name": "Philadelphia Java Co."}}, {"type": "node", "id": 2443572317, "lat": 39.9492701, "lon": -75.1494459, "tags": {"amenity": "drinking_water"}}, {"type": "node", "id": 2457190028, "lat": 39.9483288, "lon": -75.1663588, "tags": {"addr:housenumber": "1500", "addr:postcode": "19102", "addr:street": "Locust Street", "amenity": "pub", "name": "Fado", "source": "survey", "website": "https://www.fadoirishpub.com/philadelphia/", "wheelchair": "yes"}}, {"type": "node", "id": 2460899138, "lat": 39.9464113, "lon": -75.1595785, "tags": {"addr:housenumber": "1101", "addr:street": "Spruce Street", "amenity": "cafe", "check_date": "2023-04-12", "contact:facebook": "https://www.facebook.com/greenstreetcoffee", "contact:website": "https://www.greenstreetcoffee.com", "cuisine": "coffee_shop", "name": "Green Street Coffee Bar", "note": "$2 Cold brews", "opening_hours": "Mo-Fr 06:00-18:00; Sa,Su 07:00-18:00"}}, {"type": "node", "id": 2492627051, "lat": 39.937159, "lon": -75.158103, "tags": {"addr:city": "Philadelphia", "addr:housenumber": "1017", "addr:postcode": "19147", "addr:street": "South Ninth Street", "amenity": "fast_food", "cuisine": "italian", "drive_through": "no", "name": "Paesano's Philly Style Sandwiches", "outdoor_seating": "no", "smoking": "no", "source": "Site visit", "takeaway": "yes", "wheelchair": "no"}}, {"type": "node", "id": 2507745088, "lat": 39.9378591, "lon": -75.1446142, "tags": {"addr:housenumber": "775", "addr:street": "South Front Street", "amenity": "restaurant", "name": "Catahoula Bar & Restaurant"}}, {"type": "node", "id": 2694849009, "lat": 39.9516669, "lon": -75.1653051, "tags": {"addr:city": "Philadelphia", "addr:housenumber": "1414", "addr:postcode": "19102", "addr:street": "South Penn Square", "amenity": "cafe", "brand": "La Colombe Coffee Roasters", "brand:wikidata": "Q23461663", "cuisine": "coffee_shop", "internet_access": "no", "name": "La Colombe Coffee Roasters", "opening_hours": "Mo-Fr 07:00-19:00, Sa-Su 08:00-19:00", "phone": "+1 215-977-7770", "power_supply": "yes", "short_name": "La Colombe", "takeaway": "yes", "website": "https://www.lacolombe.com/", "wheelchair": "yes"}}, {"type": "node", "id": 2862624521, "lat": 39.9343882, "lon": -75.1589746, "tags": {"addr:city": "Philadelphia", "addr:housenumber": "1172", "addr:state": "PA", "addr:street": "South 9th Street", "amenity": "cafe", "contact:facebook": "https://www.facebook.com/rimcafephilly", "internet_access": "no", "name": "RIM Cafe", "opening_hours": "Mo-We off; Th 12:00-21:00; Fr-Sa 12:00-22:00; Su 12:00-21:00", "phone": "+1-215-465-3515", "website": "http://www.rimcafe.com"}}, {"type": "node", "id": 2973059795, "lat": 39.9413269, "lon": -75.1539466, "tags": {"addr:city": "Philadelphia", "addr:housenumber": "611", "addr:postcode": "19147", "addr:street": "South 7th Street", "amenity": "restaurant", "cuisine": "malaysian", "name": "Kampar", "phone": "+1 215-989-2202", "smoking": "no", "website": "https://www.kamparphilly.com/"}}, {"type": "node", "id": 3026099184, "lat": 39.9507348, "lon": -75.1448423, "tags": {"addr:city": "Philadelphia", "addr:housenumber": "221", "addr:postcode": "19106", "addr:street": "Church Street", "amenity": "cafe", "cuisine": "coffee_shop", "internet_access": "yes", "name": "Old City Coffee", "opening_hours": "Mo-Sa 07:00-17:00; Su 08:00-16:00", "phone": "+1-215-629-9292", "website": "https://oldcitycoffee.com/", "wheelchair": "no"}}, {"type": "node", "id": 3040240343, "lat": 39.947338, "lon": -75.1534542, "tags": {"addr:city": "Philadelphia", "addr:housenumber": "208", "addr:postcode": "19106", "addr:street": "West Washington Square", "amenity": "cafe", "check_date": "2023-04-12", "contact:phone": "+1 215-592-6555", "contact:website": "https://talulasdaily.com", "cuisine": "coffee_shop", "name": "Talula's Daily", "opening_hours": "08:00-18:00", "wheelchair": "limited", "wheelchair:description": "Front door accessible but only allows access to serving counter. Seating area and accessible restroom reached via rear trash alley/kitchen entrance. No sign or info explaining this at front.", "wheelchair:description:en": "Front entrance accessible but limited access without going around to rear trash alley to enter and gain access to seating area and wheelchair accessible restroom."}}, {"type": "node", "id": 3040246034, "lat": 39.9471555, "lon": -75.1534825, "tags": {"addr:city": "Philadelphia", "addr:housenumber": "210", "addr:postcode": "19106", "addr:street": "West Washington Square", "amenity": "restaurant", "check_date": "2023-04-12", "contact:phone": "+1 215-592-7787", "contact:website": "https://talulasgarden.com", "cuisine": "american", "name": "Talula's Garden", "opening_hours": "Mo-Fr 17:00-22:00; Sa 16:00-22:00; Su 10:00-14:00 open \"brunch\", Su 16:00-22:00 open \"dinner\""}}, {"type": "node", "id": 3042654512, "lat": 39.9496782, "lon": -75.145926, "tags": {"addr:city": "Philadelphia", "addr:housenumber": "18", "addr:street": "South 3rd Street", "amenity": "cafe", "check_date": "2023-10-16", "contact:instagram": "https://www.instagram.com/menageriecoffee", "internet_access": "yes", "name": "Menagerie Coffee", "opening_hours": "Mo-Th 07:00-17:00; Fr 07:00-18:00; Sa 08:00-18:00; Su 08:00-17:00", "website": "http://www.menageriecoffee.com", "wheelchair": "yes", "wheelchair:description": "Fully accessible throughout including restroom with wide door, large interior and handrails."}}, {"type": "node", "id": 3076951036, "lat": 39.94956, "lon": -75.166659, "tags": {"addr:city": "Philadelphia", "addr:housenumber": "1512", "addr:postcode": "19103", "addr:state": "PA", "addr:street": "Walnut Street", "alt_name": "Chipotle Mexican Grill", "amenity": "fast_food", "brand": "Chipotle", "brand:wikidata": "Q465751", "check_date": "2023-10-15", "cuisine": "mexican", "diet:vegan": "yes", "diet:vegetarian": "yes", "name": "Chipotle", "official_name": "Chipotle Mexican Grill", "opening_hours": "10:45-22:00", "phone": "+1 215-558-5213", "takeaway": "yes", "website": "https://locations.chipotle.com/pa/philadelphia/1512-walnut-street", "wheelchair": "yes"}}, {"type": "node", "id": 3076968333, "lat": 39.948017, "lon": -75.1528374, "tags": {"addr:city": "Philadelphia", "addr:housenumber": "703", "addr:postcode": "19106", "addr:state": "PA", "addr:street": "Walnut Street", "amenity": "cafe", "check_date": "2024-10-11", "cuisine": "coffee_shop", "internet_access": "wlan", "internet_access:fee": "customers", "name": "Cafe Walnut", "opening_hours": "Mo-Fr 08:00-17:00; Sa-Su 09:00-15:00", "outdoor_seating": "no", "phone": "+1 215-964-9044", "website": "https://www.instagram.com/cafe.walnut/", "wheelchair": "no", "wheelchair:description": "Lots of steps down to basement entrance."}}, {"type": "node", "id": 3076971133, "lat": 39.9480904, "lon": -75.1534068, "tags": {"addr:housenumber": "719", "addr:street": "Walnut Street", "amenity": "restaurant", "check_date": "2023-04-12", "contact:website": "https://www.fatsalmonsushi.com", "cuisine": "sushi", "name": "Fat Salmon", "opening_hours": "Mo off; Tu-Th 16:00-20:30; Fr-Sa 16:00-21:30; Su 16:00-20:00", "wheelchair": "yes"}}, {"type": "node", "id": 3076977533, "lat": 39.9482935, "lon": -75.1567637, "tags": {"addr:housenumber": "912-916", "addr:street": "Walnut Street", "brand": "Wawa", "brand:wikidata": "Q5936320", "check_date": "2023-10-16", "contact:phone": "+1 215-923-1404", "contact:website": "https://www.wawa.com/store/103/ma/pa-philadelphia-912-916-walnut-street", "name": "Wawa", "opening_hours": "24/7", "ref": "103", "shop": "convenience", "wheelchair": "yes"}}, {"type": "node", "id": 3076983433, "lat": 39.9485669, "lon": -75.157268, "tags": {"addr:city": "Philadelphia", "addr:housenumber": "929", "addr:postcode": "19107", "addr:street": "Walnut Street", "amenity": "restaurant", "check_date": "2023-04-13", "contact:website": "https://www.barrarossa.com", "name": "Barra Rossa", "opening_hours": "Tu 16:00-21:00; Mo off, Tu 12:00-21:00, We 12:00-21:00", "phone": "+1 215-644-9074", "wheelchair": "yes", "wheelchair:description": "entrance at right of front accessible."}}, {"type": "node", "id": 3094941729, "lat": 39.946541, "lon": -75.161027, "tags": {"addr:city": "Philadelphia", "addr:housenumber": "1137", "addr:postcode": "19107", "addr:street": "Spruce Street", "amenity": "restaurant", "check_date": "2023-04-12", "contact:facebook": "https://www.facebook.com/TriaPhilly", "cuisine": "tapas", "internet_access": "wlan", "name": "Tria", "opening_hours": "Mo-Th 16:00-21:30; Fr-Sa 12:00-22:00; Su 14:00-20:30", "phone": "+1 215 629 92 00", "website": "https://triaphilly.com", "wheelchair": "limited", "wheelchair:description": "Entrance and restroom accessible but unfortunately all seating in wheelchair accessible indoor area is high top tables. Outdoor seating tables in warmer weather."}}, {"type": "node", "id": 3103177329, "lat": 39.9499816, "lon": -75.1455883, "tags": {"addr:city": "Philadelphia", "addr:housenumber": "248", "addr:postcode": "19106", "addr:street": "Market Street", "amenity": "restaurant", "cuisine": "indian", "name": "Karma", "wheelchair": "yes", "wheelchair:description": "Front entrance and seating is wheelchair accessible. Restroom not yet assessed."}}, {"type": "node", "id": 3103189629, "lat": 39.9505254, "lon": -75.1454962, "tags": {"addr:city": "Philadelphia", "addr:housenumber": "7", "addr:postcode": "19106", "addr:street": "North 3rd Street", "amenity": "restaurant", "cuisine": "french", "name": "Bistro 7", "wheelchair": "limited", "wheelchair:description": "One step at entrance. Business says restroom is wheelchair accessible but needs to be reviewed and updated here."}}, {"type": "node", "id": 3103189630, "lat": 39.9504663, "lon": -75.1457295, "tags": {"addr:city": "Philadelphia", "addr:housenumber": "6", "addr:postcode": "19106", "addr:street": "North 3rd Street", "amenity": "fast_food", "cuisine": "pizza", "name": "Gianfranco Pizza", "phone": "(215) 282-9535", "website": "https://harryssmokeshop.com/", "wheelchair": "no", "wheelchair:description": "2 large steps at entrance"}}, {"type": "node", "id": 3103189631, "lat": 39.9505218, "lon": -75.1457148, "tags": {"addr:housenumber": "8", "addr:postcode": "19106", "addr:street": "North 3rd Street", "name": "Lake Blue Gourmet Market", "shop": "convenience", "wheelchair": "yes"}}, {"type": "node", "id": 3103189791, "lat": 39.9506534, "lon": -75.1456947, "tags": {"addr:housenumber": "14", "addr:street": "North 3rd Street", "name": "Harry's Smoke Shop", "shop": "convenience"}}, {"type": "node", "id": 3203986709, "lat": 39.9367226, "lon": -75.1612625}, {"type": "node", "id": 3203986710, "lat": 39.9366866, "lon": -75.1610412}, {"type": "node", "id": 3203986711, "lat": 39.9368018, "lon": -75.1610037}, {"type": "node", "id": 3203986712, "lat": 39.9368048, "lon": -75.1610345}, {"type": "node", "id": 3203986713, "lat": 39.9368275, "lon": -75.1610533}, {"type": "node", "id": 3203986714, "lat": 39.936848, "lon": -75.16117}, {"type": "node", "id": 3203986715, "lat": 39.9368347, "lon": -75.1611981}, {"type": "node", "id": 3203986716, "lat": 39.9368388, "lon": -75.161229}, {"type": "node", "id": 3265628446, "lat": 39.9425823, "lon": -75.1575045, "tags": {"addr:city": "Philadelphia", "addr:housenumber": "900", "addr:street": "South Street", "amenity": "restaurant", "cuisine": "barbecue", "name": "Percy Street Barbecue", "smoking": "no", "website": "http://www.percystreet.com/"}}, {"type": "node", "id": 3399156044, "lat": 39.9517092, "lon": -75.1490425}, {"type": "node", "id": 3399156045, "lat": 39.9518358, "lon": -75.1490152}, {"type": "node", "id": 3399156046, "lat": 39.9518311, "lon": -75.1489782}, {"type": "node", "id": 3399156047, "lat": 39.9518472, "lon": -75.1489748}, {"type": "node", "id": 3399156048, "lat": 39.9518427, "lon": -75.1489392}, {"type": "node", "id": 3399156049, "lat": 39.9518252, "lon": -75.148943}, {"type": "node", "id": 3399156050, "lat": 39.951821, "lon": -75.1489104}, {"type": "node", "id": 3399156051, "lat": 39.9516959, "lon": -75.1489373}, {"type": "node", "id": 3401274279, "lat": 39.9496912, "lon": -75.1611846}, {"type": "node", "id": 3401274280, "lat": 39.9495448, "lon": -75.1612159}, {"type": "node", "id": 3401274281, "lat": 39.9495339, "lon": -75.1611291}, {"type": "node", "id": 3401274282, "lat": 39.9496805, "lon": -75.1610978}, {"type": "node", "id": 3401274295, "lat": 39.9502673, "lon": -75.1626403}, {"type": "node", "id": 3401274296, "lat": 39.9501536, "lon": -75.1626666}, {"type": "node", "id": 3401274297, "lat": 39.9501323, "lon": -75.1625091}, {"type": "node", "id": 3401274298, "lat": 39.9502492, "lon": -75.1624858}, {"type": "node", "id": 3401274401, "lat": 39.9441595, "lon": -75.1501685}, {"type": "node", "id": 3401274402, "lat": 39.9441482, "lon": -75.1501577}, {"type": "node", "id": 3401274403, "lat": 39.9441219, "lon": -75.1499398}, {"type": "node", "id": 3401274404, "lat": 39.9445216, "lon": -75.1498562}, {"type": "node", "id": 3401274405, "lat": 39.9445035, "lon": -75.1498576}, {"type": "node", "id": 3404334299, "lat": 39.948862, "lon": -75.1661924}, {"type": "node", "id": 3408839892, "lat": 39.9510395, "lon": -75.1565439}, {"type": "node", "id": 3408839993, "lat": 39.9510454, "lon": -75.1565951}, {"type": "node", "id": 3408840034, "lat": 39.9513595, "lon": -75.1564748}, {"type": "node", "id": 3408840035, "lat": 39.9513658, "lon": -75.1565249}, {"type": "node", "id": 3413417147, "lat": 39.9488031, "lon": -75.1662049}, {"type": "node", "id": 3413417148, "lat": 39.9488892, "lon": -75.1664113}, {"type": "node", "id": 3413417149, "lat": 39.9488304, "lon": -75.1664238}, {"type": "node", "id": 3413417151, "lat": 39.9487736, "lon": -75.1664358}, {"type": "node", "id": 3413417152, "lat": 39.9487464, "lon": -75.1662169}, {"type": "node", "id": 3413417154, "lat": 39.9487647, "lon": -75.1663639}, {"type": "node", "id": 3413742078, "lat": 39.9363541, "lon": -75.1605342}, {"type": "node", "id": 3413742079, "lat": 39.9365392, "lon": -75.1604933}, {"type": "node", "id": 3413742080, "lat": 39.9365242, "lon": -75.1603795}, {"type": "node", "id": 3413742081, "lat": 39.9363384, "lon": -75.1604198}, {"type": "node", "id": 3413742088, "lat": 39.9370997, "lon": -75.1616776}, {"type": "node", "id": 3413742089, "lat": 39.9367215, "lon": -75.1617545}, {"type": "node", "id": 3413742090, "lat": 39.9366857, "lon": -75.1618139}, {"type": "node", "id": 3413742091, "lat": 39.936599, "lon": -75.1618174}, {"type": "node", "id": 3413742092, "lat": 39.9365952, "lon": -75.1617862}, {"type": "node", "id": 3413742093, "lat": 39.9364084, "lon": -75.1618258}, {"type": "node", "id": 3413742110, "lat": 39.9406117, "lon": -75.1667263}, {"type": "node", "id": 3413742111, "lat": 39.9407114, "lon": -75.1667073}, {"type": "node", "id": 3413742112, "lat": 39.940691, "lon": -75.1665249}, {"type": "node", "id": 3413742113, "lat": 39.9405913, "lon": -75.1665439}, {"type": "node", "id": 3420122196, "lat": 39.9336785, "lon": -75.1588996}, {"type": "node", "id": 3420122197, "lat": 39.9336961, "lon": -75.1589561}, {"type": "node", "id": 3420122198, "lat": 39.9339438, "lon": -75.1588641}, {"type": "node", "id": 3420122199, "lat": 39.9338872, "lon": -75.1586446}, {"type": "node", "id": 3420297422, "lat": 39.9406138, "lon": -75.1656766}, {"type": "node", "id": 3420297423, "lat": 39.9404164, "lon": -75.1657189}, {"type": "node", "id": 3420297424, "lat": 39.9404017, "lon": -75.1656017}, {"type": "node", "id": 3420297425, "lat": 39.9405991, "lon": -75.1655594}, {"type": "node", "id": 3420297426, "lat": 39.9400864, "lon": -75.1659013}, {"type": "node", "id": 3420297427, "lat": 39.9402442, "lon": -75.1658701}, {"type": "node", "id": 3420297428, "lat": 39.9402321, "lon": -75.1657662}, {"type": "node", "id": 3420297429, "lat": 39.9400743, "lon": -75.1657974}, {"type": "node", "id": 3424828944, "lat": 39.9495398, "lon": -75.1590901}, {"type": "node", "id": 3426207833, "lat": 39.9415172, "lon": -75.1560435}, {"type": "node", "id": 3426207834, "lat": 39.9413354, "lon": -75.1560819}, {"type": "node", "id": 3426207835, "lat": 39.9413181, "lon": -75.1559428}, {"type": "node", "id": 3426207836, "lat": 39.9414999, "lon": -75.1559044}, {"type": "node", "id": 3426207875, "lat": 39.9343022, "lon": -75.153965}, {"type": "node", "id": 3426207876, "lat": 39.933848, "lon": -75.1540669}, {"type": "node", "id": 3426207877, "lat": 39.9337781, "lon": -75.1535418}, {"type": "node", "id": 3426207878, "lat": 39.9336796, "lon": -75.1535414}, {"type": "node", "id": 3426207881, "lat": 39.9336704, "lon": -75.1534702}, {"type": "node", "id": 3426207882, "lat": 39.9342234, "lon": -75.1533516}, {"type": "node", "id": 3429164421, "lat": 39.9505433, "lon": -75.1534833}, {"type": "node", "id": 3429164434, "lat": 39.9507591, "lon": -75.1534368}, {"type": "node", "id": 3429164435, "lat": 39.9507771, "lon": -75.1535791}, {"type": "node", "id": 3429164436, "lat": 39.9505613, "lon": -75.1536256}, {"type": "node", "id": 3441501224, "lat": 39.9501406, "lon": -75.1625689}, {"type": "node", "id": 3445896926, "lat": 39.9483269, "lon": -75.1531959}, {"type": "node", "id": 3445896927, "lat": 39.9485799, "lon": -75.1531411}, {"type": "node", "id": 3445896928, "lat": 39.9483354, "lon": -75.1532625}, {"type": "node", "id": 3445896929, "lat": 39.9484101, "lon": -75.1532463}, {"type": "node", "id": 3445896930, "lat": 39.9484061, "lon": -75.1532142}, {"type": "node", "id": 3445896931, "lat": 39.9484741, "lon": -75.1531994}, {"type": "node", "id": 3445896932, "lat": 39.9484777, "lon": -75.1532281}, {"type": "node", "id": 3445896933, "lat": 39.9485879, "lon": -75.1532042}, {"type": "node", "id": 3460931547, "lat": 39.9412945, "lon": -75.1524196}, {"type": "node", "id": 3466899710, "lat": 39.949504, "lon": -75.1536209}, {"type": "node", "id": 3467795010, "lat": 39.9420771, "lon": -75.1491694}, {"type": "node", "id": 3467795011, "lat": 39.9421209, "lon": -75.1491614}, {"type": "node", "id": 3467795012, "lat": 39.942145, "lon": -75.1493852}, {"type": "node", "id": 3467795013, "lat": 39.9421012, "lon": -75.1493932}, {"type": "node", "id": 3467795048, "lat": 39.9416886, "lon": -75.1490661, "tags": {"addr:city": "Philadelphia", "addr:postcode": "19147", "amenity": "cafe", "brand": "Starbucks", "brand:wikidata": "Q37158", "cuisine": "coffee_shop", "name": "Starbucks", "official_name": "Starbucks Coffee", "takeaway": "yes"}}, {"type": "node", "id": 3470849309, "lat": 39.9482622, "lon": -75.1437699, "tags": {"addr:city": "Philadelphia", "addr:housenumber": "132", "addr:postcode": "19106", "addr:street": "Chestnut Street", "amenity": "restaurant", "cuisine": "korean", "name": "Buk Chon", "phone": "+1 215-925-9998"}}, {"type": "node", "id": 3470849326, "lat": 39.9485312, "lon": -75.1441653, "tags": {"addr:city": "Philadelphia", "addr:housenumber": "60", "addr:postcode": "19106", "addr:street": "South 2nd Street", "amenity": "restaurant", "check_date": "2023-10-17", "contact:instagram": "https://www.instagram.com/margheritapizzaphilly", "cuisine": "pizza", "name": "Margherita Pizzeria", "opening_hours": "Mo-Th 11:00-19:30; Fr 11:00-20:30; Sa 12:00-20:30; Su off", "phone": "+1 215-922-7053", "website": "https://www.ordermargheritapizzeria.com"}}, {"type": "node", "id": 3470849327, "lat": 39.9484891, "lon": -75.1441761, "tags": {"addr:city": "Philadelphia", "addr:housenumber": "201", "addr:postcode": "19106", "addr:street": "Chestnut Street", "amenity": "pub", "check_date": "2023-10-17", "name": "Rotten Ralph's Pub & Eatery", "opening_hours": "Mo-Fr 12:00-26:00, Sa-Su 11:00-26:00", "phone": "+1 215-925-2440", "website": "https://www.rottenralphspub.com"}}, {"type": "node", "id": 3470849328, "lat": 39.9487996, "lon": -75.1441117, "tags": {"addr:city": "Philadelphia", "addr:housenumber": "48", "addr:postcode": "19106", "addr:street": "South 2nd Street", "amenity": "restaurant", "check_date": "2023-10-17", "email": "contact@sassafrasbar.com", "facebook": "https://www.facebook.com/Sassafrasbar", "name": "Sassafras", "opening_hours": "Mo-Tu 16:00-26:00; We-Su 12:00-26:00", "phone": "+1-215-925-2317", "website": "https://www.sassafrasbar.com/"}}, {"type": "node", "id": 3470849334, "lat": 39.9488335, "lon": -75.1441085, "tags": {"addr:city": "Philadelphia", "addr:housenumber": "48", "addr:postcode": "19106", "addr:street": "South 2nd Street", "amenity": "pub", "name": "Brownie's Pub"}}, {"type": "node", "id": 3470849335, "lat": 39.9487307, "lon": -75.1438899, "tags": {"addr:city": "Philadelphia", "addr:housenumber": "123", "addr:postcode": "19106", "addr:state": "PA", "addr:street": "Chestnut Street", "amenity": "pub", "check_date": "2023-10-17", "contact:instagram": "https://www.instagram.com/theploughphilly", "name": "The Plough & the Stars", "opening_hours": "Mo-Fr 12:00-26:00, Sa-Su 11:30-26:00", "phone": "+1 215-733-0300", "website": "https://ploughstars.com", "wheelchair": "limited"}}, {"type": "node", "id": 3472456199, "lat": 39.9495132, "lon": -75.1536939}, {"type": "node", "id": 3488810599, "lat": 39.949676, "lon": -75.1590277}, {"type": "node", "id": 3488810600, "lat": 39.9496803, "lon": -75.1590591}, {"type": "node", "id": 3488810601, "lat": 39.9496514, "lon": -75.1588467}, {"type": "node", "id": 3488810602, "lat": 39.949512, "lon": -75.1588788}, {"type": "node", "id": 3488901469, "lat": 39.9493892, "lon": -75.1536455}, {"type": "node", "id": 3488901470, "lat": 39.9493984, "lon": -75.1537185}, {"type": "node", "id": 3499206798, "lat": 39.9489002, "lon": -75.1599819}, {"type": "node", "id": 3499206799, "lat": 39.9490174, "lon": -75.1599564}, {"type": "node", "id": 3499206802, "lat": 39.9491724, "lon": -75.1599214}, {"type": "node", "id": 3499206803, "lat": 39.9492473, "lon": -75.1599051}, {"type": "node", "id": 3499206804, "lat": 39.9488898, "lon": -75.1599032}, {"type": "node", "id": 3499206805, "lat": 39.9492362, "lon": -75.159826}, {"type": "node", "id": 3499206806, "lat": 39.94917, "lon": -75.1599026}, {"type": "node", "id": 3499206807, "lat": 39.9490148, "lon": -75.1599364}, {"type": "node", "id": 3511654972, "lat": 39.9395248, "lon": -75.1668645}, {"type": "node", "id": 3511654973, "lat": 39.939392, "lon": -75.1668934}, {"type": "node", "id": 3511654974, "lat": 39.9393879, "lon": -75.1668615}, {"type": "node", "id": 3511654975, "lat": 39.9392863, "lon": -75.1668836}, {"type": "node", "id": 3511654976, "lat": 39.9392674, "lon": -75.166736}, {"type": "node", "id": 3511654977, "lat": 39.9393623, "lon": -75.1667154}, {"type": "node", "id": 3511654978, "lat": 39.9393554, "lon": -75.1666617}, {"type": "node", "id": 3511654979, "lat": 39.939495, "lon": -75.1666313}, {"type": "node", "id": 3511655000, "lat": 39.9393591, "lon": -75.1666903}, {"type": "node", "id": 3517411347, "lat": 39.9364072, "lon": -75.1626696, "tags": {"name": "Hung Vuong Supermarket", "name:zh": "\u96c4\u738b\u8d85\u7ea7\u5e02\u573a", "shop": "supermarket"}}, {"type": "node", "id": 3522399707, "lat": 39.9512998, "lon": -75.1665787, "tags": {"addr:city": "Philadelphia", "addr:housenumber": "1527", "addr:postcode": "19102", "addr:state": "PA", "addr:street": "Chestnut Street", "amenity": "fast_food", "branch": "Chestnut St.", "brand": "Five Guys", "brand:wikidata": "Q1131810", "check_date": "2023-10-08", "cuisine": "burger", "name": "Five Guys", "official_name": "Five Guys Burgers and Fries", "opening_hours": "11:00-21:00", "phone": "+1 215-972-1375", "takeaway": "yes", "website": "https://restaurants.fiveguys.com/1527-chestnut-st"}}, {"type": "node", "id": 3529171171, "lat": 39.9499718, "lon": -75.1624278, "tags": {"addr:city": "Philadelphia", "addr:housenumber": "1311", "addr:postcode": "19107", "addr:street": "Sansom Street", "amenity": "restaurant", "check_date": "2023-10-12", "contact:instagram": "https://www.instagram.com/dbgphilly", "cuisine": "burger", "name": "DBG", "opening_hours": "Mo-Tu off, We-Fr 16:00-26:00, Sa-Su 12:00-26:00", "phone": "+1 215-545-0170", "website": "https://dbgphilly.com"}}, {"type": "node", "id": 3529171172, "lat": 39.9500002, "lon": -75.162644, "tags": {"addr:housenumber": "1315", "addr:street": "Sansom Street", "amenity": "restaurant", "name": "Time"}}, {"type": "node", "id": 3529171337, "lat": 39.9491182, "lon": -75.1632279, "tags": {"addr:city": "Philadelphia", "addr:housenumber": "1324", "addr:postcode": "19107", "addr:state": "PA", "addr:street": "Walnut Street", "alt_name": "Dunkin' Donuts", "amenity": "fast_food", "brand": "Dunkin'", "brand:wikidata": "Q847743", "check_date": "2023-10-16", "cuisine": "donut;coffee_shop", "drive_through": "no", "name": "Dunkin'", "opening_hours": "Mo-Fr 05:30-19:00; Sa 06:00-17:00; Su off", "phone": "+1 215-732-1853", "ref": "310391", "takeaway": "yes", "website": "https://locations.dunkindonuts.com/en/pa/philadelphia/1324-walnut-street/310391"}}, {"type": "node", "id": 3531082345, "lat": 39.9494024, "lon": -75.1667152, "tags": {"addr:city": "Philadelphia", "addr:housenumber": "207", "addr:postcode": "19102", "addr:street": "South Sydenham Street", "amenity": "cafe", "contact:facebook": "ElixrCoffee", "contact:instagram": "elixrcoffee", "cuisine": "coffee_shop", "internet_access": "wlan", "name": "Elixr Coffee Roasters", "opening_hours": "Mo-Su 07:00-19:00", "power_supply": "yes", "website": "https://elixrcoffee.com/", "website:menu": "https://www.elixrpickup.com/?location=11ea67b9aa07e0cca76c0cc47a2b1e8c"}}, {"type": "node", "id": 3532578442, "lat": 39.9483204, "lon": -75.1624047, "tags": {"addr:housenumber": "1301", "addr:street": "Locust Street", "amenity": "restaurant", "check_date": "2023-04-11", "contact:phone": "+1 267-861-0314", "contact:website": "https://greeneggscafe.com", "name": "Green Eggs Cafe", "opening_hours": "Mo-Fr 09:00-15:00; Sa-Su 09:00-16:00", "ref": "Midtown Village"}}, {"type": "node", "id": 3545078824, "lat": 39.9501513, "lon": -75.1659493, "tags": {"addr:city": "Philadelphia", "addr:housenumber": "124", "addr:postcode": "19102", "addr:street": "South 15th Street", "amenity": "restaurant", "check_date": "2025-06-27", "check_date:opening_hours": "2025-06-27", "contact:instagram": "https://www.instagram.com/oceanprimephilly", "name": "Ocean Prime", "opening_hours": "Mo-Th,Su 16:00-21:00; Fr-Sa 16:00-22:00", "phone": "+1 215-563-0163", "website": "https://www.ocean-prime.com/locations-menus/philadelphia"}}, {"type": "node", "id": 3548494994, "lat": 39.9484091, "lon": -75.1653065, "tags": {"addr:housenumber": "1405", "addr:street": "Locust Street", "amenity": "restaurant", "check_date": "2023-04-11", "contact:facebook": "https://www.facebook.com/EstiaRestaurant", "contact:phone": "+1 215-735-7700", "contact:website": "https://estiarestaurant.com/philadelphia-pa/philadelphia-pa.asp", "cuisine": "greek", "name": "Estia", "opening_hours": "Mo-Th,Sa 15:00-20:30 \"(last seating)\"; Fr-Sa 15:00-21:30 \"(last seating)\""}}, {"type": "node", "id": 3548911780, "lat": 39.9501147, "lon": -75.1588484, "tags": {"addr:city": "Philadelphia", "addr:housenumber": "1102", "addr:postcode": "19107", "addr:street": "Chestnut Street", "amenity": "restaurant", "check_date": "2023-04-12", "contact:facebook": "https://www.facebook.com/HiroRamen", "contact:website": "http://hiroramenhouse.com", "cuisine": "ramen", "name": "Hiro Ramen", "opening_hours": "Mo-Sa 12:00-18:00; Su off"}}, {"type": "node", "id": 3548911781, "lat": 39.9497363, "lon": -75.1604902, "tags": {"addr:city": "Philadelphia", "addr:housenumber": "118", "addr:postcode": "19107", "addr:street": "South 12th Street", "amenity": "pub", "check_date": "2023-04-12", "contact:phone": "+1 215-923-3090", "contact:website": "https://www.finnmccoolsphilly.com", "name": "Finn McCools Ale House"}}, {"type": "node", "id": 3548911782, "lat": 39.9498213, "lon": -75.1602317, "tags": {"addr:city": "Philadelphia", "addr:housenumber": "117", "addr:postcode": "19107", "addr:street": "South 12th Street", "amenity": "restaurant", "name": "Kitchenette"}}, {"type": "node", "id": 3548911783, "lat": 39.9505325, "lon": -75.1603164, "tags": {"addr:city": "Philadelphia", "addr:housenumber": "1201", "addr:postcode": "19107", "addr:state": "PA", "addr:street": "Chestnut Street", "atm": "yes", "brand": "7-Eleven", "brand:wikidata": "Q259340", "delivery": "yes", "fast_food": "yes", "fuel:propane": "yes", "name": "7-Eleven", "phone": "+1 215-564-6003", "ref": "33305", "shop": "convenience", "website": "https://www.7-eleven.com/locations/pa/philadelphia/1201-chestnut-street-33305"}}, {"type": "node", "id": 3587740655, "lat": 39.9499635, "lon": -75.1454025, "tags": {"addr:city": "Philadelphia", "addr:housenumber": "242-244", "addr:postcode": "19106", "addr:state": "PA", "addr:street": "Market Street", "atm": "yes", "brand": "7-Eleven", "brand:wikidata": "Q259340", "fast_food": "yes", "fuel:propane": "yes", "name": "7-Eleven", "phone": "+1 215-574-3560", "ref": "36875", "shop": "convenience", "website": "https://www.7-eleven.com/locations/pa/philadelphia/242-244-market-st-36875"}}, {"type": "node", "id": 3587740667, "lat": 39.9498952, "lon": -75.1447997, "tags": {"addr:city": "Philadelphia", "addr:housenumber": "228", "addr:postcode": "19106", "addr:state": "PA", "addr:street": "Market Street", "amenity": "restaurant", "contact:facebook": "SonnysSteaks", "cuisine": "american;burger", "email": "info@sonnyscheesesteaks.com", "name": "Sonny's Famous Steaks", "opening_hours": "11:00-22:00", "phone": "+1 215-629-5760", "website": "https://sonnyscheesesteaks.com", "website:menu": "https://sonnyscheesesteaks.com/menu/"}}, {"type": "node", "id": 3587740668, "lat": 39.9498391, "lon": -75.1443109, "tags": {"addr:city": "Philadelphia", "addr:housenumber": "214", "addr:postcode": "19106", "addr:street": "Market Street", "amenity": "restaurant", "check_date": "2024-03-08", "contact:facebook": "Camposphillycheesesteaks", "contact:instagram": "camposphillycheesesteaks", "contact:twitter": "CamposSteaks", "cuisine": "sandwich", "email": "camposphiladelphia@gmail.com", "name": "Campo's Deli", "opening_hours": "Mo-Sa 09:30-22:00; Su 09:30-21:00", "phone": "+1 215-923-1000", "website": "https://camposdeli.com/philadelphia-sandwich-shop"}}, {"type": "node", "id": 3694409825, "lat": 39.9486465, "lon": -75.1453965, "tags": {"addr:city": "Philadelphia", "addr:housenumber": "233", "addr:postcode": "19106", "addr:state": "PA", "addr:street": "Chestnut Street", "amenity": "restaurant", "check_date": "2024-10-06", "cuisine": "french", "name": "Forsythia", "opening_hours": "Mo-Fr 17:00-22:00; Sa 10:30-14:00,17:00-22:00; Su 10:30-14:00,17:00-21:00", "phone": "+1-215-644-9395", "website": "https://www.forsythiaphilly.com/"}}, {"type": "node", "id": 3696144857, "lat": 39.9423535, "lon": -75.1457164, "tags": {"addr:housenumber": "420", "addr:postcode": "19106", "addr:street": "South 2nd Street", "amenity": "restaurant", "capacity": "150", "cuisine": "pizza", "name": "Pizzeria Stella", "opening_hours": "Su 11:00-10:00, Mo-Th 11:30-10:00, Fr 11:30-11:00, Sa 11:00-11:00", "outdoor_seating": "yes", "smoking": "no", "takeaway": "yes"}}, {"type": "node", "id": 3896676608, "lat": 39.949889, "lon": -75.1447378, "tags": {"addr:city": "Philadelphia", "addr:housenumber": "226", "addr:postcode": "19106", "addr:state": "PA", "addr:street": "Market Street", "amenity": "pub", "fax": "+1 267-324-5508", "kitchen_hours": "Mo 16:00-23:00; Tu-Su 11:00-23:00", "name": "Mac's Tavern", "opening_hours": "Mo off, Tu 16:30+, We-Su 11:30+", "outdoor_seating": "yes", "phone": "+1 267-324-5507", "website": "http://macstavern.com/"}}, {"type": "node", "id": 4140719306, "lat": 39.9503121, "lon": -75.1653423, "tags": {"amenity": "restaurant", "name": "Jazz"}}, {"type": "node", "id": 4236656391, "lat": 39.9479023, "lon": -75.1613868, "tags": {"addr:city": "Philadelphia", "addr:housenumber": "1221", "addr:state": "PA", "addr:street": "Locust Street", "amenity": "restaurant", "cuisine": "fine_dining", "diet:vegan": "only", "name": "Vedge", "phone": "+1 215 3207500", "smoking": "no", "website": "https://www.vedgerestaurant.com/", "wikidata": "Q61968737"}}, {"type": "node", "id": 4271027594, "lat": 39.9495876, "lon": -75.1604344, "tags": {"addr:housenumber": "122", "addr:street": "South 12th Street", "amenity": "restaurant", "check_date": "2023-04-12", "contact:facebook": "https://www.facebook.com/hatchandcoopphilly", "contact:phone": "+1 215-922-0102", "contact:website": "https://www.hatchandcoop.com", "cuisine": "american", "email": "hello@hatchandcoop.com", "name": "Hatch & Coop", "opening_hours": "24/7"}}, {"type": "node", "id": 4279226186, "lat": 39.9353584, "lon": -75.158915}, {"type": "node", "id": 4279226187, "lat": 39.9353638, "lon": -75.1589128}, {"type": "node", "id": 4279226188, "lat": 39.9353091, "lon": -75.1586979}, {"type": "node", "id": 4279226289, "lat": 39.9352869, "lon": -75.1587458}, {"type": "node", "id": 4279226290, "lat": 39.9353468, "lon": -75.158863}, {"type": "node", "id": 4279226291, "lat": 39.9353458, "lon": -75.1588986}, {"type": "node", "id": 4305816202, "lat": 39.9497775, "lon": -75.1449101, "tags": {"amenity": "restaurant", "name": "Happily Ever After"}}, {"type": "node", "id": 4307290990, "lat": 39.9386272, "lon": -75.1578257, "tags": {"addr:housenumber": "943", "addr:street": "South 9th Street", "amenity": "restaurant", "name": "Neuf Restaurant"}}, {"type": "node", "id": 4365255869, "lat": 39.9365275, "lon": -75.1666986}, {"type": "node", "id": 4365255870, "lat": 39.9366142, "lon": -75.1666796}, {"type": "node", "id": 4365255871, "lat": 39.9365995, "lon": -75.1665757}, {"type": "node", "id": 4365255872, "lat": 39.9364893, "lon": -75.1667264}, {"type": "node", "id": 4365255873, "lat": 39.9364117, "lon": -75.1667207}, {"type": "node", "id": 4365255874, "lat": 39.9364865, "lon": -75.1667043}, {"type": "node", "id": 4365255876, "lat": 39.9365299, "lon": -75.1667175}, {"type": "node", "id": 4365255878, "lat": 39.936802, "lon": -75.1666247}, {"type": "node", "id": 4365255879, "lat": 39.9368123, "lon": -75.1668185}, {"type": "node", "id": 4365255880, "lat": 39.9367974, "lon": -75.1668222}, {"type": "node", "id": 4365255881, "lat": 39.9367891, "lon": -75.1665231}, {"type": "node", "id": 4365255882, "lat": 39.9367747, "lon": -75.1668121}, {"type": "node", "id": 4365255885, "lat": 39.9367956, "lon": -75.1665221}, {"type": "node", "id": 4365255887, "lat": 39.9368196, "lon": -75.1668093}, {"type": "node", "id": 4471787959, "lat": 39.9365697, "lon": -75.1584569}, {"type": "node", "id": 4471787960, "lat": 39.9365239, "lon": -75.1584671}, {"type": "node", "id": 4471787961, "lat": 39.9365901, "lon": -75.158713}, {"type": "node", "id": 4471787962, "lat": 39.9366354, "lon": -75.1586922}, {"type": "node", "id": 4530595506, "lat": 39.934029, "lon": -75.1661135}, {"type": "node", "id": 4530595507, "lat": 39.93403, "lon": -75.166142}, {"type": "node", "id": 4530595510, "lat": 39.9340605, "lon": -75.1659597}, {"type": "node", "id": 4530595513, "lat": 39.9340844, "lon": -75.1661394}, {"type": "node", "id": 4532247063, "lat": 39.9364684, "lon": -75.1649418}, {"type": "node", "id": 4532247064, "lat": 39.9365018, "lon": -75.1651689}, {"type": "node", "id": 4532247067, "lat": 39.936546, "lon": -75.1651589}, {"type": "node", "id": 4532260719, "lat": 39.9364609, "lon": -75.1649552}, {"type": "node", "id": 4532646129, "lat": 39.9344353, "lon": -75.1610415}, {"type": "node", "id": 4532646135, "lat": 39.9344433, "lon": -75.1610966}, {"type": "node", "id": 4532646158, "lat": 39.934463, "lon": -75.1610349}, {"type": "node", "id": 4532646179, "lat": 39.9345896, "lon": -75.1609958}, {"type": "node", "id": 4534692796, "lat": 39.93492, "lon": -75.1616201}, {"type": "node", "id": 4534692797, "lat": 39.9349342, "lon": -75.1616165}, {"type": "node", "id": 4666484198, "lat": 39.9368588, "lon": -75.1593818}, {"type": "node", "id": 4666484200, "lat": 39.9367613, "lon": -75.1593555}, {"type": "node", "id": 4666484201, "lat": 39.9368425, "lon": -75.1593191}, {"type": "node", "id": 4666484212, "lat": 39.9367794, "lon": -75.1594209}, {"type": "node", "id": 4666484217, "lat": 39.9366118, "lon": -75.158605}, {"type": "node", "id": 4668627528, "lat": 39.9339399, "lon": -75.158865}, {"type": "node", "id": 4823195977, "lat": 39.9337763, "lon": -75.153794}, {"type": "node", "id": 4823195978, "lat": 39.9337753, "lon": -75.1538935}, {"type": "node", "id": 4823195979, "lat": 39.933811, "lon": -75.1537882}, {"type": "node", "id": 4823195980, "lat": 39.9338251, "lon": -75.1538949}, {"type": "node", "id": 4839107785, "lat": 39.939066, "lon": -75.1593208, "tags": {"amenity": "restaurant", "cuisine": "pizza", "name": "Santucci's"}}, {"type": "node", "id": 4880698721, "lat": 39.9495012, "lon": -75.152127, "tags": {"addr:postcode": "19106", "amenity": "restaurant", "cuisine": "italian", "email": "Eat@lascalasphilly.com", "internet_access": "wlan", "name": "LaScala's", "name:en": "LaScala's", "opening_hours": "Mo-Th 11:00-22:00; Fr-Sa 11:00-23:00; Su 11:00-21:00", "phone": "+1 215 928 09 00", "website": "http://lascalasphilly.com/"}}, {"type": "node", "id": 4884521621, "lat": 39.9485693, "lon": -75.1591721, "tags": {"addr:city": "Philadelphia", "addr:housenumber": "1100", "addr:postcode": "19107", "addr:state": "PA", "addr:street": "Walnut Street", "alt_name": "Dunkin' Donuts", "amenity": "fast_food", "brand": "Dunkin'", "brand:wikidata": "Q847743", "check_date": "2023-04-13", "cuisine": "donut;coffee_shop", "drive_through": "no", "name": "Dunkin'", "opening_hours": "Mo-Fr 05:30-19:00; Sa-Su 06:00-15:00", "phone": "+1 215-925-1919", "ref": "348933", "takeaway": "yes", "website": "https://locations.dunkindonuts.com/en/pa/philadelphia/1100-walnut-st/348933"}}, {"type": "node", "id": 5413260221, "lat": 39.9412051, "lon": -75.1524413}, {"type": "node", "id": 5437614221, "lat": 39.9488836, "lon": -75.1470298, "tags": {"addr:city": "Philadelphia", "addr:housenumber": "325", "addr:postcode": "19106", "addr:state": "PA", "addr:street": "Chestnut Street", "amenity": "restaurant", "brand": "Buddakan", "brand:wikidata": "Q21015930", "check_date": "2023-10-16", "cuisine": "asian", "name": "Buddakan", "opening_hours": "Mo-Th 17:00-22:00; Fr-Sa 17:00-23:00; Su 16:00-22:00", "phone": "+1 215-574-9440", "website": "https://buddakan.com"}}, {"type": "node", "id": 5437614421, "lat": 39.9497016, "lon": -75.161896, "tags": {"addr:housenumber": "121", "addr:postcode": "19107", "addr:street": "South 13th Street", "amenity": "restaurant", "check_date": "2023-10-12", "contact:instagram": "https://www.instagram.com/elvezphilly", "name": "El Vez", "opening_hours": "Mo-Th 11:30-22:00; Fr 11:30-24:00; Sa 11:30-15:00,16:00-24:00; Su 11:30-15:00,16:00-22:00", "phone": "+1 215-928-9800", "website": "https://elvezrestaurant.com"}}, {"type": "node", "id": 5486477421, "lat": 39.9505906, "lon": -75.1507679, "tags": {"amenity": "cafe", "brand": "La Colombe Coffee Roasters", "brand:wikidata": "Q23461663", "check_date": "2023-02-19", "cuisine": "coffee_shop", "name": "La Colombe Coffee Roasters", "outdoor_seating": "yes", "short_name": "La Colombe", "takeaway": "yes", "toilets": "yes"}}, {"type": "node", "id": 5504220821, "lat": 39.9410378, "lon": -75.1451598, "tags": {"addr:housenumber": "140", "addr:street": "South Street", "amenity": "restaurant", "check_date": "2023-04-13", "name": "South Street Diner"}}, {"type": "node", "id": 5595413962, "lat": 39.9495249, "lon": -75.1618901, "tags": {"addr:city": "Philadelphia", "addr:housenumber": "131", "addr:postcode": "19107", "addr:state": "PA", "addr:street": "South 13th Street", "amenity": "restaurant", "check_date": "2023-10-12", "description": "High-end vegan bar with small plates, open late.", "diet:vegan": "yes", "name": "Charlie Was a Sinner", "opening_hours": "Mo-Th,Su 16:00-23:00 \"kitchen closes at 10pm\", Fr-Sa 16:00-24:00 \"kitchen closes at 11pm\"", "phone": "+1 267-758-5372", "website": "https://charliewasasinner.com/"}}, {"type": "node", "id": 5595440227, "lat": 39.9422809, "lon": -75.1552152, "tags": {"addr:city": "Philadelphia", "addr:housenumber": "742", "addr:postcode": "19147", "addr:state": "PA", "addr:street": "South Street", "amenity": "restaurant", "check_date:opening_hours": "2021-03-22", "cuisine": "asian;chinese;bubble_tea", "diet:vegan": "only", "diet:vegetarian": "yes", "name": "Vegan Tree", "opening_hours": "We-Mo 11:00-20:00", "outdoor_seating": "no", "phone": "+1-215-454-2898", "smoking": "no", "takeaway": "yes"}}, {"type": "node", "id": 5595443764, "lat": 39.9502614, "lon": -75.1638109, "tags": {"addr:city": "Philadelphia", "addr:housenumber": "121", "addr:postcode": "19107", "addr:state": "PA", "addr:street": "South Broad Street", "amenity": "restaurant", "cuisine": "american;fast_food", "description": "Vegan fast food.", "diet:vegan": "only", "diet:vegetarian": "yes", "name": "HipCityVeg"}}, {"type": "node", "id": 5595449225, "lat": 39.9503602, "lon": -75.1668521, "tags": {"addr:city": "Philadelphia", "addr:housenumber": "1526", "addr:postcode": "19102", "addr:state": "PA", "addr:street": "Sansom Street", "amenity": "cafe", "branch": "Rittenhouse", "brand": "Bagels & Co.", "check_date": "2025-02-23", "check_date:opening_hours": "2025-02-23", "cuisine": "coffee_shop", "name": "Bagels & Co.", "opening_hours": "07:00-15:00", "opening_hours:signed": "no", "outdoor_seating": "no", "phone": "+1 215-964-9974", "website": "https://www.thebagelsandco.com/location/bagels-and-co-rittenhouse"}}, {"type": "node", "id": 5602692781, "lat": 39.9385782, "lon": -75.1497557, "tags": {"addr:city": "Philadelphia", "addr:housenumber": "765", "addr:postcode": "19147", "addr:state": "PA", "addr:street": "South 4th Street", "amenity": "cafe", "check_date": "2023-04-12", "contact:facebook": "https://www.facebook.com/redhookphilly", "cuisine": "coffee;tea;sandwich", "description": "Coffee and tea with indoor/outdoor seating and some vegan/vegetarian sandwich options.  Specializes in fair-trade, organic coffee.  BYOB", "diet:vegan": "yes", "diet:vegetarian": "yes", "internet_access": "wlan", "internet_access:fee": "no", "internet_access:ssid": "RedHook", "name": "Red Hook Coffee & Tea", "opening_hours": "Mo-Su 07:00-18:00", "outdoor_seating": "yes", "smoking": "no"}}, {"type": "node", "id": 5605114326, "lat": 39.9436822, "lon": -75.1664502, "tags": {"addr:city": "Philadelphia", "addr:housenumber": "1424", "addr:postcode": "19146", "addr:state": "PA", "addr:street": "South Street", "amenity": "restaurant", "cuisine": "bakery;dessert", "description": "Bakery offering cupcakes, muffins, cake, cookies, bars, donuts, and other desserts. All items are vegan gluten-free.", "diet:vegan": "only", "diet:vegetarian": "only", "name": "Sweet Freedom Bakery", "opening_hours": "Tu-Sa 10:00-19:00; Su 10:00-16:00", "phone": "+1 215-545-1899", "website": "https://www.sweetfreedombakery.com/"}}, {"type": "node", "id": 5605233860, "lat": 39.9503026, "lon": -75.1663275, "tags": {"addr:city": "Philadelphia", "addr:housenumber": "1508", "addr:postcode": "19102", "addr:state": "PA", "addr:street": "Sansom Street", "amenity": "restaurant", "cuisine": "chinese;sichuan", "diet:vegan": "yes", "diet:vegetarian": "yes", "name": "Chengdu Center City", "opening_hours": "Mo-Fr 11:00-21:30; Sa-Su 11:30-22:00", "phone": "+1 215 564 2949", "was:name": "Su Xing House", "website": "https://suxinghouserestaurant.com/"}}, {"type": "node", "id": 5723276201, "lat": 39.9464393, "lon": -75.1441706, "tags": {"amenity": "vending_machine", "currency:USD": "yes", "payment:cash": "yes", "payment:credit_cards": "yes", "vending": "parking_tickets"}}, {"type": "node", "id": 5761714315, "lat": 39.9488087, "lon": -75.1606774, "tags": {"addr:city": "Philadelphia", "addr:housenumber": "1200", "addr:postcode": "19107", "addr:state": "PA", "addr:street": "Walnut Street", "addr:unit": "Suite B", "amenity": "fast_food", "brand": "Chipotle", "brand:wikidata": "Q465751", "check_date": "2023-10-12", "cuisine": "mexican", "name": "Chipotle", "official_name": "Chipotle Mexican Grill", "opening_hours": "Mo-Su 10:45-22:00", "phone": "+1 267-535-5483", "takeaway": "yes", "website": "https://locations.chipotle.com/pa/philadelphia/1200-walnut-st"}}, {"type": "node", "id": 5885155785, "lat": 39.9516239, "lon": -75.1651589, "tags": {"addr:city": "Philadelphia", "addr:housenumber": "1414", "addr:postcode": "19102", "addr:state": "PA", "addr:street": "South Penn Square", "amenity": "cafe", "check_date": "2023-10-08", "name": "Waterfront Gourmet Cafe & Deli", "opening_hours": "Mo-Fr 08:00-18:00; Sa-Su off", "phone": "+1 267-758-2383", "website": "https://dilworthplaza.waterfrontgourmet.com"}}, {"type": "node", "id": 5955006785, "lat": 39.942934, "lon": -75.1587786, "tags": {"addr:city": "Philadelphia", "addr:housenumber": "1001", "addr:postcode": "19147", "addr:state": "PA", "addr:street": "South Street", "brand": "Acme", "brand:wikidata": "Q341975", "name": "Acme", "opening_hours": "Mo-Su 07:00-22:00", "phone": "+1 215-238-1108", "shop": "supermarket", "website": "https://local.acmemarkets.com/pa/philadelphia/1001-south-st.html"}}, {"type": "node", "id": 6217483362, "lat": 39.9474605, "lon": -75.1593556, "tags": {"addr:city": "Philadelphia", "addr:housenumber": "234", "addr:state": "PA", "addr:street": "South 11th Street", "amenity": "cafe", "cuisine": "coffee_shop", "internet_access": "yes", "internet_access:fee": "no", "name": "Saxby's Coffee", "opening_hours": "Mo-Fr 06:00-20:00, Sa-Su 07:00-20:00", "outdoor_seating": "no", "smoking": "no", "website": "https://www.saxbyscoffee.com/"}}, {"type": "node", "id": 6221547185, "lat": 39.9494459, "lon": -75.1656902, "tags": {"addr:city": "Philadelphia", "addr:housenumber": "1430", "addr:postcode": "19102", "addr:street": "Walnut Street", "alt_name": "Cheesecake Factory", "amenity": "restaurant", "brand": "The Cheesecake Factory", "brand:wikidata": "Q1045842", "check_date": "2023-10-15", "cuisine": "american", "name": "The Cheesecake Factory", "name:ca": "Cheesecake factory", "opening_hours": "Mo-Th 11:30-22:00; Fr 11:30-23:00; Sa 11:00-23:00; Su 10:00-22:00", "phone": "+1 267-457-2203", "website": "https://locations.thecheesecakefactory.com/pa/philadelphia-181.html"}}, {"type": "node", "id": 6223870591, "lat": 39.9485611, "lon": -75.1445693, "tags": {"addr:city": "Philadelphia", "addr:housenumber": "211", "addr:postcode": "19106", "addr:state": "PA", "addr:street": "Chestnut Street", "amenity": "cafe", "cuisine": "coffee_shop;sandwich", "name": "Customs Coffee House (Double Shots)", "opening_hours": "Mo-Sa 07:00-18:00; Su 09:00-18:00", "shop": "bakery"}}, {"type": "node", "id": 6223870592, "lat": 39.9493545, "lon": -75.1446832, "tags": {"addr:city": "Philadelphia", "addr:housenumber": "220", "addr:postcode": "19106", "addr:state": "PA", "addr:street": "Market Street", "amenity": "cafe", "contact:facebook": "benandbetsys", "contact:instagram": "redparasolcafe", "cuisine": "coffee_shop", "name": "Red Parasol Cafe", "opening_hours": "Mo-Th 07:30-18:30; Fr-Su 07:30-19:30", "phone": "+1-215-366-2037"}}, {"type": "node", "id": 6223870593, "lat": 39.9482781, "lon": -75.1439967, "tags": {"addr:city": "Philadelphia", "addr:housenumber": "105", "addr:postcode": "19106", "addr:state": "PA", "addr:street": "South 2nd Street", "amenity": "cafe", "check_date": "2023-10-17", "contact:instagram": "https://www.instagram.com/littlesusies", "cuisine": "ice_cream;coffee_shop", "name": "Little Susie's Coffee & Pie", "opening_hours": "07:00-14:00", "phone": "+1 215-560-8111", "website": "https://www.littlesusies.com"}}, {"type": "node", "id": 6223870594, "lat": 39.9503475, "lon": -75.1457854, "tags": {"addr:city": "Philadelphia", "addr:housenumber": "301", "addr:postcode": "19106", "addr:state": "PA", "addr:street": "Market Street", "amenity": "cafe", "cuisine": "coffee_shop", "name": "OCF Coffee House", "opening_hours": "07:00-19:00"}}, {"type": "node", "id": 6223870595, "lat": 39.9471048, "lon": -75.147055, "tags": {"addr:city": "Philadelphia", "addr:housenumber": "320", "addr:postcode": "19106", "addr:state": "PA", "addr:street": "Walnut Street", "amenity": "cafe", "cuisine": "coffee_shop;bakery", "name": "FRIEDA", "opening_hours": "Mo-Fr 08:00-15:00; Sa,Su 09:00-15:00", "phone": "+1 215-600-1291", "website": "https://friedaforgenerations.com/"}}, {"type": "node", "id": 6223880859, "lat": 39.942922, "lon": -75.1520273, "tags": {"addr:city": "Philadelphia", "addr:housenumber": "542", "addr:postcode": "19147", "addr:state": "PA", "addr:street": "Lombard Street", "amenity": "cafe", "name": "Lombard Cafe"}}, {"type": "node", "id": 6223890457, "lat": 39.9507472, "lon": -75.1519232, "tags": {"addr:city": "Philadelphia", "addr:housenumber": "634", "addr:postcode": "19106", "addr:state": "PA", "addr:street": "Market Street", "alt_name": "Dunkin' Donuts", "amenity": "fast_food", "brand": "Dunkin'", "brand:wikidata": "Q847743", "cuisine": "donut;coffee_shop", "drive_through": "no", "name": "Dunkin'", "opening_hours": "Mo-Fr 05:30-19:00; Sa-Su 06:00-18:00", "phone": "+1 215-922-6447", "ref": "310408", "takeaway": "yes", "website": "https://locations.dunkindonuts.com/en/pa/philadelphia/634-market-st/310408"}}, {"type": "node", "id": 6374481270, "lat": 39.9463061, "lon": -75.1451873, "tags": {"addr:city": "Philadelphia", "addr:housenumber": "237", "addr:postcode": "19106", "addr:state": "PA", "addr:street": "St James Place", "amenity": "restaurant", "email": "info@zahavrestaurant.com", "name": "Zahav", "opening_hours": "Su-Th 17:00-22:00; Fr-Sa 17:00-23:00", "phone": "+1-215-625-8800", "website": "http://www.zahavrestaurant.com"}}, {"type": "node", "id": 6376956284, "lat": 39.9419128, "lon": -75.1525978, "tags": {"addr:city": "Philadelphia", "addr:housenumber": "604", "addr:postcode": "19147", "addr:state": "PA", "addr:street": "South Street", "amenity": "restaurant", "cuisine": "sushi;japanese", "name": "Shiso", "website": "https://shisonoodleandsushi.com/"}}, {"type": "node", "id": 6376963589, "lat": 39.9380401, "lon": -75.1465169, "tags": {"addr:city": "Philadelphia", "addr:housenumber": "780", "addr:postcode": "19147", "addr:state": "PA", "addr:street": "South 2nd Street", "amenity": "restaurant", "name": "Royal Sushi and Izakaya"}}, {"type": "node", "id": 6377045777, "lat": 39.9500306, "lon": -75.1461104, "tags": {"addr:city": "Philadelphia", "addr:housenumber": "306", "addr:postcode": "19106", "addr:state": "PA", "addr:street": "Market Street", "amenity": "restaurant", "check_date": "2023-10-16", "name": "Fork", "phone": "+1 215-625-9425", "website": "https://forkrestaurant.com"}}, {"type": "node", "id": 6421220597, "lat": 39.9428409, "lon": -75.1455734, "tags": {"addr:city": "Philadelphia", "addr:housenumber": "410", "addr:postcode": "19147", "addr:state": "PA", "addr:street": "South 2nd Street", "amenity": "cafe", "contact:instagram": "https://www.instagram.com/lorettasphilly/", "email": "info@lorettasphilly.com", "name": "Loretta's", "opening_hours": "Mo-Fr 07:30-14:00; Sa,Su 08:00-14:00", "website": "https://www.lorettasphilly.com/"}}, {"type": "node", "id": 6421220598, "lat": 39.9409857, "lon": -75.1478313, "tags": {"addr:city": "Philadelphia", "addr:housenumber": "616", "addr:postcode": "19147", "addr:state": "PA", "addr:street": "South 3rd Street", "amenity": "cafe", "check_date": "2023-10-17", "contact:instagram": "https://www.instagram.com/oxcoffee", "cuisine": "coffee_shop", "name": "Ox Coffee", "opening_hours": "Mo-Fr 07:30-13:00; Sa-Su 08:00-14:00", "website": "https://www.oxcoffee.com"}}, {"type": "node", "id": 6421220599, "lat": 39.9410145, "lon": -75.1475965, "tags": {"addr:city": "Philadelphia", "addr:housenumber": "613", "addr:postcode": "19147", "addr:state": "PA", "addr:street": "South 3rd Street", "amenity": "restaurant", "check_date": "2023-10-17", "cuisine": "bagel", "name": "South Street Philly Bagels", "opening_hours": "Mo-Su 06:30-16:00", "phone": "+1 215-627-6277", "website": "https://southstphillybagel.com/"}}, {"type": "node", "id": 6448326618, "lat": 39.9517161, "lon": -75.1595773, "tags": {"addr:city": "Philadelphia", "addr:housenumber": "1150", "addr:postcode": "19107", "addr:street": "Market Street", "amenity": "pub", "check_date": "2023-10-15", "name": "Iron Hill Brewery", "opening_hours": "Mo-Th 11:00-23:00; Fr-Sa 11:00-24:00; Su 11:00-22:00", "phone": "+1 267-507-7365", "website": "https://ironhillbrewery.com/location/philadelphia-pa"}}, {"type": "node", "id": 6450859594, "lat": 39.9516581, "lon": -75.1591223, "tags": {"addr:housenumber": "1140", "addr:street": "Market Street", "amenity": "fast_food", "brand": "District Taco", "brand:wikidata": "Q26237090", "cuisine": "mexican", "name": "District Taco", "opening_hours": "Mo-Su 07:00-22:00", "phone": "+1-267-861-7880", "takeaway": "yes"}}, {"type": "node", "id": 6556404860, "lat": 39.9371758, "lon": -75.1628562, "tags": {"addr:postcode": "19147", "amenity": "restaurant", "contact:instagram": "pho75_washingtonave", "cuisine": "vietnamese", "name": "Pho 75", "opening_hours": "Mo-Su 09:00-20:00", "phone": "+1-215-271-5866", "website": "https://phillypho.com/"}}, {"type": "node", "id": 6558075391, "lat": 39.9493552, "lon": -75.1528408, "tags": {"amenity": "fast_food", "name": "Park\u2019s Salad Bar"}}, {"type": "node", "id": 6558075397, "lat": 39.9497165, "lon": -75.1536442, "tags": {"amenity": "fast_food", "brand": "Philly Pretzel Factory", "brand:wikidata": "Q60097339", "cuisine": "pretzel", "name": "Philly Pretzel Factory", "takeaway": "yes"}}, {"type": "node", "id": 6558075398, "lat": 39.9493817, "lon": -75.1530828, "tags": {"amenity": "restaurant", "name": "El Azteca"}}, {"type": "node", "id": 6558075400, "lat": 39.9495163, "lon": -75.1544281, "tags": {"name": "Chestnut Food Market", "shop": "supermarket"}}, {"type": "node", "id": 6558075404, "lat": 39.9498259, "lon": -75.1523903, "tags": {"addr:city": "Philadelphia", "addr:housenumber": "36", "addr:postcode": "19106", "addr:state": "PA", "addr:street": "South 7th Street", "amenity": "cafe", "internet_access": "yes", "name": "Time & Peace", "outdoor_seating": "no", "phone": "+1-267-687-7024", "website": "https://www.time-and-peace.com/"}}, {"type": "node", "id": 6634166429, "lat": 39.9378953, "lon": -75.1596055, "tags": {"amenity": "cafe", "name": "Function Coffee Labs", "opening_hours": "Mo-Sa 07:30-16:00; Su 07:30-15:00", "website": "https://www.functioncoffeelabs.com/#sciencemadecoffee"}}, {"type": "node", "id": 6682336050, "lat": 39.9484369, "lon": -75.1437157, "tags": {"addr:city": "Philadelphia", "addr:country": "US", "addr:housenumber": "123", "addr:postcode": "19106", "addr:state": "PA", "addr:street": "Chestnut Street", "air_conditioning": "yes", "amenity": "restaurant", "cuisine": "chinese", "name": "Han Dynasty", "opening_hours": "Su-Th 11:30-22:00; Fr-Sa 11:30-22:30", "phone": "+1-215-922-1888", "website": "https://www.handynasty.net/"}}, {"type": "node", "id": 6682341806, "lat": 39.9490779, "lon": -75.1510749, "tags": {"addr:city": "Philadelphia", "addr:housenumber": "150", "addr:postcode": "19106", "addr:state": "PA", "addr:street": "South Independence Mall West", "addr:unit": "102", "air_conditioning": "yes", "brand": "Wawa", "brand:wikidata": "Q5936320", "internet_access": "wlan", "name": "Wawa", "opening_hours": "24/7", "operator": "Wawa", "payment:cards": "yes", "payment:cash": "yes", "payment:coins": "yes", "payment:contactless": "yes", "payment:credit_cards": "yes", "payment:debit_cards": "yes", "payment:mastercard": "yes", "payment:notes": "yes", "payment:visa": "yes", "phone": "+1-267-299-6269", "shop": "convenience", "website": "https://wawa.com/"}}, {"type": "node", "id": 6964126497, "lat": 39.9480126, "lon": -75.1544541, "tags": {"addr:housenumber": "804", "addr:street": "Walnut Street", "brand": "7-Eleven", "brand:wikidata": "Q259340", "check_date": "2023-04-13", "contact:phone": "+1 215-574-1248", "contact:website": "https://www.7-eleven.com/locations/pa/philadelphia/804-walnut-street-33358", "name": "7-Eleven", "opening_hours": "24/7", "shop": "convenience"}}, {"type": "node", "id": 7142841685, "lat": 39.940697, "lon": -75.1575784, "tags": {"addr:housenumber": "736", "addr:postcode": "19147", "addr:street": "South 9th Street", "amenity": "restaurant", "cuisine": "pizza", "name": "Angelo's pizza", "name:en": "Angelo's Pizzeria South Philly", "website": "https://www.angelospizzeriasouthphiladelphia.com/"}}, {"type": "node", "id": 7265222641, "lat": 39.9445562, "lon": -75.1578617, "tags": {"addr:city": "Philadelphia", "addr:housenumber": "928", "addr:postcode": "19107", "addr:state": "PA", "addr:street": "Pine Street", "air_conditioning": "yes", "amenity": "cafe", "capacity": "50", "check_date:opening_hours": "2023-10-08", "internet_access": "yes", "internet_access:ssid": "@GoodKarmaGuest", "name": "Good Karma", "opening_hours": "Mo-Su 07:00-22:00", "opening_hours:signed": "no", "outdoor_seating": "yes", "phone": "+1-267-519-8860", "website": "https://www.thegoodkarmacafe.com/", "wheelchair": "no"}}, {"type": "node", "id": 7393396261, "lat": 39.9502748, "lon": -75.1601262, "tags": {"amenity": "fast_food", "brand": "Shake Shack", "brand:wikidata": "Q1058722", "cuisine": "burger", "name": "Shake Shack", "phone": "+1-215-709-2702", "takeaway": "yes"}}, {"type": "node", "id": 7433907098, "lat": 39.9400144, "lon": -75.1494113, "tags": {"addr:city": "Philadelphia", "addr:housenumber": "719", "addr:postcode": "19147", "addr:state": "PA", "addr:street": "South 4th Street", "name": "Essene Market & Caf\u00e9", "shop": "supermarket"}}, {"type": "node", "id": 7433918009, "lat": 39.9411822, "lon": -75.1522466}, {"type": "node", "id": 7433918010, "lat": 39.9412697, "lon": -75.1522281}, {"type": "node", "id": 7434094964, "lat": 39.9512177, "lon": -75.1660018, "tags": {"addr:city": "Philadelphia", "addr:housenumber": "1509", "addr:postcode": "19102", "addr:state": "PA", "addr:street": "Chestnut Street", "alt_name": "Dunkin' Donuts", "amenity": "fast_food", "brand": "Dunkin'", "brand:wikidata": "Q847743", "check_date": "2023-10-08", "cuisine": "donut;coffee_shop", "drive_through": "no", "name": "Dunkin'", "opening_hours": "Mo-Sa 05:00-19:00; Su 06:00-17:30", "phone": "+1 218-636-0910", "ref": "353149", "takeaway": "yes", "website": "https://locations.dunkindonuts.com/en/pa/philadelphia/1509-chestnut-st/353149"}}, {"type": "node", "id": 7590749666, "lat": 39.9394988, "lon": -75.1666612}, {"type": "node", "id": 7973721782, "lat": 39.9491321, "lon": -75.1490461, "tags": {"addr:city": "Philadelphia", "addr:housenumber": "433", "addr:postcode": "19106", "addr:state": "PA", "addr:street": "Chestnut Street", "air_conditioning": "yes", "amenity": "restaurant", "contact:facebook": "RedOwlTavern", "contact:instagram": "redowltavern", "email": "info@redowltavern.com", "name": "Red Owl Tavern", "opening_hours": "Mo-Fr 07:30-22:00; Sa 08:00-22:00; Su 08:00-15:00", "outdoor_seating": "yes", "phone": "+1-215-923-2267", "website": "https://redowltavern.com"}}, {"type": "node", "id": 7973722887, "lat": 39.9485144, "lon": -75.1443929, "tags": {"addr:city": "Philadelphia", "addr:housenumber": "207", "addr:postcode": "19106", "addr:street": "Chestnut Street", "amenity": "restaurant", "check_date": "2023-10-16", "contact:instagram": "https://www.instagram.com/luchacartelphilly", "cuisine": "mexican", "name": "Lucha Cartel", "opening_hours": "Mo-We,Su 12:00-22:00, Th-Sa 12:00-26:00", "phone": "+1 267-761-9209", "website": "https://www.luchacartel.com"}}, {"type": "node", "id": 7973722889, "lat": 39.9485548, "lon": -75.1447244, "tags": {"addr:housenumber": "213", "addr:street": "Chestnut Street", "amenity": "fast_food", "name": "European Republic"}}, {"type": "node", "id": 7976943939, "lat": 39.9487125, "lon": -75.1598497, "tags": {"addr:housenumber": "1116", "addr:street": "Walnut Street", "amenity": "restaurant", "check_date": "2023-04-11", "contact:phone": "+1 215-627-7676", "contact:website": "https://moriartyspub.com", "name": "Moriarty\u2019s Restaurant", "opening_hours": "Mo,Su 11:00-24:00 \"Kitchen open until 10pm\", Tu-Th 11:00-26:00 \"Kitchen open until 10pm\", Fr-Sa 11:00-26:00 \"Kitchen open until 12am\""}}, {"type": "node", "id": 7977075188, "lat": 39.9405146, "lon": -75.1546003, "tags": {"addr:city": "Philadelphia", "addr:housenumber": "728", "addr:postcode": "19147", "addr:state": "PA", "addr:street": "South 7th Street", "amenity": "cafe", "contact:instagram": "https://www.instagram.com/thefitzwatercafe/", "name": "Fitzwater Cafe", "opening_hours": "Mo-Su 08:00-14:45", "outdoor_seating": "no", "payment:credit_cards": "no", "payment:debit_cards": "no"}}, {"type": "node", "id": 8127686617, "lat": 39.950302, "lon": -75.166539, "tags": {"addr:city": "Philadelphia", "addr:housenumber": "1516", "addr:postcode": "19102", "addr:street": "Sansom Street", "amenity": "restaurant", "check_date": "2025-02-23", "check_date:opening_hours": "2025-02-23", "happy_hours": "Tu-Fr 16:00-18:00", "name": "Oyster House", "opening_hours": "Mo,Su off; Tu-Th 11:30-21:00; Fr-Sa 11:30-22:00", "opening_hours:signed": "no", "phone": "+1 215-567-7683", "website": "https://oysterhousephilly.com"}}, {"type": "node", "id": 8127755217, "lat": 39.9495191, "lon": -75.1622021, "tags": {"addr:city": "Philadelphia", "addr:housenumber": "124", "addr:postcode": "19107", "addr:street": "South 13th Street", "amenity": "restaurant", "check_date": "2023-10-12", "contact:facebook": "https://www.facebook.com/sampanphilly", "contact:instagram": "https://www.instagram.com/sampanphilly", "name": "Sampan", "opening_hours": "Mo-Tu,Su 16:00-22:00; We-Th 16:00-23:00; Fr-Sa 16:00-24:00", "phone": "+1 215-732-3501", "website": "http://www.sampanphilly.com"}}, {"type": "node", "id": 8127767717, "lat": 39.9467593, "lon": -75.1447634, "tags": {"addr:city": "Philadelphia", "addr:housenumber": "212", "addr:postcode": "19106", "addr:state": "PA", "addr:street": "Walnut Street", "addr:unit": "2nd floor", "amenity": "restaurant", "cuisine": "italian", "name": "Positano Coast by Aldo Lamberti", "phone": "+1-215-238-0499", "website": "https://www.positanocoast.net/"}}, {"type": "node", "id": 8132850317, "lat": 39.9391202, "lon": -75.1496669, "tags": {"addr:housenumber": "743", "addr:street": "South 4th Street", "amenity": "cafe", "check_date": "2023-04-12", "contact:facebook": "https://www.facebook.com/fitzon4th", "contact:phone": "+1 215-315-8989", "contact:website": "https://fitzon4th.com", "diet:vegan": "yes", "name": "Fitz on 4th", "opening_hours": "Mo-Tu off; We-Th 16:00-22:00; Fr-Sa 12:00-23:00; Su 10:00-16:00"}}, {"type": "node", "id": 8132980317, "lat": 39.9412814, "lon": -75.1540685, "tags": {"addr:housenumber": "701", "addr:street": "South 7th Street", "amenity": "cafe", "name": "Rally Coffee"}}, {"type": "node", "id": 8587322044, "lat": 39.9484805, "lon": -75.1642317, "tags": {"amenity": "restaurant", "branch": "Grille", "brand": "Del Frisco's Double Eagle Steakhouse", "brand:wikidata": "Q23461481", "cuisine": "steak_house", "name": "Del Frisco's Double Eagle Steakhouse"}}, {"type": "node", "id": 8588131588, "lat": 39.9513606, "lon": -75.1566391, "tags": {"addr:city": "Philadelphia", "addr:housenumber": "942", "addr:postcode": "19107", "addr:state": "PA", "addr:street": "Market Street", "amenity": "fast_food", "branch": "Market St & South 10th St", "brand": "Panda Express", "brand:wikidata": "Q1358690", "cuisine": "chinese", "name": "Panda Express", "opening_hours": "Mo-Fr 10:00-21:30; Sa-Su 10:30-21:30", "phone": "+1 215-928-8882", "takeaway": "yes", "website": "https://www.pandaexpress.com/locations/pa/philadelphia/2791"}}, {"type": "node", "id": 8596945539, "lat": 39.94955, "lon": -75.1525849, "tags": {"addr:city": "Philadelphia", "addr:housenumber": "705", "addr:postcode": "19106", "addr:state": "PA", "addr:street": "Chestnut Street", "amenity": "restaurant", "cuisine": "georgian", "name": "Sakartvelo"}}, {"type": "node", "id": 8596945540, "lat": 39.9495378, "lon": -75.1525293, "tags": {"addr:city": "Philadelphia", "addr:housenumber": "703", "addr:postcode": "19106", "addr:state": "PA", "addr:street": "Chestnut Street", "amenity": "restaurant", "cuisine": "mexican", "name": "Don Barriga", "opening_hours": "Mo-Fr 10:00-22:00; Sa 12:00-22:00; Su 12:00-21:00", "phone": "+1-267-876-7101;+1-267-876-7102", "website": "https://www.donbarriga.com/"}}, {"type": "node", "id": 8822229338, "lat": 39.9488839, "lon": -75.1597813, "tags": {"addr:housenumber": "1115", "addr:street": "Walnut Street", "amenity": "restaurant", "check_date": "2023-04-13", "contact:facebook": "https://www.facebook.com/masalakitchenphilly", "contact:phone": "+1 215-309-3301", "contact:website": "https://www.masalakitchenphilly.com", "cuisine": "indian", "name": "Masala Kitchen", "opening_hours": "Mo-Th 11:00-24:00; Fr 11:00-27:30; Sa 12:00-27:30; Su 12:00-23:00", "takeaway": "yes"}}, {"type": "node", "id": 9078268217, "lat": 39.9500257, "lon": -75.1620492, "tags": {"addr:city": "Philadelphia", "addr:housenumber": "110", "addr:postcode": "19107", "addr:street": "South 13th Street", "amenity": "restaurant", "check_date": "2023-10-12", "cuisine": "mediterranean", "name": "Barbuzzo", "opening_hours": "Mo-Th 17:00-22:00; Fr 17:00-23:00; Sa 11:00-15:00,17:00-23:00; Su 11:00-15:00,16:00-22:00", "phone": "+1 215-546-9300", "website": "https://barbuzzo.com"}}, {"type": "node", "id": 9272887825, "lat": 39.9516495, "lon": -75.1561114, "tags": {"addr:city": "Philadelphia", "addr:housenumber": "901", "addr:postcode": "19107", "addr:state": "PA", "addr:street": "Market Street", "addr:unit": "1165", "amenity": "cafe", "branch": "10th & Market - Philadelphia", "brand": "Starbucks", "brand:wikidata": "Q37158", "cuisine": "coffee_shop", "name": "Starbucks", "official_name": "Starbucks Coffee", "phone": "+1 267-667-3415", "ref": "1028617", "takeaway": "yes", "website": "https://www.starbucks.com/store-locator/store/1028617/10th-market-philadelphia-901-market-street-1165-philadelphia-pa-191073111-u"}}, {"type": "node", "id": 9382669317, "lat": 39.9464897, "lon": -75.1579158, "tags": {"addr:housenumber": "262", "addr:street": "South 10th Street", "amenity": "restaurant", "check_date": "2023-04-12", "contact:facebook": "https://www.facebook.com/bleusushi", "contact:phone": "+1 215-829-0800", "contact:website": "https://www.bleusushiphilly.com", "cuisine": "japanese", "name": "Bleu Sushi", "opening_hours": "Mo-Th 11:00-22:00; Fr 11:00-23:00; Sa 12:00-23:00; Su 12:00-22:00", "outdoor_seating": "yes"}}, {"type": "node", "id": 9385006017, "lat": 39.9340101, "lon": -75.165971}, {"type": "node", "id": 9459428360, "lat": 39.9430129, "lon": -75.1455311, "tags": {"addr:city": "Philadelphia", "addr:housenumber": "400", "addr:postcode": "19147", "addr:state": "PA", "addr:street": "South 2nd Street", "amenity": "restaurant", "cuisine": "argentinian", "email": "malbecstk@gmail.com", "name": "Malbec Argentine Steakhouse", "opening_hours": "Mo off; Tu-Th 16:00-21:00; Fr 16:00-22:00; Sa 13:00-22:00; Su 13:00-20:00", "phone": "+1-215-515-3899", "website": "http://www.malbecsteakhouse.com/"}}, {"type": "node", "id": 9459428362, "lat": 39.942737, "lon": -75.1455915, "tags": {"addr:city": "Philadelphia", "addr:housenumber": "414", "addr:postcode": "19147", "addr:state": "PA", "addr:street": "South 2nd Street", "amenity": "restaurant", "contact:facebook": "https://www.facebook.com/bloomsdaycafe/", "contact:instagram": "https://www.instagram.com/bloomsdayphilly/", "name": "Bloomsday Cafe", "opening_hours": "Mo,Tu off; We-Fr 12:00-21:00; Sa 10:00-21:00; Su 10:00-14:00", "phone": "+1-267-319-8018", "website": "https://bloomsdaycafe.com/"}}, {"type": "node", "id": 9459428364, "lat": 39.9409125, "lon": -75.1476037, "tags": {"addr:housenumber": "617", "addr:street": "South 3rd Street", "amenity": "restaurant", "check_date": "2023-04-12", "contact:facebook": "https://www.facebook.com/neighborhoodramenPHL", "contact:phone": "+1 215-201-3501", "contact:website": "https://www.neighborhoodramen.com", "cuisine": "noodle", "name": "Neighborhood Ramen", "opening_hours": "Mo,Th-Su 12:00-22:00; Tu-We off"}}, {"type": "node", "id": 9593113322, "lat": 39.94877, "lon": -75.1604539, "tags": {"addr:city": "Philadelphia", "addr:housenumber": "1128", "addr:postcode": "19107", "addr:state": "PA", "addr:street": "Walnut Street", "amenity": "cafe", "branch": "12th St & Walnut", "brand": "Starbucks", "brand:wikidata": "Q37158", "check_date": "2023-10-12", "cuisine": "coffee_shop", "name": "Starbucks", "official_name": "Starbucks Coffee", "opening_hours": "Mo-Fr 05:30-20:00; Sa-Su 06:00-19:00", "outdoor_seating": "no", "phone": "+1 215-923-3399", "ref": "1026456", "takeaway": "yes", "website": "https://www.starbucks.com/store-locator/store/1026456/12-th-st-walnut-1128-walnut-st-philadelphia-pa-191075568-us"}}, {"type": "node", "id": 9593113373, "lat": 39.9509231, "lon": -75.1586671, "tags": {"addr:city": "Philadelphia", "addr:housenumber": "34", "addr:postcode": "19107", "addr:state": "PA", "addr:street": "South 11th Street", "brand": "MOM's Organic Market", "brand:wikidata": "Q111805642", "name": "MOM's Organic Market", "opening_hours": "Mo-Su 09:00-21:00", "phone": "+1 215 709 0022", "shop": "supermarket", "website": "https://momsorganicmarket.com/"}}, {"type": "node", "id": 9715467004, "lat": 39.9509978, "lon": -75.1615809, "tags": {"addr:city": "Philadelphia", "addr:housenumber": "35", "addr:postcode": "19107", "addr:state": "PA", "addr:street": "South 13th Street", "name": "Old Nelson Food Co", "opening_hours": "Mo-Fr 08:00-17:00", "shop": "convenience", "website": "https://oldnelsonfood.com"}}, {"type": "node", "id": 9715843944, "lat": 39.9491319, "lon": -75.163345, "tags": {"addr:city": "Philadelphia", "addr:housenumber": "1328", "addr:postcode": "19107", "addr:state": "PA", "addr:street": "Walnut Street", "amenity": "fast_food", "cuisine": "popcorn", "name": "GO Popcorn", "opening_hours": "Mo-We 11:00-20:00; Th-Sa 11:00-20:30; Su 11:00-19:00", "website": "https://www.letsgopopcorn.com/midtown-village-phila"}}, {"type": "node", "id": 9760367454, "lat": 39.9432492, "lon": -75.1639031}, {"type": "node", "id": 9765915617, "lat": 39.9505401, "lon": -75.1668604, "tags": {"addr:city": "Philadelphia", "addr:housenumber": "1525", "addr:postcode": "19102", "addr:state": "PA", "addr:street": "Sansom Street", "amenity": "restaurant", "check_date": "2025-02-23", "check_date:opening_hours": "2025-02-23", "contact:facebook": "https://www.facebook.com/harpcrownphl", "name": "Harp & Crown", "opening_hours:signed": "no", "phone": "+1 215-330-2800", "website": "https://harpcrown.com"}}, {"type": "node", "id": 9916981817, "lat": 39.9498151, "lon": -75.1475624, "tags": {"addr:housenumber": "111", "addr:street": "S Independence Mall", "amenity": "fast_food", "name:en": "The Bourse Food Hall"}}, {"type": "node", "id": 9922722698, "lat": 39.936309, "lon": -75.1468188, "tags": {"addr:city": "Philadelphia", "addr:housenumber": "848", "addr:postcode": "19147", "addr:street": "South 2nd Street", "amenity": "pub", "name": "Lucky's Last Chance"}}, {"type": "node", "id": 9963872785, "lat": 39.9343585, "lon": -75.1587308, "tags": {"addr:city": "Philadelphia", "addr:housenumber": "1177", "addr:postcode": "19147", "addr:state": "PA", "addr:street": "South 9th Street", "amenity": "restaurant", "name": "J & J Pizza", "opening_hours": "Mo-Su 09:00-24:00", "phone": "+1-215-551-1233", "website": "https://www.j-jpizza.com/"}}, {"type": "node", "id": 9966240537, "lat": 39.9504182, "lon": -75.1462973, "tags": {"addr:city": "Philadelphia", "addr:housenumber": "317", "addr:postcode": "19106", "addr:state": "PA", "addr:street": "Market Street", "amenity": "cafe", "name": "3J's Cafe", "opening_hours": "Mo-Su 08:00-15:00", "phone": "+1-215-309-3140", "website": "https://www.3jscafephilly.com/"}}, {"type": "node", "id": 9966262962, "lat": 39.950423, "lon": -75.1463459, "tags": {"amenity": "restaurant", "food": "asian", "name": "Bubble Tea Room"}}, {"type": "node", "id": 10042667060, "lat": 39.9419665, "lon": -75.151079, "tags": {"addr:city": "Philadelphia", "addr:housenumber": "509", "addr:postcode": "19147", "addr:state": "PA", "addr:street": "South Street", "amenity": "restaurant", "check_date": "2023-10-13", "cuisine": "greek;american", "name": "South Street Souvlaki", "opening_hours": "Mo-Th,Su 12:00-21:00; Fr-Sa 12:00-22:00", "phone": "+1 215-925-3026", "website": "https://southstreetsouvlaki.com"}}, {"type": "node", "id": 10069976385, "lat": 39.9388697, "lon": -75.1564779, "tags": {"addr:city": "Philadelphia", "addr:housenumber": "824", "addr:postcode": "19147", "addr:state": "PA", "addr:street": "South 8th Street", "amenity": "restaurant", "cuisine": "italian", "name": "O Sole Mio Restaurant", "opening_hours": "Tu-Sa 11:00-22:00; Su 13:00-22:00", "operator": "Salvatore Virgi", "payment:american_express": "yes", "payment:cash": "yes", "payment:discover_card": "yes", "payment:mastercard": "yes", "payment:visa": "yes", "phone": "+1-215-468-1689", "website": "https://osolemioitaliancuisine.net"}}, {"type": "node", "id": 10263191445, "lat": 39.9418954, "lon": -75.152241, "tags": {"addr:housenumber": "540", "addr:street": "South Street", "amenity": "fast_food", "check_date": "2023-04-12", "contact:phone": "+1 267-761-4512", "contact:website": "https://www.federaldonuts.com", "name": "Federal Donuts South Street", "opening_hours": "10:00-20:00"}}, {"type": "node", "id": 10268753932, "lat": 39.936405, "lon": -75.1553946}, {"type": "node", "id": 10268753933, "lat": 39.9363928, "lon": -75.1552853}, {"type": "node", "id": 10268753934, "lat": 39.9363869, "lon": -75.1552958}, {"type": "node", "id": 10268753935, "lat": 39.9363792, "lon": -75.1552987}, {"type": "node", "id": 10268753936, "lat": 39.93641, "lon": -75.1553887}, {"type": "node", "id": 10268753937, "lat": 39.9364214, "lon": -75.1553889}, {"type": "node", "id": 10268753938, "lat": 39.9364317, "lon": -75.1553748}, {"type": "node", "id": 10268753939, "lat": 39.9364307, "lon": -75.1553601}, {"type": "node", "id": 10268753940, "lat": 39.9364369, "lon": -75.1553547}, {"type": "node", "id": 10268753941, "lat": 39.9364425, "lon": -75.1553621}, {"type": "node", "id": 10268753942, "lat": 39.9364867, "lon": -75.1553091}, {"type": "node", "id": 10268753943, "lat": 39.9364806, "lon": -75.1552991}, {"type": "node", "id": 10268753944, "lat": 39.9364847, "lon": -75.155295}, {"type": "node", "id": 10268753945, "lat": 39.9364764, "lon": -75.1552776}, {"type": "node", "id": 10268753946, "lat": 39.9364117, "lon": -75.1552917}, {"type": "node", "id": 10268753947, "lat": 39.9364029, "lon": -75.155283}, {"type": "node", "id": 10573790068, "lat": 39.9386368, "lon": -75.1526531, "tags": {"addr:city": "Philadelphia", "addr:housenumber": "801", "addr:postcode": "19147", "addr:state": "PA", "addr:street": "East Passyunk Avenue", "amenity": "restaurant", "cuisine": "pizza", "name": "Square Pie", "opening_hours": "Mo-Th 16:00-20:00; Fr-Sa 16:00+", "phone": "+1-215-238-0615", "website": "http://www.squarepiephilly.com/"}}, {"type": "node", "id": 10679432873, "lat": 39.9483406, "lon": -75.1571253, "tags": {"amenity": "fast_food", "brand": "Sweetgreen", "brand:wikidata": "Q18636413", "check_date": "2023-10-16", "cuisine": "salad", "diet:vegan": "yes", "diet:vegetarian": "yes", "name": "Sweetgreen", "payment:mastercard": "yes", "payment:visa": "yes", "takeaway": "yes", "website": "https://order.sweetgreen.com/10th-walnut", "wheelchair": "yes"}}, {"type": "node", "id": 10722872406, "lat": 39.9510578, "lon": -75.1663334, "tags": {"addr:city": "Philadelphia", "addr:housenumber": "1516", "addr:postcode": "19102", "addr:state": "PA", "addr:street": "Chestnut Street", "amenity": "fast_food", "brand": "Popeyes", "brand:wikidata": "Q1330910", "check_date": "2023-10-08", "cuisine": "chicken", "delivery": "yes", "drive_through": "no", "fixme": "may be a few buildings off; will confirm this is the correct spot when possible.", "indoor_seating": "yes", "name": "Popeyes", "official_name": "Popeyes Louisiana Kitchen", "opening_hours": "Mo-Th,Su 10:30-22:00; Fr-Sa 10:30-23:00", "phone": "+1 215-665-8470", "takeaway": "yes", "website": "https://www.popeyes.com/store-locator/store/restaurant_85013"}}, {"type": "node", "id": 10975212448, "lat": 39.9345551, "lon": -75.1549793, "tags": {"amenity": "cafe", "brand": "Bambu", "brand:wikidata": "Q83437245", "cuisine": "vietnamese;bubble_tea", "name": "Bambu", "takeaway": "yes"}}, {"type": "node", "id": 11012741750, "lat": 39.9399549, "lon": -75.1577354, "tags": {"addr:housenumber": "764", "addr:street": "South 9th Street", "amenity": "restaurant", "name": "Mawn Noodle House", "website": "https://mawnphilly.com/"}}, {"type": "node", "id": 11018800562, "lat": 39.9468161, "lon": -75.1624829, "tags": {"amenity": "restaurant", "name": "Libertine"}}, {"type": "node", "id": 11018837131, "lat": 39.9497889, "lon": -75.1589017, "tags": {"addr:city": "Philadelphia", "addr:housenumber": "110", "addr:street": "South 11th Street", "amenity": "restaurant", "check_date": "2023-10-11", "name": "Morea", "opening_hours": "Mo-Th 16:00-24:00, Fr 10:30-25:00, Sa 10:00-25:00, Su 10:00-23:00", "phone": "+1 267-930-1110", "website": "https://moreaphilly.com"}}, {"type": "node", "id": 11018841131, "lat": 39.9503189, "lon": -75.158386, "tags": {"addr:city": "Philadelphia", "addr:housenumber": "1037", "addr:postcode": "19107", "addr:state": "PA", "addr:street": "Chestnut Street", "amenity": "fast_food", "brand": "Taco Bell", "brand:wikidata": "Q752941", "cuisine": "tex-mex", "name": "Taco Bell", "opening_hours": "24/7", "phone": "+1 215-925-1037", "takeaway": "yes", "website": "https://locations.tacobell.com/pa/philadelphia/1037-chestnut-st.html"}}, {"type": "node", "id": 11020595806, "lat": 39.9490228, "lon": -75.1480548, "tags": {"addr:city": "Philadelphia", "addr:housenumber": "401", "addr:postcode": "19106", "addr:state": "PA", "addr:street": "Chestnut Street", "amenity": "restaurant", "contact:instagram": "franklinsocialphiladelphia", "cuisine": "american", "name": "Franklin Social", "opening_hours": "Mo-Th 06:30-00:00; Fr 06:30-02:00; Sa 07:00-02:00; Su 07:00-00:00", "outdoor_seating": "yes", "phone": "+1-215-931-4260", "website": "https://www.franklinsocialphilly.com", "website:menu": "https://www.franklinsocialphilly.com/#menu"}}, {"type": "node", "id": 11020616236, "lat": 39.951311, "lon": -75.1565708, "tags": {"addr:city": "Philadelphia", "addr:housenumber": "940", "addr:postcode": "19107", "addr:state": "PA", "addr:street": "Market Street", "amenity": "fast_food", "brand": "Popeyes", "brand:wikidata": "Q1330910", "cuisine": "chicken", "delivery": "yes", "indoor_seating": "yes", "internet_access": "wlan", "name": "Popeyes", "official_name": "Popeyes Louisiana Kitchen", "opening_hours": "10:00-22:00", "phone": "+1 267-239-2388", "takeaway": "yes", "website": "https://www.popeyes.com/store-locator/store/restaurant_241024"}}, {"type": "node", "id": 11020622675, "lat": 39.9472736, "lon": -75.1616368, "tags": {"amenity": "restaurant", "name": "TOC - Tavern on Camac"}}, {"type": "node", "id": 11023953286, "lat": 39.9509286, "lon": -75.1583314, "tags": {"addr:city": "Philadelphia", "addr:housenumber": "15", "addr:postcode": "19107", "addr:state": "PA", "addr:street": "South 11th Street", "amenity": "fast_food", "name": "Honeygrow", "opening_hours": "10:30-22:00", "phone": "+1 215-845-5592", "website": "https://www.honeygrow.com/location/11th-street/"}}, {"type": "node", "id": 11024013470, "lat": 39.9492877, "lon": -75.1590478, "tags": {"addr:city": "Philadelphia", "addr:housenumber": "128", "addr:postcode": "19107", "addr:street": "South 11th Street", "amenity": "fast_food", "check_date": "2023-10-11", "cuisine": "sandwich", "name": "PrimoHoagies", "opening_hours": "Mo-Fr 08:30-21:00; Sa 10:00-21:00; Su 10:00-20:00", "phone": "+1 215-925-4500", "website": "https://www.primohoagies.com/location/Philadelphia-11th-St-PA"}}, {"type": "node", "id": 11024023888, "lat": 39.9415363, "lon": -75.1509637, "tags": {"addr:city": "Philadelphia", "addr:housenumber": "610", "addr:postcode": "19147", "addr:street": "South 5th Street", "amenity": "restaurant", "check_date": "2023-10-13", "cuisine": "thai", "name": "Golden Triangle", "opening_hours": "Mo-Sa 12:00-22:00; Su 17:00-22:00", "phone": "+1 267-930-7990", "website": "https://goldentrianglephilly.com"}}, {"type": "node", "id": 11054789533, "lat": 39.9514455, "lon": -75.1538054, "tags": {"branch": "Heirloom", "brand": "Giant", "brand:wikidata": "Q5558332", "name": "Giant", "phone": "+1 215 408 4830", "shop": "supermarket", "website": "https://giantfoodstores.com/"}}, {"type": "node", "id": 11226451586, "lat": 39.9411256, "lon": -75.1458831, "tags": {"addr:housenumber": "600", "addr:street": "South 2nd Street", "amenity": "restaurant", "cuisine": "burger", "name": "Bridget Foy's"}}, {"type": "node", "id": 11360882069, "lat": 39.9485012, "lon": -75.1660454, "tags": {"addr:housenumber": "235", "addr:street": "South 15th Street", "amenity": "restaurant", "cuisine": "pizza", "name": "Alice Pizza and Restaurant"}}, {"type": "node", "id": 11362466269, "lat": 39.9426713, "lon": -75.1640832, "tags": {"amenity": "restaurant", "cuisine": "pizza", "name": "Gennaro's Pizza\u200e & steak"}}, {"type": "node", "id": 11394112605, "lat": 39.9339443, "lon": -75.158899}, {"type": "node", "id": 11394112609, "lat": 39.933936, "lon": -75.1588207}, {"type": "node", "id": 11394112619, "lat": 39.933909, "lon": -75.1586714}, {"type": "node", "id": 11459832126, "lat": 39.9433863, "lon": -75.1638832}, {"type": "node", "id": 11459832131, "lat": 39.943306, "lon": -75.1639004}, {"type": "node", "id": 11459832143, "lat": 39.9432431, "lon": -75.1638578}, {"type": "node", "id": 11459832147, "lat": 39.9433791, "lon": -75.1638272}, {"type": "node", "id": 11498125648, "lat": 39.9340386, "lon": -75.1661498}, {"type": "node", "id": 11498131329, "lat": 39.9340283, "lon": -75.1661292}, {"type": "node", "id": 11498131406, "lat": 39.9340343, "lon": -75.1661187}, {"type": "node", "id": 11498198071, "lat": 39.9345984, "lon": -75.1610597}, {"type": "node", "id": 11498198115, "lat": 39.9344616, "lon": -75.1610255}, {"type": "node", "id": 11498198508, "lat": 39.9345243, "lon": -75.1610773}, {"type": "node", "id": 11498404325, "lat": 39.9363953, "lon": -75.1666222}, {"type": "node", "id": 11500474117, "lat": 39.9349893, "lon": -75.1617766}, {"type": "node", "id": 11500474149, "lat": 39.9349284, "lon": -75.1616757}, {"type": "node", "id": 11500474154, "lat": 39.9349566, "lon": -75.1615592}, {"type": "node", "id": 11500474229, "lat": 39.934963, "lon": -75.1616012}, {"type": "node", "id": 11500474299, "lat": 39.9349454, "lon": -75.1617867}, {"type": "node", "id": 11500474303, "lat": 39.9349267, "lon": -75.1615668}, {"type": "node", "id": 11500642523, "lat": 39.9365153, "lon": -75.1649312}, {"type": "node", "id": 11500642534, "lat": 39.936703, "lon": -75.1663705}, {"type": "node", "id": 11500642540, "lat": 39.9364757, "lon": -75.165065}, {"type": "node", "id": 11500642547, "lat": 39.9367046, "lon": -75.1663829}, {"type": "node", "id": 11500642555, "lat": 39.9364932, "lon": -75.1651199}, {"type": "node", "id": 11500642565, "lat": 39.9368408, "lon": -75.1668047}, {"type": "node", "id": 11500642566, "lat": 39.9367228, "lon": -75.1664896}, {"type": "node", "id": 11500642567, "lat": 39.9365427, "lon": -75.1651349}, {"type": "node", "id": 11500674570, "lat": 39.9364869, "lon": -75.1651322}, {"type": "node", "id": 11500674578, "lat": 39.936774, "lon": -75.1663548}, {"type": "node", "id": 11500674579, "lat": 39.9364896, "lon": -75.1651527}, {"type": "node", "id": 11500674580, "lat": 39.9368172, "lon": -75.1666206}, {"type": "node", "id": 11500674585, "lat": 39.9364805, "lon": -75.1650964}, {"type": "node", "id": 11500674593, "lat": 39.936711, "lon": -75.1664148}, {"type": "node", "id": 11500674595, "lat": 39.9367102, "lon": -75.1664674}, {"type": "node", "id": 11500674601, "lat": 39.9364912, "lon": -75.1651054}, {"type": "node", "id": 11500674612, "lat": 39.9367164, "lon": -75.1664574}, {"type": "node", "id": 11500674615, "lat": 39.9367133, "lon": -75.1664855}, {"type": "node", "id": 11500674626, "lat": 39.9366981, "lon": -75.1663927}, {"type": "node", "id": 11500674638, "lat": 39.9367017, "lon": -75.1664098}, {"type": "node", "id": 11500674649, "lat": 39.9364839, "lon": -75.1650632}, {"type": "node", "id": 11500674669, "lat": 39.9364777, "lon": -75.1650763}, {"type": "node", "id": 11500717804, "lat": 39.9369242, "lon": -75.1620506}, {"type": "node", "id": 11500717805, "lat": 39.9369447, "lon": -75.161697}, {"type": "node", "id": 11500717811, "lat": 39.9366354, "lon": -75.16181}, {"type": "node", "id": 11500717812, "lat": 39.9371151, "lon": -75.1617835}, {"type": "node", "id": 11500717815, "lat": 39.9364755, "lon": -75.1621491}, {"type": "node", "id": 11500717816, "lat": 39.936935, "lon": -75.1616988}, {"type": "node", "id": 11500717822, "lat": 39.9370498, "lon": -75.1620406}, {"type": "node", "id": 11500717823, "lat": 39.9364646, "lon": -75.1618136}, {"type": "node", "id": 11500717829, "lat": 39.9366168, "lon": -75.1621042}, {"type": "node", "id": 11500717830, "lat": 39.9371048, "lon": -75.1617571}, {"type": "node", "id": 11500717834, "lat": 39.9367929, "lon": -75.1617406}, {"type": "node", "id": 11500717841, "lat": 39.9364114, "lon": -75.1618515}, {"type": "node", "id": 11500717842, "lat": 39.9370565, "lon": -75.1616815}, {"type": "node", "id": 11500717847, "lat": 39.9369401, "lon": -75.1620479}, {"type": "node", "id": 11500717848, "lat": 39.9367115, "lon": -75.1617753}, {"type": "node", "id": 11500717856, "lat": 39.9364875, "lon": -75.1618011}, {"type": "node", "id": 11500717859, "lat": 39.9365352, "lon": -75.1621295}, {"type": "node", "id": 11500717860, "lat": 39.9368591, "lon": -75.1617165}, {"type": "node", "id": 11500717867, "lat": 39.9371302, "lon": -75.1619504}, {"type": "node", "id": 11500720669, "lat": 39.9364438, "lon": -75.1618183}, {"type": "node", "id": 11500720672, "lat": 39.9367156, "lon": -75.1620846}, {"type": "node", "id": 11500720674, "lat": 39.9370981, "lon": -75.1617047}, {"type": "node", "id": 11500720679, "lat": 39.9367601, "lon": -75.1617471}, {"type": "node", "id": 11500720685, "lat": 39.9364217, "lon": -75.1619125}, {"type": "node", "id": 11500720686, "lat": 39.9370207, "lon": -75.1616897}, {"type": "node", "id": 11500720689, "lat": 39.936726, "lon": -75.1620896}, {"type": "node", "id": 11500720690, "lat": 39.9366965, "lon": -75.1617976}, {"type": "node", "id": 11500720696, "lat": 39.936426, "lon": -75.1619352}, {"type": "node", "id": 11500720698, "lat": 39.9371307, "lon": -75.1619089}, {"type": "node", "id": 11500720702, "lat": 39.9369082, "lon": -75.1620538}, {"type": "node", "id": 11500720703, "lat": 39.937011, "lon": -75.1616828}, {"type": "node", "id": 11500720707, "lat": 39.9366371, "lon": -75.1618238}, {"type": "node", "id": 11500720708, "lat": 39.9371173, "lon": -75.1618485}, {"type": "node", "id": 11500720713, "lat": 39.9365346, "lon": -75.1621248}, {"type": "node", "id": 11500720714, "lat": 39.9369374, "lon": -75.1617093}, {"type": "node", "id": 11500720718, "lat": 39.9370479, "lon": -75.1620254}, {"type": "node", "id": 11500720720, "lat": 39.9364437, "lon": -75.1618097}, {"type": "node", "id": 11500720725, "lat": 39.9366029, "lon": -75.1621075}, {"type": "node", "id": 11500720726, "lat": 39.9371049, "lon": -75.1617033}, {"type": "node", "id": 11500720729, "lat": 39.9368831, "lon": -75.162072}, {"type": "node", "id": 11500720730, "lat": 39.9367918, "lon": -75.1617314}, {"type": "node", "id": 11500720735, "lat": 39.9364574, "lon": -75.1621186}, {"type": "node", "id": 11500720737, "lat": 39.9370554, "lon": -75.1616727}, {"type": "node", "id": 11500720741, "lat": 39.9369406, "lon": -75.1620525}, {"type": "node", "id": 11500720743, "lat": 39.9369736, "lon": -75.1616912}, {"type": "node", "id": 11500720750, "lat": 39.9364883, "lon": -75.1618078}, {"type": "node", "id": 11500720751, "lat": 39.9371088, "lon": -75.1617847}, {"type": "node", "id": 11500720754, "lat": 39.9365771, "lon": -75.1621134}, {"type": "node", "id": 11500720755, "lat": 39.9368601, "lon": -75.1617254}, {"type": "node", "id": 11500720760, "lat": 39.937137, "lon": -75.1620069}, {"type": "node", "id": 11500720761, "lat": 39.9364206, "lon": -75.1618152}, {"type": "node", "id": 11500720767, "lat": 39.9366669, "lon": -75.1620941}, {"type": "node", "id": 11500720769, "lat": 39.937083, "lon": -75.1616683}, {"type": "node", "id": 11500720774, "lat": 39.936759, "lon": -75.1617379}, {"type": "node", "id": 11500720777, "lat": 39.9370196, "lon": -75.1616807}, {"type": "node", "id": 11500720782, "lat": 39.9367164, "lon": -75.1620916}, {"type": "node", "id": 11500720783, "lat": 39.9367214, "lon": -75.1617619}, {"type": "node", "id": 11500720790, "lat": 39.9364195, "lon": -75.1619365}, {"type": "node", "id": 11500720796, "lat": 39.9369338, "lon": -75.1620611}, {"type": "node", "id": 11500720797, "lat": 39.9370121, "lon": -75.1616914}, {"type": "node", "id": 11500720801, "lat": 39.9371213, "lon": -75.1618818}, {"type": "node", "id": 11500720805, "lat": 39.936489, "lon": -75.162134}, {"type": "node", "id": 11500720807, "lat": 39.9369075, "lon": -75.1617158}, {"type": "node", "id": 11500720811, "lat": 39.9364491, "lon": -75.1618047}, {"type": "node", "id": 11500720814, "lat": 39.9364157, "lon": -75.1618734}, {"type": "node", "id": 11500720816, "lat": 39.9371083, "lon": -75.1617287}, {"type": "node", "id": 11500720821, "lat": 39.9367713, "lon": -75.1620947}, {"type": "node", "id": 11500720822, "lat": 39.9366919, "lon": -75.1617884}, {"type": "node", "id": 11500720827, "lat": 39.9364512, "lon": -75.16212}, {"type": "node", "id": 11500720829, "lat": 39.9371253, "lon": -75.1619099}, {"type": "node", "id": 11500720834, "lat": 39.9369512, "lon": -75.1620749}, {"type": "node", "id": 11500720835, "lat": 39.9369746, "lon": -75.1616992}, {"type": "node", "id": 11500720843, "lat": 39.9364735, "lon": -75.1618121}, {"type": "node", "id": 11500720845, "lat": 39.9371129, "lon": -75.1618185}, {"type": "node", "id": 11500720849, "lat": 39.9365608, "lon": -75.1621167}, {"type": "node", "id": 11500720850, "lat": 39.93683, "lon": -75.1617327}, {"type": "node", "id": 11500720854, "lat": 39.9370129, "lon": -75.1620321}, {"type": "node", "id": 11500720856, "lat": 39.9364354, "lon": -75.1618121}, {"type": "node", "id": 11500720865, "lat": 39.9366039, "lon": -75.1621154}, {"type": "node", "id": 11500720866, "lat": 39.9370916, "lon": -75.1616671}, {"type": "node", "id": 11500720871, "lat": 39.9371354, "lon": -75.1619496}, {"type": "node", "id": 11500720872, "lat": 39.9368187, "lon": -75.1617259}, {"type": "node", "id": 11500720879, "lat": 39.9364216, "lon": -75.1618231}, {"type": "node", "id": 11500720880, "lat": 39.9370772, "lon": -75.1616683}, {"type": "node", "id": 11500720887, "lat": 39.9367702, "lon": -75.162085}, {"type": "node", "id": 11500720894, "lat": 39.9364471, "lon": -75.1620932}, {"type": "node", "id": 11500720899, "lat": 39.936924, "lon": -75.1620564}, {"type": "node", "id": 11500720900, "lat": 39.9369827, "lon": -75.1616975}, {"type": "node", "id": 11500720904, "lat": 39.9370979, "lon": -75.1620143}, {"type": "node", "id": 11500720905, "lat": 39.9371196, "lon": -75.1618171}, {"type": "node", "id": 11500720910, "lat": 39.9366682, "lon": -75.1621052}, {"type": "node", "id": 11500720912, "lat": 39.9369062, "lon": -75.1617046}, {"type": "node", "id": 11500720919, "lat": 39.9367845, "lon": -75.1617328}, {"type": "node", "id": 11500720922, "lat": 39.9364091, "lon": -75.1618749}, {"type": "node", "id": 11500720924, "lat": 39.9370463, "lon": -75.1616752}, {"type": "node", "id": 11500720927, "lat": 39.9369101, "lon": -75.1620723}, {"type": "node", "id": 11500720928, "lat": 39.9366948, "lon": -75.161777}, {"type": "node", "id": 11500720935, "lat": 39.9364644, "lon": -75.1621404}, {"type": "node", "id": 11500720937, "lat": 39.9371281, "lon": -75.1619345}, {"type": "node", "id": 11500720941, "lat": 39.9369478, "lon": -75.1620464}, {"type": "node", "id": 11500720942, "lat": 39.9369459, "lon": -75.1617076}, {"type": "node", "id": 11500720949, "lat": 39.9364726, "lon": -75.1618042}, {"type": "node", "id": 11500720950, "lat": 39.9371118, "lon": -75.161756}, {"type": "node", "id": 11500720957, "lat": 39.9364857, "lon": -75.1621441}, {"type": "node", "id": 11500720959, "lat": 39.9368288, "lon": -75.1617226}, {"type": "node", "id": 11500720965, "lat": 39.9370171, "lon": -75.1620616}, {"type": "node", "id": 11500720966, "lat": 39.9364611, "lon": -75.1618045}, {"type": "node", "id": 11500720972, "lat": 39.9365779, "lon": -75.1621207}, {"type": "node", "id": 11500720974, "lat": 39.9371014, "lon": -75.1617295}, {"type": "node", "id": 11500720979, "lat": 39.9368198, "lon": -75.1617347}, {"type": "node", "id": 11500720986, "lat": 39.9364059, "lon": -75.1618526}, {"type": "node", "id": 11500720987, "lat": 39.937078, "lon": -75.161675}, {"type": "node", "id": 11500720993, "lat": 39.9367265, "lon": -75.1620938}, {"type": "node", "id": 11500720994, "lat": 39.9367035, "lon": -75.1617712}, {"type": "node", "id": 11500721000, "lat": 39.9364523, "lon": -75.1620915}, {"type": "node", "id": 11500721002, "lat": 39.9371339, "lon": -75.1619348}, {"type": "node", "id": 11500721008, "lat": 39.9365617, "lon": -75.1621241}, {"type": "node", "id": 11500721009, "lat": 39.9369817, "lon": -75.1616887}, {"type": "node", "id": 11500721015, "lat": 39.9370997, "lon": -75.1620305}, {"type": "node", "id": 11500721016, "lat": 39.9364363, "lon": -75.1618191}, {"type": "node", "id": 11500721019, "lat": 39.9371232, "lon": -75.1618473}, {"type": "node", "id": 11500721025, "lat": 39.9366188, "lon": -75.1621152}, {"type": "node", "id": 11500721033, "lat": 39.9367853, "lon": -75.1617415}, {"type": "node", "id": 11500721040, "lat": 39.9364163, "lon": -75.1619141}, {"type": "node", "id": 11500721042, "lat": 39.9370473, "lon": -75.1616833}, {"type": "node", "id": 11500721044, "lat": 39.9368839, "lon": -75.162078}, {"type": "node", "id": 11500721052, "lat": 39.9364601, "lon": -75.1621413}, {"type": "node", "id": 11500721054, "lat": 39.9371273, "lon": -75.1618806}, {"type": "node", "id": 11501085104, "lat": 39.936367, "lon": -75.1605315}, {"type": "node", "id": 11501091227, "lat": 39.9360971, "lon": -75.1587196}, {"type": "node", "id": 11501091233, "lat": 39.9353682, "lon": -75.1587249}, {"type": "node", "id": 11501091243, "lat": 39.9354029, "lon": -75.1588369}, {"type": "node", "id": 11501091250, "lat": 39.9353119, "lon": -75.1588256}, {"type": "node", "id": 11501091265, "lat": 39.9352911, "lon": -75.1587186}, {"type": "node", "id": 11501093102, "lat": 39.9363701, "lon": -75.1605526}, {"type": "node", "id": 11501093234, "lat": 39.9363942, "lon": -75.1605255}, {"type": "node", "id": 11501093244, "lat": 39.9363978, "lon": -75.1605469}, {"type": "node", "id": 11501127780, "lat": 39.9353712, "lon": -75.1589416}, {"type": "node", "id": 11501127825, "lat": 39.9353733, "lon": -75.1587236}, {"type": "node", "id": 11501127827, "lat": 39.936134, "lon": -75.1587119}, {"type": "node", "id": 11501127834, "lat": 39.9360765, "lon": -75.1585357}, {"type": "node", "id": 11501127837, "lat": 39.9353551, "lon": -75.1589047}, {"type": "node", "id": 11501127840, "lat": 39.9353324, "lon": -75.1588171}, {"type": "node", "id": 11501127852, "lat": 39.9353403, "lon": -75.1588811}, {"type": "node", "id": 11501127867, "lat": 39.9361125, "lon": -75.1585281}, {"type": "node", "id": 11501127870, "lat": 39.9354291, "lon": -75.1589186}, {"type": "node", "id": 11501127883, "lat": 39.9353683, "lon": -75.1586854}, {"type": "node", "id": 11819301570, "lat": 39.9467829, "lon": -75.1622275, "tags": {"addr:city": "Philadelphia", "addr:housenumber": "1229", "addr:postcode": "19107", "addr:state": "PA", "addr:street": "Spruce Street", "air_conditioning": "yes", "amenity": "restaurant", "cuisine": "sandwich;burger;american;pasta;salad", "diet:vegan": "only", "email": "hello@themonstervegan.com", "name": "Monster Vegan", "name:en": "Monster Vegan", "opening_hours": "Mo-Tu 17:00-21:00; We-Th 17:00-22:00; Fr 17:00-23:30; Sa 12:00-23:30", "phone": "+1-215-790-9494", "takeaway": "yes", "website": "https://www.themonstervegan.com/", "website:menu": "https://www.themonstervegan.com/_files/ugd/646f42_eb3a2e0a6f994b4eba8bf931ab9fdaee.pdf"}}, {"type": "node", "id": 12047955255, "lat": 39.9364052, "lon": -75.1666201}, {"type": "node", "id": 12184490701, "lat": 39.9510675, "lon": -75.1663937, "tags": {"addr:housenumber": "1518", "addr:postcode": "19102", "addr:street": "Chestnut Street", "amenity": "restaurant", "cuisine": "indian", "email": "info@ammasusa.com", "name": "Amma's South Indian Cuisine", "opening_hours": "Mo-Fr 11:00-21:45; Sa-Su 12:00-21:45", "phone": "+1 808-762-6627", "website": "https://ammasrestaurants.com/"}}, {"type": "node", "id": 12191875444, "lat": 39.9411672, "lon": -75.1448857, "tags": {"addr:city": "Philadelphia", "addr:housenumber": "123", "addr:postcode": "19147", "addr:state": "PA", "addr:street": "South Street", "air_conditioning": "yes", "amenity": "cafe", "bar": "yes", "cafe": "board_game", "check_date": "2024-09-21", "contact:bluesky": "https://bsky.app/profile/queenrook.bsky.social", "contact:instagram": "https://www.instagram.com/queenrookcafe/", "cuisine": "american;pizza", "description": "Massive board game cafe with an arcade. Serves vegetarian food and vegan options.", "diet:vegan": "yes", "diet:vegetarian": "only", "internet_access": "wlan", "name": "Queen & Rook Game Cafe", "opening_hours": "Mo-Th 17:00-22:00; Fr 17:00-24:00; Sa 12:00-24:00; Su 12:00-21:00", "outdoor_seating": "no", "payment:cash": "yes", "payment:credit_cards": "yes", "payment:debit_cards": "yes", "phone": "+1-215-995-0043", "reservation": "yes", "toilets": "yes", "website": "https://queenandrookcafe.com/", "website:booking": "https://widgets.resy.com/#/venues/29275", "website:menu": "https://queenandrookcafe.com/menu/"}}, {"type": "node", "id": 12200267546, "lat": 39.9495648, "lon": -75.1526616, "tags": {"addr:city": "Philadelphia", "addr:housenumber": "707", "addr:postcode": "19106", "addr:state": "PA", "addr:street": "Chestnut Street", "amenity": "restaurant", "cuisine": "pizza", "name": "Lamberti Pizza & Market", "outdoor_seating": "yes", "website": "https://lambertipizzamarket.com/"}}, {"type": "node", "id": 12228584502, "lat": 39.9498302, "lon": -75.1442571, "tags": {"addr:city": "Philadelphia", "addr:housenumber": "212", "addr:postcode": "19106", "addr:state": "PA", "addr:street": "Market Street", "amenity": "restaurant", "cuisine": "pizza", "name": "Wood Fired Pizza by Oh Brother", "opening_hours": "Su-Th 11:00-23:00; Fr-Sa 11:00-03:00", "phone": "+1-215-845-5902", "website": "https://www.woodfiredpizzabyohbrother.com/"}}, {"type": "node", "id": 12228634290, "lat": 39.9495924, "lon": -75.1439453, "tags": {"addr:city": "Philadelphia", "addr:housenumber": "10", "addr:postcode": "19106", "addr:state": "PA", "addr:street": "South 2nd Street", "amenity": "restaurant", "cuisine": "cuban", "name": "Cuba Libre", "phone": "+1-215-627-0666", "website": "https://cubalibrerestaurant.com/en/philadelphia/"}}, {"type": "node", "id": 12228634297, "lat": 39.9485979, "lon": -75.1441547, "tags": {"addr:city": "Philadelphia", "addr:housenumber": "56", "addr:postcode": "19106", "addr:state": "PA", "addr:street": "South 2nd Street", "amenity": "pub", "diet:vegan": "yes", "name": "Khyber Pass Pub", "opening_hours": "Mo-Su,PH 10:00-02:00", "phone": "+1-215-238-5888", "website": "https://www.khyberpasspub.com/"}}, {"type": "node", "id": 12228634298, "lat": 39.9487153, "lon": -75.1441338, "tags": {"addr:city": "Philadelphia", "addr:housenumber": "52", "addr:postcode": "19106", "addr:state": "PA", "addr:street": "South 2nd Street", "amenity": "restaurant", "cuisine": "french", "name": "Royal Boucherie", "opening_hours": "We-Fr 11:00-00:00; Sa-Su 10:00-00:00", "phone": "+1-267-606-6313", "website": "https://www.royalboucherie.com"}}, {"type": "node", "id": 12229584185, "lat": 39.9482674, "lon": -75.1438265, "tags": {"addr:city": "Philadelphia", "addr:housenumber": "134", "addr:postcode": "19106", "addr:state": "PA", "addr:street": "Chestnut Street", "amenity": "restaurant", "cuisine": "middle_eastern", "name": "Malooga", "opening_hours": "Mo-Su 11:00-22:00", "phone": "+1-267-822-2327", "website": "https://www.maloogacatering.com/"}}, {"type": "node", "id": 12229584186, "lat": 39.948277, "lon": -75.1439326, "tags": {"addr:city": "Philadelphia", "addr:housenumber": "138", "addr:postcode": "19106", "addr:state": "PA", "addr:street": "Chestnut Street", "amenity": "restaurant", "cuisine": "japanese;sushi;ramen", "delivery": "yes", "name": "Oishii", "opening_hours": "Mo-Th 11:00-14:30,17:00-21:30; Fr-Sa 11:00-14:30,17:00-22:30; Su off", "phone": "+1-215-923-7800", "takeaway": "yes", "website": "https://www.oishiisr.com/"}}, {"type": "node", "id": 12229752747, "lat": 39.94964, "lon": -75.1456832, "tags": {"addr:city": "Philadelphia", "addr:housenumber": "15", "addr:postcode": "19106", "addr:state": "PA", "addr:street": "South 3rd Street", "amenity": "restaurant", "cuisine": "mexican", "name": "Las Bugambilias", "outdoor_seating": "yes", "phone": "+1-267-239-5673", "website": "https://lasbugambiliasphilly.com/"}}, {"type": "node", "id": 12229752752, "lat": 39.9488869, "lon": -75.1460763, "tags": {"addr:city": "Philadelphia", "addr:housenumber": "50", "addr:postcode": "19106", "addr:state": "PA", "addr:street": "South 3rd Street", "amenity": "cafe", "delivery": "yes", "name": "Olivier Cafe", "old_name": "Cafe Square One", "opening_hours": "Mo-Su 07:00-16:00", "phone": "+1-267-876-7020", "takeaway": "yes", "website": "https://www.oliviercafe.com/"}}, {"type": "node", "id": 12229818894, "lat": 39.950396, "lon": -75.1460394, "tags": {"addr:city": "Philadelphia", "addr:housenumber": "311", "addr:postcode": "19106", "addr:state": "PA", "addr:street": "Market Street", "amenity": "cafe", "name": "Cafe Square One", "opening_hours": "Mo-Fr 07:00-17:00; Sa-Su 08:00-15:00", "phone": "+1-215-645-2712", "website": "https://www.cafesquareone.com/"}}, {"type": "node", "id": 12229818899, "lat": 39.9509633, "lon": -75.1456243, "tags": {"addr:city": "Philadelphia", "addr:housenumber": "26", "addr:postcode": "19106", "addr:state": "PA", "addr:street": "North 3rd Street", "amenity": "cafe", "name": "Cafe Tolia", "opening_hours": "Tu-Su 08:00-16:30; Mo off", "phone": "+1-267-687-2533", "website": "https://www.cafetolia.com/"}}, {"type": "node", "id": 12250890612, "lat": 39.9490345, "lon": -75.1624072, "tags": {"amenity": "restaurant", "bar": "yes", "cuisine": "tapas;thai", "internet_access": "no", "internet_access:fee": "no", "level": "0", "name": "Grandma's", "opening_hours": "Tu-Th,Su 11:30-23:30; Fr-Sa 12:00-24:00,00:00-00:30; Mo 11:30-22:00", "takeaway": "yes", "toilets:access": "customers", "website": "https://www.grandmasphilly.com/", "wheelchair": "yes"}}, {"type": "node", "id": 12298222301, "lat": 39.9496038, "lon": -75.1439386, "tags": {"addr:postcode": "19106", "amenity": "restaurant", "name": "Cuba Libre Restaurant & Rum Bar", "opening_hours": "Mo-Th 16:00-21:00; Fr 16:00-21:30; Sa 12:00-21:30; Su 12:00-21:00", "phone": "+1-215-627-0666", "website": "https://cubalibrerestaurant.com/en/philadelphia"}}, {"type": "node", "id": 12360068768, "lat": 39.9346766, "lon": -75.1605844, "tags": {"addr:city": "Philadelphia", "addr:housenumber": "1180", "addr:postcode": "19147", "addr:state": "PA", "addr:street": "South 10th Street", "amenity": "restaurant", "cuisine": "pizza", "name": "Agricola", "opening_hours": "Fr-Sa 16:00-21:00; Su 14:00-19:00"}}, {"type": "node", "id": 12360481092, "lat": 39.9346764, "lon": -75.1602965, "tags": {"addr:city": "Philadelphia", "addr:housenumber": "947", "addr:postcode": "19147", "addr:state": "PA", "addr:street": "Federal Street", "amenity": "restaurant", "cuisine": "mediterranean;moroccan", "name": "Casablanca Mediterranean Grill", "opening_hours": "Mo-Th 11:00-21:00; Fr-Sa 11:00-22:00", "phone": "+1-267-324-5165", "website": "https://casablanca-grill.com/"}}, {"type": "node", "id": 12363561554, "lat": 39.9364807, "lon": -75.1619135, "tags": {"amenity": "restaurant", "cuisine": "vietnamese", "name": "Nam Phuong"}}, {"type": "node", "id": 12363572102, "lat": 39.9365717, "lon": -75.1613935, "tags": {"amenity": "restaurant", "cuisine": "thai", "name": "Ratchada"}}, {"type": "node", "id": 12497429201, "lat": 39.9486404, "lon": -75.1641484, "tags": {"addr:postcode": "19107", "amenity": "restaurant", "cuisine": "american;burger;chicken;diner;fish;pasta;seafood", "name": "Attico Rooftop", "opening_hours": "We-Th 16:00-23:00; Fr 16:00-02:00; Sa 10:30-02:00; Su 10:30-23:00", "phone": "+1 267-519-0965", "website": "https://atticorooftop.com/"}}, {"type": "node", "id": 12610169699, "lat": 39.9497914, "lon": -75.1439995, "tags": {"addr:city": "Philadelphia", "addr:housenumber": "202", "addr:postcode": "19106", "addr:state": "PA", "addr:street": "Market Street", "check_date": "2025-02-22", "contact:phone": "+1 215-238-9404", "currency:USD": "yes", "name": "Olde City Food Market", "opening_hours": "Mo-Fr 08:00-20:00; Sa 10:00-21:00; Su 10:00-20:00", "shop": "supermarket", "source": "local knowledge"}}, {"type": "node", "id": 12613401501, "lat": 39.949916, "lon": -75.1604443, "tags": {"addr:postcode": "19107", "amenity": "restaurant", "cuisine": "sushi", "name": "Kichi Omakase", "opening_hours": "Su-Th 17:00-22:00; Fr-Sa 17:00-23:00"}}, {"type": "node", "id": 12614221301, "lat": 39.9497468, "lon": -75.1621039, "tags": {"addr:housenumber": "114", "addr:postcode": "19107", "addr:street": "South 13th Street", "amenity": "restaurant", "cuisine": "seafood", "internet_access": "wlan", "name": "Pearl & Mary", "opening_hours": "Mo-Tu 16:00-22:00; We-Th 16:00-23:00; Fr 16:00-00:00; Sa 11:30-00:00; Su 11:30-22:00", "phone": "+12153306786", "website": "https://www.pearlandmary.com"}}, {"type": "node", "id": 12623469001, "lat": 39.9511359, "lon": -75.1599073, "tags": {"addr:postcode": "19107", "amenity": "cafe", "cuisine": "chicken;donut", "name": "Federal Donuts & Chicken", "opening_hours": "Mo-Su 07:00-19:00", "phone": "+1 (215) 964-9810", "website": "https://federaldonuts.com/"}}, {"type": "node", "id": 12647784401, "lat": 39.9379475, "lon": -75.1547374, "tags": {"addr:housenumber": "638", "addr:postcode": "19147", "addr:street": "Christian Street", "amenity": "cafe", "contact:instagram": "getagato", "cuisine": "coffee_shop;donut", "email": "meow@getagato.com", "name": "Get a Gato Cat Caf\u00e9", "website": "https://www.getagato.com", "website:menu": "https://www.getagato.com/menu"}}, {"type": "node", "id": 12943315402, "lat": 39.9388321, "lon": -75.1561544, "tags": {"addr:housenumber": "811", "addr:postcode": "19147", "addr:street": "South 8th Street", "amenity": "restaurant", "contact:instagram": "cafecuongphilly", "cuisine": "vietnamese", "name": "Cafe Cuong", "opening_hours": "Tu-Su 08:00-16:00", "outdoor_seating": "no", "phone": "+1-215-574-0527", "self_service": "no", "website": "https://cafe-cuong.res-menu.com/"}}, {"type": "node", "id": 13132151819, "lat": 39.9383568, "lon": -75.1669243, "tags": {"amenity": "cafe", "brand": "Starbucks", "brand:wikidata": "Q37158", "cuisine": "coffee_shop", "name": "Starbucks", "official_name": "Starbucks Coffee", "takeaway": "yes"}}, {"type": "way", "id": 314352351, "nodes": [3203986709, 3203986710, 3203986711, 3203986712, 3203986713, 3203986714, 3203986715, 3203986716, 3203986709], "tags": {"addr:city": "Philadelphia", "addr:housenumber": "1034", "addr:postcode": "19147", "addr:state": "PA", "addr:street": "Washington Avenue", "atm": "yes", "brand": "7-Eleven", "brand:wikidata": "Q259340", "building": "yes", "delivery": "yes", "fuel:propane": "yes", "name": "7-Eleven", "opening_hours": "24/7", "phone": "+1 215-468-4321", "ref": "26135", "shop": "convenience", "website": "https://www.7-eleven.com/locations/pa/philadelphia/1034-38-washington-avenue-26135"}}, {"type": "way", "id": 332786662, "nodes": [3399156044, 3399156045, 3399156046, 3399156047, 3399156048, 3399156049, 3399156050, 3399156051, 3399156044], "tags": {"addr:city": "Philadelphia", "addr:housenumber": "50", "addr:postcode": "19106", "addr:street": "North Independence Mall East", "amenity": "cafe", "building": "yes", "building:levels": "1", "building:material": "brick", "name": "Independence Mall Cafe"}}, {"type": "way", "id": 333012788, "nodes": [3401274279, 3401274280, 3401274281, 3401274282, 3401274279], "tags": {"addr:city": "Philadelphia", "addr:housenumber": "1214", "addr:street": "Sansom Street", "amenity": "pub", "building": "yes", "building:levels": "2", "check_date": "2023-04-12", "contact:mastodon": "fergiespub@jawns.club", "contact:phone": "+1 215-928-8118", "contact:website": "https://www.fergies.com", "name": "Fergie's Pub", "opening_hours": "12:00-26:00 \"Kitchen open until 23:45\""}}, {"type": "way", "id": 333012793, "nodes": [3401274295, 3401274296, 3441501224, 3401274297, 3401274298, 3401274295], "tags": {"addr:city": "Philadelphia", "addr:housenumber": "1310", "addr:postcode": "19107", "addr:street": "Drury Street", "amenity": "pub", "building": "yes", "building:levels": "2", "check_date": "2023-10-12", "name": "McGillin's Olde Ale House", "opening_hours": "11:00-26:00 \"kitchen closes at 1am\"", "phone": "+1-215-735-5562", "website": "https://mcgillins.com"}}, {"type": "way", "id": 333012814, "nodes": [1483785455, 3401274401, 3401274402, 3401274403, 3401274405, 3401274404, 1483785455], "tags": {"addr:city": "Philadelphia", "addr:housenumber": "309", "addr:postcode": "19106", "addr:state": "PA", "addr:street": "South 5th Street", "brand": "Acme", "brand:wikidata": "Q341975", "building": "yes", "name": "Acme", "opening_hours": "Mo-Su 07:00-22:00", "phone": "+1 215-413-9725", "shop": "supermarket", "website": "https://local.acmemarkets.com/pa/philadelphia/309-s-5th-st.html"}}, {"type": "way", "id": 333831772, "nodes": [3408840034, 3408840035, 3408839993, 3408839892, 3408840034], "tags": {"amenity": "fast_food", "building": "yes", "name": "Taste Town", "takeaway": "yes"}}, {"type": "way", "id": 334239522, "nodes": [3413417147, 3404334299, 3413417148, 3413417149, 3413417147], "tags": {"addr:housenumber": "222", "addr:street": "South 15th Street", "amenity": "restaurant", "building": "yes", "building:levels": "2", "check_date": "2025-06-27", "check_date:opening_hours": "2025-06-27", "contact:phone": "+1 215-735-4444", "contact:website": "http://shiroihana.com/", "cuisine": "japanese", "email": "sushishiroihana@gmail.com", "name": "Shiroi Hana", "opening_hours": "Tu-Fr 11:30-14:00, Tu-Su 17:00-21:00"}}, {"type": "way", "id": 334239526, "nodes": [3413417149, 3413417151, 3413417154, 3413417152, 3413417147, 3413417149], "tags": {"addr:housenumber": "224", "addr:street": "South 15th Street", "amenity": "pub", "building": "yes", "building:levels": "3", "check_date": "2025-06-27", "check_date:opening_hours": "2025-06-27", "contact:facebook": "https://www.facebook.com/gooddogphilly", "contact:phone": "+1 215-985-9600", "contact:website": "https://gooddogbar.com/", "name": "Good Dog Bar", "opening_hours": "11:30-02:00"}}, {"type": "way", "id": 334264445, "nodes": [3413742080, 3413742081, 3413742078, 11501085104, 11501093102, 11501093244, 11501093234, 3413742079, 3413742080], "tags": {"addr:city": "Philadelphia", "addr:housenumber": "1000", "addr:state": "PA", "addr:street": "Washington Avenue", "brand": "APlus", "brand:wikidata": "Q4646934", "building": "retail", "height": "9.1", "name": "APlus", "shop": "convenience", "source": "City of Philadelphia"}}, {"type": "way", "id": 334264447, "nodes": [11500721002, 11500720937, 11500720829, 11500720698, 11500721054, 11500720801, 11500720708, 11500721019, 11500720905, 11500720845, 11500720751, 11500717812, 11500720950, 11500717830, 11500720974, 11500720816, 11500720726, 11500720674, 3413742088, 11500720866, 11500720769, 11500720987, 11500720880, 11500720737, 11500717842, 11500721042, 11500720924, 11500720777, 11500720686, 11500720797, 11500720703, 11500721009, 11500720900, 11500720835, 11500720743, 11500717805, 11500720942, 11500720714, 11500717816, 11500720912, 11500720807, 11500720755, 11500717860, 11500720959, 11500720850, 11500720979, 11500720872, 11500720730, 11500717834, 11500721033, 11500720919, 11500720774, 11500720679, 3413742089, 11500720783, 11500717848, 11500720994, 11500720928, 11500720822, 11500720690, 3413742090, 11500720707, 11500717811, 3413742091, 3413742092, 11500720750, 11500717856, 11500720949, 11500720843, 11500717823, 11500720966, 11500720811, 11500720720, 11500720669, 11500721016, 11500720856, 11500720761, 11500720879, 3413742093, 11500717841, 11500720986, 11500720922, 11500720814, 11500720685, 11500721040, 11500720790, 11500720696, 11500721000, 11500720894, 11500720827, 11500720735, 11500721052, 11500720935, 11500717815, 11500720957, 11500720805, 11500720713, 11500717859, 11500721008, 11500720849, 11500720754, 11500720972, 11500720865, 11500720725, 11500717829, 11500721025, 11500720910, 11500720767, 11500720672, 11500720782, 11500720689, 11500720993, 11500720887, 11500720821, 11500720729, 11500721044, 11500720927, 11500720702, 11500717804, 11500720899, 11500720796, 11500720741, 11500717847, 11500720941, 11500720834, 11500720965, 11500720854, 11500720718, 11500717822, 11500721015, 11500720904, 11500720760, 11500717867, 11500720871, 11500721002], "tags": {"addr:city": "Philadelphia", "addr:housenumber": "1100", "addr:state": "PA", "addr:street": "Washington Avenue", "amenity": "restaurant", "building": "yes", "contact:facebook": "phogathanhthanhofficial", "contact:instagram": "phogathanhthanhofficial", "cuisine": "vietnamese", "email": "phochickenthanhthanh@gmail.com", "height": "13.1", "name": "Pho Ga Thanh Thanh", "opening_hours": "Su-Th 10:00-18:00; Fr-Sa 10:00-19:00", "phone": "+1-215-842-5085", "source": "City of Philadelphia"}}, {"type": "way", "id": 334264450, "nodes": [3413742110, 3413742111, 3413742112, 3413742113, 3413742110], "tags": {"addr:city": "Philadelphia", "addr:housenumber": "800", "addr:postcode": "19146", "addr:state": "PA", "addr:street": "South Broad Street", "amenity": "fast_food", "brand": "Popeyes", "brand:wikidata": "Q1330910", "building": "yes", "cuisine": "chicken", "delivery": "yes", "drive_through": "yes", "indoor_seating": "yes", "internet_access": "wlan", "name": "Popeyes", "official_name": "Popeyes Louisiana Kitchen", "opening_hours": "10:30-22:00", "phone": "+1 215-772-1120", "takeaway": "yes", "website": "https://www.popeyes.com/store-locator/store/restaurant_83263"}}, {"type": "way", "id": 334890731, "nodes": [11394112609, 11394112619, 3420122199, 3420122196, 3420122197, 11394112605, 4668627528, 3420122198, 11394112609], "tags": {"addr:city": "Philadelphia", "addr:housenumber": "1219", "addr:postcode": "19147", "addr:state": "PA", "addr:street": "South 9th Street", "amenity": "restaurant", "building": "yes", "cuisine": "steak_house;cheesesteak", "description": "Founded by Joey Vento in 1966.", "height": "11.88", "image": "https://www.genosteaks.com/wp-content/uploads/2015/11/GenosLogo1.png", "name": "Geno's Steaks", "opening_hours": "24/7", "phone": "+1-215-389-0659", "website": "https://www.genosteaks.com/"}}, {"type": "way", "id": 334903462, "nodes": [3420297422, 3420297423, 3420297424, 3420297425, 3420297422], "tags": {"brand": "Sunoco", "brand:wikidata": "Q1423218", "building": "yes", "name": "Sunoco", "operator": "Sunoco", "shop": "convenience"}}, {"type": "way", "id": 334903463, "nodes": [3420297426, 3420297427, 3420297428, 3420297429, 3420297426], "tags": {"addr:city": "Philadelphia", "addr:housenumber": "809", "addr:postcode": "19147", "addr:state": "PA", "addr:street": "South Broad Street", "alt_name": "Dunkin' Donuts", "amenity": "fast_food", "brand": "Dunkin'", "brand:wikidata": "Q847743", "building": "yes", "cuisine": "donut;coffee_shop", "drive_through": "no", "name": "Dunkin'", "opening_hours": "Mo-Fr 05:00-20:00; Sa-Su 06:00-18:00", "phone": "+1 215-545-9677", "ref": "331427", "takeaway": "yes", "website": "https://locations.dunkindonuts.com/en/pa/philadelphia/809-s-broad-st/331427"}}, {"type": "way", "id": 335519750, "nodes": [3426207833, 3426207834, 3426207835, 3426207836, 3426207833], "tags": {"addr:housenumber": "70", "addr:postcode": "19147", "addr:street": "South 8th Street", "building": "yes", "name": "1 Stop", "shop": "convenience"}}, {"type": "way", "id": 335519760, "nodes": [3426207882, 3426207881, 3426207878, 3426207877, 4823195979, 4823195977, 4823195978, 4823195980, 3426207876, 3426207875, 3426207882], "tags": {"addr:city": "Philadelphia", "addr:housenumber": "1111", "addr:postcode": "19107", "addr:state": "PA", "addr:street": "South 6th Street", "addr:unit": "19", "building": "yes", "height": "9.75", "name": "First Oriental Market", "opening_hours": "Mo-Su 08:00-19:30", "payment:cash": "yes", "payment:credit_cards": "yes", "shop": "supermarket", "source": "City of Philadelphia"}}, {"type": "way", "id": 335799952, "nodes": [3429164434, 3429164435, 3429164436, 3429164421, 3429164434], "tags": {"amenity": "fast_food", "brand": "Burger King", "brand:wikidata": "Q177054", "building": "yes", "cuisine": "burger", "height": "2", "name": "Burger King", "takeaway": "yes"}}, {"type": "way", "id": 337510066, "nodes": [3445896926, 3445896928, 3445896929, 3445896930, 3445896931, 3445896932, 3445896933, 3445896927, 3445896926], "tags": {"addr:city": "Philadelphia", "addr:housenumber": "716", "addr:postcode": "19106", "addr:state": "PA", "addr:street": "Sansom Street", "amenity": "restaurant", "building": "yes", "building:levels": "5", "check_date": "2024-10-11", "cuisine": "pizza;burger", "delivery": "yes", "name": "Maya's Pizza & Grill", "opening_hours": "Mo-We 08:00-20:00; Th-Fr 08:00-21:00; Sa 10:00-20:00; Su 11:00-19:00", "payment:credit_cards": "yes", "payment:debit_cards": "yes", "phone": "+1-217-773-5331", "website": "https://www.mayaspizzagrill.com"}}, {"type": "way", "id": 339557215, "nodes": [3467795010, 3467795011, 3467795012, 3467795013, 3467795010], "tags": {"addr:city": "Philadelphia", "addr:housenumber": "518", "addr:postcode": "19147", "addr:street": "South 4th Street", "amenity": "cafe", "building": "yes", "building:levels": "3", "building:material": "brick", "name": "Milk and Honey Cafe", "phone": "+1 215 928 1811", "roof:levels": "1", "roof:orientation": "across", "roof:shape": "gabled", "website": "http://www.milkandhoneymarket.com/"}}, {"type": "way", "id": 341790034, "nodes": [3424828944, 3488810602, 3488810601, 3488810599, 3488810600, 3424828944], "tags": {"addr:city": "Philadelphia", "addr:housenumber": "116", "addr:postcode": "19107", "addr:street": "South 11th Street", "amenity": "restaurant", "building": "yes", "building:levels": "2", "check_date": "2023-04-13", "contact:facebook": "https://www.facebook.com/toptomatobar", "contact:phone": "+1 215-592-8242", "contact:website": "https://www.toptomatophilly.com/", "cuisine": "pizza", "description": "Kitchen open until 10pm, pizza all night", "email": "Info@Toptomatophilly.Com", "happy_hours": "16:00-19:00", "name": "Top Tomato Bar & Pizza", "opening_hours": "Mo-Fr 10:00-26:00; Sa-Su 11:00-26:00"}}, {"type": "way", "id": 341803111, "nodes": [3466899710, 3472456199, 3488901470, 3488901469, 3466899710], "tags": {"addr:street": "Chestnut Street", "amenity": "cafe", "building": "yes", "name": "Munchie\u2019s Cafe"}}, {"type": "way", "id": 342989912, "nodes": [3499206798, 3499206804, 3499206805, 3499206803, 3499206802, 3499206806, 3499206807, 3499206799, 3499206798], "tags": {"addr:city": "Philadelphia", "addr:housenumber": "1119", "addr:postcode": "19107", "addr:state": "PA", "addr:street": "Walnut Street", "amenity": "restaurant", "building": "retail", "check_date": "2023-02-27", "cuisine": "thai", "name": "Xiandu Thai", "phone": "+1-215-940-8855"}}, {"type": "way", "id": 344417348, "nodes": [3511654972, 3511654973, 3511654974, 3511654975, 3511654976, 3511654977, 3511655000, 3511654978, 3511654979, 7590749666, 3511654972], "tags": {"amenity": "fast_food", "brand": "McDonald's", "brand:wikidata": "Q38076", "cuisine": "burger", "demolished:building": "yes", "fixme:atp": "Check if still exists. No corresponding ATP object.", "name": "McDonald's", "takeaway": "yes"}}, {"type": "way", "id": 345044251, "nodes": [11501127867, 11501127834, 11501091227, 11501127827, 11501127867], "tags": {"addr:city": "Philadelphia", "addr:housenumber": "1104", "addr:postcode": "19147", "addr:state": "PA", "addr:street": "South 9th Street", "amenity": "restaurant", "building": "yes", "cuisine": "mexican", "height": "5.18", "name": "Taqueria La Prima", "opening_hours": "Mo-Su 10:00-04:00", "phone": "+12153395000", "source": "City of Philadelphia"}}, {"type": "way", "id": 428817891, "nodes": [11501091243, 11501091233, 11501127825, 11501127883, 4279226188, 11501091265, 4279226289, 11501091250, 11501127840, 4279226290, 11501127852, 4279226291, 11501127837, 4279226186, 4279226187, 11501127780, 11501127870, 11501091243], "tags": {"addr:city": "Philadelphia", "addr:housenumber": "1140", "addr:postcode": "19147", "addr:state": "PA", "addr:street": "South 9th Street", "amenity": "restaurant", "building": "yes", "height": "12.1", "name": "Fronterizo Restaurant", "opening_hours": "Mo-Su 10:00-22:00", "phone": "+1-215-575-5994", "source": "City of Philadelphia;local knowledge"}}, {"type": "way", "id": 438876249, "nodes": [11498404325, 4365255873, 4365255874, 4365255872, 4365255876, 4365255869, 4365255870, 4365255871, 12047955255, 11498404325], "tags": {"addr:city": "Philadelphia", "addr:housenumber": "1135", "addr:postcode": "19147", "addr:state": "PA", "addr:street": "South Broad Street", "amenity": "restaurant", "building": "yes", "cuisine": "american", "height": "16.855", "name": "Broad Street Diner", "opening_hours": "00:00-24:00", "smoking": "no", "source": "City of Philadelphia", "takeaway": "yes"}}, {"type": "way", "id": 438876250, "nodes": [11500674580, 4365255878, 4365255881, 4365255885, 11500674578, 11500642534, 11500642547, 11500674626, 11500674638, 11500674593, 11500674612, 11500674595, 11500674615, 11500642566, 4365255882, 4365255880, 4365255879, 4365255887, 11500642565, 11500674580], "tags": {"addr:city": "Philadelphia", "addr:housenumber": "1133", "addr:postcode": "19147", "addr:state": "PA", "addr:street": "South Broad Street", "amenity": "restaurant", "building": "yes", "cuisine": "chinese", "height": "13.41", "name": "Mui Chung", "smoking": "no", "source": "City of Philadelphia", "takeaway": "yes"}}, {"type": "way", "id": 450257086, "nodes": [4471787959, 4471787960, 4471787961, 4471787962, 4666484217, 4471787959], "tags": {"amenity": "cafe", "building": "yes", "check_date:opening_hours": "2025-03-27", "name": "Golden Donuts", "opening_hours:signed": "no"}}, {"type": "way", "id": 456825833, "nodes": [4530595510, 9385006017, 4530595506, 11498131406, 11498131329, 4530595507, 11498125648, 4530595513, 4530595510], "tags": {"addr:city": "Philadelphia", "addr:housenumber": "1248", "addr:state": "PA", "addr:street": "South Clarion Street", "amenity": "cafe", "building": "yes", "height": "10.6", "name": "ReAnimator Coffee", "source": "City of Philadelphia"}}, {"type": "way", "id": 457007931, "nodes": [11500642567, 11500642523, 4532247063, 4532260719, 11500642540, 11500674649, 11500674669, 11500674585, 11500674601, 11500642555, 11500674570, 11500674579, 4532247064, 4532247067, 11500642567], "tags": {"addr:city": "Philadelphia", "addr:housenumber": "1138", "addr:postcode": "19147", "addr:state": "PA", "addr:street": "South 13th Street", "amenity": "restaurant", "building": "yes", "cuisine": "mexican", "delivery": "yes", "height": "11.27", "name": "El Jarocho", "smoking": "no", "source": "City of Philadelphia", "takeaway": "yes"}}, {"type": "way", "id": 457057271, "nodes": [4532646179, 11498198115, 4532646158, 4532646129, 4532646135, 11498198508, 11498198071, 4532646179], "tags": {"addr:city": "Philadelphia", "addr:housenumber": "1014", "addr:postcode": "19147", "addr:state": "PA", "addr:street": "Federal Street", "amenity": "restaurant", "building": "yes", "cuisine": "sandwich", "height": "10.97", "name": "Antonio's Deli", "opening_hours": "Mo-Sa 09:00-16:00", "phone": "+1-215-462-4622", "source": "City of Philadelphia", "website": "https://antoniosdeliphilly.com/"}}, {"type": "way", "id": 457301476, "nodes": [11500474229, 11500474154, 11500474303, 4534692797, 4534692796, 11500474149, 11500474299, 11500474117, 11500474229], "tags": {"addr:city": "Philadelphia", "addr:housenumber": "1179", "addr:state": "PA", "addr:street": "South 11th Street", "building": "yes", "height": "11.88", "name": "Edith's", "shop": "convenience", "source": "City of Philadelphia"}}, {"type": "way", "id": 472436907, "nodes": [4666484198, 4666484212, 4666484200, 4666484201, 4666484198], "tags": {"amenity": "restaurant", "building": "yes", "check_date:opening_hours": "2025-03-27", "cuisine": "mexican", "name": "Plaza Garibaldi", "opening_hours:signed": "no", "payment:credit_cards": "yes", "payment:debit_cards": "yes"}}, {"type": "way", "id": 794794361, "nodes": [5413260221, 7433918009, 7433918010, 3460931547, 5413260221], "tags": {"addr:city": "Philadelphia", "addr:housenumber": "625", "addr:postcode": "19147", "addr:state": "PA", "addr:street": "South 6th Street", "amenity": "restaurant", "building": "yes", "name": "Redcrest Kitchen", "opening_hours": "Mo-Su 10:00-15:00,16:00-22:00", "payment:credit_cards": "yes", "payment:debit_cards": "yes", "phone": "+1 215 454 6951", "website": "https://www.redcrest.kitchen/"}}, {"type": "way", "id": 1062427961, "nodes": [11459832147, 11459832143, 9760367454, 1482492640, 11459832131, 11459832126, 11459832147], "tags": {"addr:city": "Philadelphia", "addr:housenumber": "1314", "addr:postcode": "19146", "addr:state": "PA", "addr:street": "South Street", "amenity": "restaurant", "building": "yes", "cuisine": "american", "height": "11.58", "name": "Ms. Tootsies", "source": "City of Philadelphia"}}, {"type": "way", "id": 1122793141, "nodes": [10268753933, 10268753934, 10268753935, 10268753932, 10268753936, 10268753937, 10268753938, 10268753939, 10268753940, 10268753941, 10268753942, 10268753943, 10268753944, 10268753945, 10268753946, 10268753947, 10268753933], "tags": {"addr:city": "Philadelphia", "addr:housenumber": "1001-05", "addr:postcode": "19147", "addr:state": "PA", "addr:street": "East Passyunk Avenue", "amenity": "restaurant", "building": "yes", "cuisine": "mexican;breakfast", "height": "9.75", "name": "Taco Heart", "opening_hours": "Tu-Fr 07:30-14:00; Sa-Su 08:00-15:00; Mo off", "phone": "+1 445-230-0345", "source": "esri/Philadelphia_PA_Buildings_OSM", "website": "https://www.tacoheart.com/"}}]}