{"version": 0.6, "generator": "Overpass API 0.7.62.8 e802775f", "osm3s": {"timestamp_osm_base": "2025-09-21T02:41:59Z", "copyright": "The data included in this document is from www.openstreetmap.org. The data is made available under ODbL."}, "elements": [{"type": "node", "id": 333786044, "lat": 39.9408584, "lon": -75.1589281, "tags": {"addr:city": "Philadelphia", "addr:housenumber": "735", "addr:postcode": "19147", "addr:state": "PA", "addr:street": "South 10th Street", "alt_name": "Morning Glory Diner", "amenity": "restaurant", "atm": "yes", "contact:facebook": "https://www.facebook.com/MorningGloryDiner/", "cuisine": "diner", "diet:vegetarian": "yes", "name": "Sam's Morning Glory", "opening_hours": "Mo-Fr 08:00-14:00; Sa,Su 08:00-15:00", "payment:cash": "yes", "payment:credit_cards": "no", "payment:debit_cards": "no", "source": "knowledge;survey", "wheelchair": "limited"}}, {"type": "node", "id": 333786095, "lat": 39.9419244, "lon": -75.1573574, "tags": {"amenity": "cafe", "created_by": "Potlatch 0.10f", "name": "Chapter House", "source": "knowledge"}}, {"type": "node", "id": 333786275, "lat": 39.9428324, "lon": -75.1581249, "tags": {"addr:city": "Philadelphia", "addr:housenumber": "929", "addr:postcode": "19147", "addr:state": "PA", "addr:street": "South Street", "branch": "South Street", "brand": "Whole Foods Market", "brand:wikidata": "Q1809448", "check_date": "2024-10-03", "check_date:opening_hours": "2024-10-03", "name": "Whole Foods Market", "opening_hours": "Mo-Su 07:00-22:00", "phone": "+1 215-733-9788", "ref": "southstreet", "shop": "supermarket", "source": "knowledge", "website": "https://www.wholefoodsmarket.com/stores/southstreet", "wheelchair": "yes"}}, {"type": "node", "id": 361009251, "lat": 39.955196, "lon": -75.1683345, "tags": {"addr:city": "Philadelphia", "addr:housenumber": "1707", "addr:postcode": "19103", "addr:state": "PA", "addr:street": "Arch Street", "brand": "Wawa", "brand:wikidata": "Q5936320", "name": "Wawa", "opening_hours": "05:00-23:00", "phone": "+1 215-977-9558", "ref": "0086", "shop": "convenience", "website": "https://www.wawa.com/locations/0086"}}, {"type": "node", "id": 651838077, "lat": 39.949089, "lon": -75.1707551, "tags": {"addr:city": "Philadelphia", "addr:housenumber": "227", "addr:postcode": "19103", "addr:state": "PA", "addr:street": "South 18th Street", "amenity": "restaurant", "check_date": "2025-06-27", "check_date:opening_hours": "2025-06-27", "contact:facebook": "https://www.facebook.com/ParcRestaurant", "contact:website": "https://parc-restaurant.com/", "cuisine": "french", "email": "parc.info@starr-restaurants.com", "name": "Parc", "opening_hours": "Mo-Th 08:00-22:00; Fr 08:00-23:00; Sa 09:30-23:00; Su 09:30-22:00", "phone": "+1-215-545-2262", "reservation": "yes", "website:menu": "https://parc-restaurant.com/#menus", "wheelchair": "limited"}}, {"type": "node", "id": 1011911807, "lat": 39.9479938, "lon": -75.1541539, "tags": {"addr:city": "The Saint James", "addr:housenumber": "200", "addr:postcode": "19106", "addr:state": "PA", "addr:street": "West Washington Square", "air_conditioning": "yes", "amenity": "cafe", "branch": "8th & Walnut", "brand": "Starbucks", "brand:wikidata": "Q37158", "check_date": "2023-04-13", "cuisine": "coffee_shop", "indoor_seating": "yes", "internet_access": "yes", "name": "Starbucks", "official_name": "Starbucks Coffee", "opening_hours": "Mo-Fr 05:00-19:30; Sa-Su 05:30-19:30", "outdoor_seating": "no", "phone": "+1 215-627-2945", "smoking": "no", "takeaway": "yes", "website": "https://www.starbucks.com/store-locator/store/12580/8th-walnut-200-washington-square-west-philadelphia-pa-1910635", "wheelchair": "yes"}}, {"type": "node", "id": 1032321422, "lat": 39.948676, "lon": -75.160688, "tags": {"name": "Pac a Deli", "opening_hours": "07:00 - 24:00", "shop": "convenience"}}, {"type": "node", "id": 1033918289, "lat": 39.950684, "lon": -75.173896, "tags": {"addr:city": "Philadelphia", "addr:housenumber": "140", "addr:postcode": "19103", "addr:street": "South 20th Street", "amenity": "cafe", "check_date": "2023-10-15", "name": "Almaz Cafe", "opening_hours": "Mo-Tu,Su off; We-Sa 11:00-21:00", "phone": "+1 215-557-0108", "website": "https://almazcafes.com"}}, {"type": "node", "id": 1034412875, "lat": 39.9489302, "lon": -75.1600819, "tags": {"addr:housenumber": "1123", "addr:street": "Walnut Street", "amenity": "restaurant", "check_date": "2023-04-12", "contact:instagram": "https://www.instagram.com/thehayesphl", "contact:phone": "+1 215-982-2192", "contact:website": "https://www.thehayesphl.com", "email": "info@twrg.com", "name": "The Hayes", "opening_hours": "Mo off; Tu 16:00-22:00; We-Th,Su 12:00-22:00; Fr-Sa 12:00-24:00"}}, {"type": "node", "id": 1034425431, "lat": 39.9462088, "lon": -75.1577445, "tags": {"addr:housenumber": "941", "addr:street": "Spruce Street", "amenity": "pub", "check_date": "2023-04-12", "contact:facebook": "https://www.facebook.com/vargabar", "contact:phone": "+1 215-627-5200", "contact:website": "https://vargabar.com", "name": "Varga", "opening_hours": "Mo-Th 16:00-24:00; Fr 16:00-26:00; Sa 12:00-26:00; Su 12:00-24:00"}}, {"type": "node", "id": 1035941121, "lat": 39.9504604, "lon": -75.169114, "tags": {"amenity": "restaurant", "cuisine": "moroccan", "name": "Argan Moroccan Cuisine"}}, {"type": "node", "id": 1167105119, "lat": 39.9507269, "lon": -75.1637185, "tags": {"addr:city": "Philadelphia", "addr:housenumber": "1388", "addr:postcode": "19107", "addr:street": "Chestnut Street", "amenity": "restaurant", "check_date": "2023-10-12", "name": "The Capital Grille", "opening_hours": "Mo-Th 11:30-21:00; Fr 11:30-22:00; Sa 16:00-22:00; Su 16:00-21:00", "phone": "+1 215-545-9588", "website": "https://m.thecapitalgrille.com/locations/pa/philadelphia/philadelphia/8013", "wikimedia_commons": "File:The Capital Grille restaurant in Philadelphia, Pennsylvania.jpg"}}, {"type": "node", "id": 1167105751, "lat": 39.95241, "lon": -75.1623684, "tags": {"addr:city": "Philadelphia", "addr:housenumber": "1", "addr:postcode": "19107", "addr:state": "PA", "addr:street": "East Penn Square", "alt_name": "Dunkin' Donuts", "amenity": "fast_food", "brand": "Dunkin'", "brand:wikidata": "Q847743", "cuisine": "donut;coffee_shop", "drive_through": "no", "name": "Dunkin'", "opening_hours": "Mo-Fr 05:00-22:00; Sa-Su 06:00-17:00", "phone": "+1 215-751-1451", "ref": "339356", "takeaway": "yes", "website": "https://locations.dunkindonuts.com/en/pa/philadelphia/1-e-penn-square/339356"}}, {"type": "node", "id": 1316800583, "lat": 39.9425366, "lon": -75.1571737, "tags": {"addr:city": "Philadelphia", "addr:housenumber": "600", "addr:postcode": "19147", "addr:state": "PA", "addr:street": "South 9th Street", "amenity": "cafe", "branch": "9th & South", "brand": "Starbucks", "brand:wikidata": "Q37158", "cuisine": "coffee_shop", "name": "Starbucks", "official_name": "Starbucks Coffee", "phone": "+1 215-923-2389", "ref": "8238", "takeaway": "yes", "website": "https://www.starbucks.com/store-locator/store/8238/9th-south-600-9th-street-philadelphia-pa-191472018-us"}}, {"type": "node", "id": 1482487571, "lat": 39.9439545, "lon": -75.1673114, "tags": {"addr:city": "Philadelphia", "addr:housenumber": "534", "addr:postcode": "19146", "addr:state": "PA", "addr:street": "South 15th Street", "amenity": "restaurant", "bar": "no", "cuisine": "thai", "designation": "South 15th Street", "name": "Sawatdee", "opening_hours": "Su-Th 17:00-22:00; Fr,Sa 17:00-23:00", "outdoor_seating": "yes", "phone": "+1 215-790-1299", "takeaway": "yes", "website": "https://www.phillysawatdee.com"}}, {"type": "node", "id": 1482492640, "lat": 39.9433047, "lon": -75.1638906}, {"type": "node", "id": 1482514637, "lat": 39.9436423, "lon": -75.1666388, "tags": {"addr:city": "Philadelphia", "addr:housename": "Jamacian Jerk Hut", "addr:housenumber": "1436", "addr:postcode": "19146", "addr:street": "South Street", "amenity": "restaurant", "contact:phone": "+1 215-545-8644", "contact:website": "https://orderjamaicanjerkhut.com", "cuisine": "international", "name": "Jamaican Jerk Hut", "opening_hours": "Mo off; Tu-Th 11:30-19:00; Fr-Sa 11:30-17:00; Su 12:00-19:00", "wheelchair": "limited"}}, {"type": "node", "id": 1482514639, "lat": 39.9455278, "lon": -75.1654742, "tags": {"addr:housenumber": "1410", "addr:postcode": "19102", "addr:street": "Pine Street", "amenity": "restaurant", "cuisine": "italian", "name": "Girasole"}}, {"type": "node", "id": 1489690688, "lat": 39.9484315, "lon": -75.1621587, "tags": {"addr:housename": "13th Street Pizza", "addr:housenumber": "209", "addr:postcode": "19107", "addr:street": "South 13th Street", "amenity": "restaurant", "check_date": "2023-10-12", "cuisine": "pizza", "name": "Cappelli", "phone": "+1 215-309-5490"}}, {"type": "node", "id": 1489697259, "lat": 39.950078, "lon": -75.161799, "tags": {"addr:housename": "Zio Pizza", "addr:housenumber": "111", "addr:postcode": "19107", "addr:street": "South 13th Street", "amenity": "restaurant", "check_date": "2023-10-12", "contact:facebook": "https://www.facebook.com/ziosbrickovenpizza", "cuisine": "pizza", "name": "Zio's Brickoven Pizzeria", "opening_hours": "Mo-Th 10:00-21:00; Fr-Sa 11:00-22:00; Su 11:00-21:00", "phone": "+1 215-627-1615; +1 215-627-5018", "source": "Good Maps", "website": "https://www.ziosbrickoven.com"}}, {"type": "node", "id": 1513098751, "lat": 39.9452188, "lon": -75.1630938, "tags": {"addr:housenumber": "1300", "addr:postcode": "19107", "addr:street": "Pine Street", "amenity": "cafe", "internet_access": "wlan", "internet_access:fee": "no", "name": "Last Drop Cafe", "opening_hours": "Mo-Fr 07:00-17:00; Sa 08:00-16:00; Su 08:00-13:00", "website": "http://www.facebook.com/pages/last-drop/106437959398826"}}, {"type": "node", "id": 1513601815, "lat": 39.9456332, "lon": -75.1648301, "tags": {"addr:city": "Philadelphia", "addr:housenumber": "337-341", "addr:postcode": "19107", "addr:street": "South Broad Street", "amenity": "cafe", "brand": "Starbucks", "brand:wikidata": "Q37158", "check_date": "2011", "cuisine": "coffee_shop", "internet_access": "wlan", "internet_access:fee": "no", "name": "Starbucks", "official_name": "Starbucks Coffee", "source": "www.starbucks.com", "takeaway": "yes"}}, {"type": "node", "id": 1606846530, "lat": 39.9420101, "lon": -75.1528974, "tags": {"addr:city": "Philadelphia", "addr:housenumber": "618", "addr:state": "PA", "addr:street": "South Street", "amenity": "restaurant", "cuisine": "chinese", "diet:vegan": "yes", "name": "Golden Empress Garden", "phone": "+1-215-627-7666", "website": "https://www.goldenempressgarden.com/"}}, {"type": "node", "id": 1702834399, "lat": 39.9548883, "lon": -75.1561251, "tags": {"addr:city": "Philadelphia", "addr:housenumber": "146", "addr:street": "North 10th Street", "cuisine": "chinese", "name": "AsianFresh", "name:zh": "\u5bb6\u548c\u8d85\u5e02", "shop": "supermarket"}}, {"type": "node", "id": 1702834404, "lat": 39.9564002, "lon": -75.1541726, "tags": {"addr:city": "Philadelphia", "addr:housenumber": "238", "addr:postcode": "19107", "addr:street": "North 9th Street", "alt_name": "SangKee", "amenity": "restaurant", "cuisine": "chinese", "name": "Sang Kee Peking Duck House", "opening_hours": "Mo-Su 10:00-22:45; Fr,Sa 10:00-23:45", "short_name": "Sang Kee", "source": "Official website, http://www.phillychinatown.com/sangkee.htm", "website": "https://www.sangkeechinatown.com/"}}, {"type": "node", "id": 1702834414, "lat": 39.9554721, "lon": -75.1559832, "tags": {"addr:city": "Philadelphia", "addr:housenumber": "1001", "addr:postcode": "19107", "addr:street": "Race Street", "amenity": "restaurant", "check_date": "2023-10-11", "cuisine": "chinese", "name": "David's Mai Lai Wah", "opening_hours": "16:00-27:00", "phone": "+1 215-627-2610", "website": "https://www.davidsmailaiwah.com"}}, {"type": "node", "id": 1702834419, "lat": 39.955961, "lon": -75.1572716, "tags": {"addr:city": "Philadelphia", "addr:housenumber": "211", "addr:postcode": "19107", "addr:street": "North 11th Street", "amenity": "restaurant", "cuisine": "japanese", "name": "Yakitori Boy", "website": "https://www.yakitoriboy.com/"}}, {"type": "node", "id": 1702834425, "lat": 39.9554203, "lon": -75.1569989, "tags": {"addr:city": "Philadelphia", "addr:housenumber": "1026", "addr:postcode": "19107", "addr:street": "Race St", "amenity": "restaurant", "cuisine": "chinese", "name": "Joy Tsin Lau", "name:zh": "\u9189\u4ed9\u6a13", "source": "http://www.yelp.com/biz/joy-tsin-lau-philadelphia-2"}}, {"type": "node", "id": 1707863137, "lat": 39.9445118, "lon": -75.1717909, "tags": {"addr:city": "Philadelphia", "addr:housenumber": "1745", "addr:postcode": "19146", "addr:street": "South Street", "amenity": "cafe", "check_date": "2023-10-14", "contact:instagram": "https://www.instagram.com/ocfcoffeehouse", "cuisine": "coffee_shop", "internet_access": "wlan", "internet_access:fee": "no", "name": "OCF Coffee House", "opening_hours": "07:00-15:00", "phone": "+1 215-454-2196", "website": "https://www.ocfrealty.com/ocf-coffee-house"}}, {"type": "node", "id": 1712034405, "lat": 39.9418748, "lon": -75.1518877, "tags": {"addr:city": "Philadelphia", "addr:housenumber": "530", "addr:postcode": "19147", "addr:state": "PA", "addr:street": "South Street", "amenity": "pub", "check_date": "2023-04-12", "contact:facebook": "https://www.facebook.com/tattooedmomphilly", "contact:phone": "+1 215-238-9880", "contact:website": "https://www.tattoedmomphilly.com", "name": "Tattooed Mom", "opening_hours": "Mo-Th 16:00-23:00; Fr-Sa 12:00-26:00; Su 12:00-23:00"}}, {"type": "node", "id": 1889907923, "lat": 39.9429467, "lon": -75.1571176, "tags": {"addr:housenumber": "901", "addr:postcode": "19147", "addr:street": "South St", "amenity": "restaurant", "cuisine": "pizza", "name": "Little Italy Pizza", "website": "http://www.littleitalyone.com"}}, {"type": "node", "id": 1902470785, "lat": 39.9578722, "lon": -75.1691661}, {"type": "node", "id": 1902470791, "lat": 39.9580338, "lon": -75.169079}, {"type": "node", "id": 1902470794, "lat": 39.9580417, "lon": -75.1691378}, {"type": "node", "id": 1902470795, "lat": 39.9578657, "lon": -75.1691174}, {"type": "node", "id": 1902470798, "lat": 39.9578456, "lon": -75.1691722}, {"type": "node", "id": 1902470801, "lat": 39.9579789, "lon": -75.1691521}, {"type": "node", "id": 1902470804, "lat": 39.9578595, "lon": -75.1692758}, {"type": "node", "id": 1902470810, "lat": 39.9579486, "lon": -75.1692554}, {"type": "node", "id": 1937637141, "lat": 39.9557024, "lon": -75.1680332, "tags": {"addr:city": "Philadelphia", "addr:housenumber": "1700", "addr:postcode": "19103", "addr:street": "Benjamin Franklin Parkway", "amenity": "pub", "check_date": "2023-10-10", "contact:facebook": "https://www.facebook.com/ConMurphysPhilly", "name": "Con Murphy's", "opening_hours": "Mo-We 11:00-24:00, Th 09:00-24:00, Fr-Sa 09:00-24:00, Su off", "phone": "+1 267-687-1128", "source": "survey", "website": "https://conmurphyspub.com"}}, {"type": "node", "id": 2002973851, "lat": 39.9493006, "lon": -75.1525508, "tags": {"addr:city": "Philadelphia", "addr:housenumber": "700", "addr:postcode": "19016", "addr:street": "Chestnut Street", "amenity": "restaurant", "cuisine": "american", "designation": "Anna McPeak", "name": "Jones Restaurant", "website": "https://jones-restaurant.com/"}}, {"type": "node", "id": 2040315443, "lat": 39.944812, "lon": -75.1632105, "tags": {"addr:city": "Philadelphia", "addr:housenumber": "412", "addr:postcode": "19147", "addr:state": "PA", "addr:street": "South 13th Street", "amenity": "restaurant", "bar": "yes", "cuisine": "pizza", "designation": "13th and Waverly street", "name": "Paulie Gee's Soul City", "opening_hours": "Su-Th 11:30-23:00, Fr-Sa 11:30-02:00", "phone": "+1-267-239-5761", "sport": "billiards", "website": "https://pauliegee.com/soul-city/"}}, {"type": "node", "id": 2040424579, "lat": 39.9467368, "lon": -75.163189, "tags": {"addr:housenumber": "1312", "addr:street": "Spruce Street", "amenity": "restaurant", "check_date": "2023-04-11", "contact:phone": "+1 215-732-3478", "cuisine": "italian", "name": "Vetri Cucina", "opening_hours": "17:00+ \"Dinner every day starting at 5PM\"", "website": "https://vetricucina.com"}}, {"type": "node", "id": 2040446963, "lat": 39.940255, "lon": -75.1576476, "tags": {"addr:city": "Philadelphia", "addr:housenumber": "760", "addr:postcode": "19147", "addr:state": "PA", "addr:street": "South 9th Street", "alt_name": "Ralph's Italian Restaurant", "amenity": "restaurant", "cuisine": "italian", "name": "Ralph's", "opening_hours": "Mo-Th 16:00-21:00; Fr 16:00-21:30; Sa 13:00-21:30; Su 13:00-21:00", "phone": "+1-215-627-6011", "website": "https://ralphsrestaurant.com"}}, {"type": "node", "id": 2065987563, "lat": 39.9537514, "lon": -75.1567341, "tags": {"addr:housename": "Banana Leaf", "addr:housenumber": "1009", "addr:postcode": "19107", "addr:street": "Arch Street", "amenity": "restaurant", "cuisine": "asian", "name": "Banana Leaf", "opening_hours": "Mo-Su 11:00-01:00"}}, {"type": "node", "id": 2065987946, "lat": 39.9534483, "lon": -75.1564447, "tags": {"addr:housename": "Pho Cali", "addr:housenumber": "1000", "addr:postcode": "19107", "addr:street": "Arch Street", "amenity": "restaurant", "cuisine": "vietnamese", "name": "Pho Cali", "name:zh": "\u52a0\u5dde\u7c89\u738b", "opening_hours": "Su-Th 10:30-22:30, Fr,Sa 11:00-23:00"}}, {"type": "node", "id": 2065989577, "lat": 39.9532745, "lon": -75.1564662, "tags": {"addr:housename": "Yummy Yummy", "addr:housenumber": "52", "addr:postcode": "19107", "addr:street": "North 10th Street", "amenity": "restaurant", "cuisine": "asian", "name": "Yummy Yummy"}}, {"type": "node", "id": 2065990011, "lat": 39.9539498, "lon": -75.1563195, "tags": {"addr:housename": "Empress Gardens", "addr:housenumber": "108", "addr:postcode": "19107", "addr:street": "North 10th Street", "amenity": "restaurant", "cuisine": "chinese", "name": "Empress Gardens"}}, {"type": "node", "id": 2078082474, "lat": 39.9470731, "lon": -75.1682365, "tags": {"addr:housenumber": "306", "addr:street": "South 16th Street", "amenity": "restaurant", "cuisine": "thai", "name": "Jasmine Rice"}}, {"type": "node", "id": 2179184400, "lat": 39.9512282, "lon": -75.1660978, "tags": {"addr:city": "Philadelphia", "addr:housenumber": "1515", "addr:postcode": "19102", "addr:state": "PA", "addr:street": "Chestnut Street", "amenity": "fast_food", "brand": "Wendy's", "brand:wikidata": "Q550258", "check_date": "2023-10-08", "cuisine": "burger", "name": "Wendy's", "opening_hours": "06:30-01:00", "phone": "+1 215-569-4087", "takeaway": "yes", "website": "https://locations.wendys.com/united-states/pa/philadelphia/1515-chestnut-street"}}, {"type": "node", "id": 2186349324, "lat": 39.9509449, "lon": -75.1655084, "tags": {"addr:city": "Philadelphia", "addr:housenumber": "1428-1432", "addr:postcode": "19102", "addr:state": "PA", "addr:street": "Chestnut Street", "amenity": "restaurant", "brand": "Del Frisco's Double Eagle Steakhouse", "brand:wikidata": "Q23461481", "check_date": "2023-10-08", "cuisine": "steak_house", "name": "Del Frisco's Double Eagle Steakhouse", "opening_hours": "Mo-We 17:00-21:00; Th-Fr 17:00-22:00; Sa 16:00-22:00; Su 16:00-21:00", "phone": "+1 215-246-0533", "website": "https://www.delfriscos.com/location/del-friscos-double-eagle-steakhouse-philadelphia-pa"}}, {"type": "node", "id": 2222493623, "lat": 39.9560453, "lon": -75.1604697, "tags": {"addr:housenumber": "1231", "addr:postcode": "19107", "addr:street": "Race Street", "name": "QQ Deli Market", "phone": "+1-267-243-5077", "shop": "convenience"}}, {"type": "node", "id": 2226025522, "lat": 39.9532308, "lon": -75.1610942, "tags": {"addr:city": "Philadelphia", "addr:housenumber": "1239", "addr:postcode": "19107", "addr:street": "Filbert Street", "amenity": "restaurant", "brand": "Chili's", "brand:wikidata": "Q1072948", "check_date": "2023-10-11", "cuisine": "tex-mex", "name": "Chili's", "official_name": "Chili's Grill & Bar", "opening_hours": "Mo-Th,Su 11:00-22:00; Fr-Sa 11:00-23:00", "phone": "+1 215-569-0850", "website": "https://www.chilis.com/locations/us/pennsylvania/philadelphia/center-city"}}, {"type": "node", "id": 2254889201, "lat": 39.9508621, "lon": -75.1629441, "tags": {"addr:city": "Philadelphia", "addr:housenumber": "1337", "addr:postcode": "19107", "addr:street": "Chestnut Street", "amenity": "restaurant", "check_date": "2025-06-27", "check_date:opening_hours": "2025-06-27", "cuisine": "brazilian", "name": "Fogo de Chao", "opening_hours": "Mo-Fr 11:30-15:00, Mo-Th 15:00-22:00, Sa,Su 11:30-21:00, Fr 15:00-22:30, Sa,Su 11:30-14:00, Sa 14:00-22:30, Su 14:00-21:00", "phone": "+1 215-636-9700", "website": "https://fogodechao.com/location/philadelphia"}}, {"type": "node", "id": 2256040035, "lat": 39.9531112, "lon": -75.1598822, "tags": {"addr:housenumber": "1201", "addr:street": "Filbert Street", "amenity": "restaurant", "check_date": "2023-04-12", "contact:website": "https://maggianos.com/locations/pennsylvania/philadelphia/1201-filbert-st.", "cuisine": "italian", "description": "Carryout: 215-567-2233  Reserve a table: 215-567-2020", "name": "Maggiano's", "opening_hours": "11:30-22:00", "wheelchair": "yes"}}, {"type": "node", "id": 2262657990, "lat": 39.9495671, "lon": -75.1652623, "tags": {"addr:city": "Philadelphia", "addr:housenumber": "1425", "addr:postcode": "19102", "addr:street": "Walnut Street", "amenity": "cafe", "brand": "Le Pain Quotidien", "brand:wikidata": "Q2046903", "check_date": "2025-06-27", "check_date:opening_hours": "2025-06-27", "cuisine": "coffee_shop", "name": "Le Pain Quotidien", "opening_hours": "Mo-Fr 06:30-17:00; Sa,Su 07:00-18:00", "phone": "+1 215-751-0570", "takeaway": "yes", "website": "https://www.lepainquotidien.com/us/en/locations/501:%20rittenhouse_row/1425-walnut-st/"}}, {"type": "node", "id": 2267258438, "lat": 39.9497204, "lon": -75.1706366, "tags": {"addr:housenumber": "205", "addr:street": "South 18th Street", "amenity": "restaurant", "check_date": "2023-04-11", "contact:phone": "+1 215-732-6622", "contact:website": "https://www.rouge98.com/", "name": "Rouge"}}, {"type": "node", "id": 2267258439, "lat": 39.9499539, "lon": -75.1699232, "tags": {"addr:city": "Philadelphia", "addr:housenumber": "1714", "addr:postcode": "19103", "addr:street": "Walnut Street", "amenity": "restaurant", "check_date": "2023-10-15", "contact:facebook": "https://www.facebook.com/pietroscoaloven", "contact:instagram": "https://www.instagram.com/pietrositalian", "name": "Pietro's Coal Oven Pizza", "opening_hours": "Mo-Th,Su 12:00-20:30; Fr-Sa 12:00-21:30", "phone": "+1 215-735-8090", "website": "https://pietrospizza.com"}}, {"type": "node", "id": 2267258440, "lat": 39.9491709, "lon": -75.1636593, "tags": {"addr:city": "Philadelphia", "addr:housenumber": "1334", "addr:postcode": "19107", "addr:street": "Walnut Street", "amenity": "restaurant", "check_date": "2023-04-11", "contact:phone": "+1 215-985-4155", "contact:website": "https://www.saharagrillphiladelphia.com/", "cuisine": "middle_eastern", "name": "Sahara Grill", "opening_hours": "11:00-22:00"}}, {"type": "node", "id": 2267258442, "lat": 39.9520693, "lon": -75.1596357, "tags": {"addr:city": "Philadelphia", "addr:housenumber": "1113", "addr:postcode": "19107", "addr:street": "Market Street", "amenity": "restaurant", "brand": "Hard Rock Cafe", "brand:wikidata": "Q918151", "check_date": "2023-04-12", "contact:phone": "+1 215-238-1000", "contact:website": "https://www.hardrockcafe.com/location/philadelphia/", "cuisine": "american", "name": "Hard Rock Cafe", "opening_hours": "Mo-Th,Su 11:30-22:00; Fr-Sa 11:30-23:00"}}, {"type": "node", "id": 2267258446, "lat": 39.9531732, "lon": -75.1607241, "tags": {"addr:city": "Philadelphia", "addr:housenumber": "1215", "addr:postcode": "19107", "addr:state": "PA", "addr:street": "Filbert Street", "atm": "yes", "brand": "7-Eleven", "brand:wikidata": "Q259340", "check_date": "2023-10-11", "fast_food": "yes", "fuel:propane": "yes", "name": "7-Eleven", "opening_hours": "24/7", "phone": "+1 215-923-2044", "ref": "33516", "shop": "convenience", "website": "https://www.7-eleven.com/locations/pa/philadelphia/1215-filbert-street-33516"}}, {"type": "node", "id": 2377568637, "lat": 39.9482175, "lon": -75.1543435, "tags": {"addr:housenumber": "801", "addr:street": "Walnut Street", "air_conditioning": "yes", "amenity": "cafe", "brand": "Le Pain Quotidien", "brand:wikidata": "Q2046903", "check_date": "2023-04-13", "contact:facebook": "https://www.facebook.com/lepainquotidienus", "contact:phone": "+1 215-989-4830", "contact:website": "https://www.lepainquotidien.com/us/en/locations/502:%208th_&_walnut/801-walnut-st", "cuisine": "coffee_shop", "indoor_seating": "yes", "name": "Le Pain Quotidien", "opening_hours": "Mo-Fr 07:30-16:00; Sa-Su 08:00-16:00", "outdoor_seating": "no", "smoking": "no", "takeaway": "yes", "wheelchair": "yes"}}, {"type": "node", "id": 2457180088, "lat": 39.9544332, "lon": -75.1667563, "tags": {"addr:housename": "Phoenix Building", "addr:housenumber": "1600", "addr:postcode": "19103", "addr:street": "Arch Street", "amenity": "pub", "check_date": "2023-10-09", "contact:facebook": "https://www.facebook.com/tnnphilly", "name": "Tir na nOg", "opening_hours": "Mo 11:00-20:00; Tu-We 11:00-21:00; Th-Fr 11:00-22:00; Sa 09:00-22:00; Su 09:00-20:00", "phone": "+1 267-514-1700", "source": "survey", "website": "https://tirnanogphilly.com/"}}, {"type": "node", "id": 2457190028, "lat": 39.9483288, "lon": -75.1663588, "tags": {"addr:housenumber": "1500", "addr:postcode": "19102", "addr:street": "Locust Street", "amenity": "pub", "name": "Fado", "source": "survey", "website": "https://www.fadoirishpub.com/philadelphia/", "wheelchair": "yes"}}, {"type": "node", "id": 2460899138, "lat": 39.9464113, "lon": -75.1595785, "tags": {"addr:housenumber": "1101", "addr:street": "Spruce Street", "amenity": "cafe", "check_date": "2023-04-12", "contact:facebook": "https://www.facebook.com/greenstreetcoffee", "contact:website": "https://www.greenstreetcoffee.com", "cuisine": "coffee_shop", "name": "Green Street Coffee Bar", "note": "$2 Cold brews", "opening_hours": "Mo-Fr 06:00-18:00; Sa,Su 07:00-18:00"}}, {"type": "node", "id": 2476519204, "lat": 39.9554241, "lon": -75.1663976}, {"type": "node", "id": 2476519206, "lat": 39.9555139, "lon": -75.1665218}, {"type": "node", "id": 2476519207, "lat": 39.9554478, "lon": -75.1666031}, {"type": "node", "id": 2476519212, "lat": 39.955358, "lon": -75.1664789}, {"type": "node", "id": 2581146172, "lat": 39.9445056, "lon": -75.1717261, "tags": {"addr:city": "Philadelphia", "addr:housenumber": "1743", "addr:postcode": "19146", "addr:state": "PA", "addr:street": "South Street", "amenity": "restaurant", "check_date": "2023-10-14", "contact:instagram": "https://www.instagram.com/lazarospizzeria", "cuisine": "pizza", "name": "Lazaro's Pizzeria & Grill", "opening_hours": "Mo-Th 11:00-20:45; Fr-Sa 11:00-21:45; Su 12:00-20:45", "phone": "+1 215-545-2775", "website": "https://www.lazarospizzeriagrill.com"}}, {"type": "node", "id": 2581154178, "lat": 39.9478819, "lon": -75.1712785, "tags": {"addr:city": "Philadelphia", "addr:housenumber": "1801", "addr:postcode": "19103", "addr:state": "PA", "addr:street": "Spruce Street", "amenity": "cafe", "branch": "18th & Spruce", "brand": "Starbucks", "brand:wikidata": "Q37158", "cuisine": "coffee_shop", "internet_access": "yes", "name": "Starbucks", "official_name": "Starbucks Coffee", "opening_hours": "05:30-20:00", "phone": "+1 215-732-1610", "takeaway": "yes", "website": "https://www.starbucks.com/store-locator/store/90334/18th-spruce-1801-spruce-street-philadelphia-pa-191035803-us"}}, {"type": "node", "id": 2581158950, "lat": 39.947866, "lon": -75.1710476, "tags": {"addr:city": "Philadelphia", "addr:housenumber": "1733", "addr:postcode": "19103", "addr:street": "Spruce Street", "name": "Rittenhouse Market", "phone": "+1 215-985-5930", "shop": "supermarket", "website": "https://rittenhousemarkets.com/", "wheelchair": "yes"}}, {"type": "node", "id": 2583160710, "lat": 39.9455589, "lon": -75.1717866, "tags": {"addr:city": "Philadelphia", "addr:housenumber": "1801", "addr:postcode": "19146", "addr:state": "PA", "addr:street": "Lombard Street", "amenity": "restaurant", "cuisine": "korean", "diet:pescetarian": "yes", "diet:vegetarian": "yes", "lgbtq": "welcome", "name": "SouthGate", "opening_hours": "Tu-Th 17:00-23:00; Fr 16:00-00:00; Sa 11:00-00:00; Su 11:00-21:00", "payment:cash": "yes", "payment:credit_cards": "yes", "payment:debit_cards": "yes", "phone": "+1 215-560-8443", "reservation": "recommended", "smoking": "outside", "website": "https://southgatephilly.com"}}, {"type": "node", "id": 2654363315, "lat": 39.9514953, "lon": -75.1674309, "tags": {"addr:city": "Philadelphia", "addr:housenumber": "1625", "addr:postcode": "19103", "addr:street": "Chestnut Street", "amenity": "cafe", "branch": "Liberty Place", "brand": "Saxbys", "check_date": "2023-10-12", "name": "Saxbys", "opening_hours": "Mo-Sa 08:00-15:00; Su 12:00-18:00", "phone": "+1 267-319-1597", "website": "https://www.saxbyscoffee.com/location/saxbys-liberty-place", "wheelchair": "yes"}}, {"type": "node", "id": 2654369485, "lat": 39.9537291, "lon": -75.1597067, "tags": {"addr:city": "Philadelphia", "addr:housenumber": "44", "addr:postcode": "19107", "addr:street": "North 12th Street", "amenity": "fast_food", "branch": "Center City", "brand": "BurgerFi", "brand:wikidata": "Q39045496", "check_date": "2023-10-11", "cuisine": "burger", "name": "BurgerFi", "opening_hours": "Mo-Th,Su 11:00-22:00; Fr-Sa 11:00-24:00", "phone": "+1 267-928-3882", "takeaway": "yes", "website": "https://order.burgerfi.com/locations/burgerfi-philadelphia"}}, {"type": "node", "id": 2654371485, "lat": 39.9538437, "lon": -75.1596927, "tags": {"addr:city": "Philadelphia", "addr:housenumber": "48", "addr:postcode": "19107", "addr:state": "PA", "addr:street": "North 12th Street", "amenity": "fast_food", "brand": "Panera Bread", "brand:wikidata": "Q7130852", "check_date": "2025-06-27", "check_date:opening_hours": "2025-06-27", "cuisine": "sandwich;bakery", "name": "Panera Bread", "opening_hours": "Mo-Sa 07:00-21:00; Su 07:00-20:00", "phone": "+1 215-574-7678", "short_name": "Panera", "takeaway": "yes", "website": "https://www.panerabread.com/en-us/cafe/locations/pa/philadelphia/48-north-12th-st"}}, {"type": "node", "id": 2694849009, "lat": 39.9516669, "lon": -75.1653051, "tags": {"addr:city": "Philadelphia", "addr:housenumber": "1414", "addr:postcode": "19102", "addr:street": "South Penn Square", "amenity": "cafe", "brand": "La Colombe Coffee Roasters", "brand:wikidata": "Q23461663", "cuisine": "coffee_shop", "internet_access": "no", "name": "La Colombe Coffee Roasters", "opening_hours": "Mo-Fr 07:00-19:00, Sa-Su 08:00-19:00", "phone": "+1 215-977-7770", "power_supply": "yes", "short_name": "La Colombe", "takeaway": "yes", "website": "https://www.lacolombe.com/", "wheelchair": "yes"}}, {"type": "node", "id": 2701472727, "lat": 39.9439783, "lon": -75.1675414, "tags": {"addr:city": "Philadelphia", "addr:housenumber": "1511", "addr:postcode": "19146", "addr:street": "South Street", "amenity": "restaurant", "check_date": "2023-10-15", "contact:facebook": "https://www.facebook.com/thequickfixx", "cuisine": "italian", "name": "Quick Fixx", "opening_hours": "11:00-21:00", "phone": "+1 267-273-1066", "website": "https://thequickfixx.com/"}}, {"type": "node", "id": 2821950508, "lat": 39.9505355, "lon": -75.1690861, "tags": {"amenity": "restaurant", "cuisine": "seafood", "name": "Luke's Lobster", "source:cuisine": "survey"}}, {"type": "node", "id": 2910156409, "lat": 39.9512405, "lon": -75.173792, "tags": {"addr:city": "Philadelphia", "addr:housenumber": "2000", "addr:postcode": "19103", "addr:street": "Sansom Street", "amenity": "fast_food", "brand": "Shake Shack", "brand:wikidata": "Q1058722", "cuisine": "burger", "diet:vegetarian": "yes", "name": "Shake Shack", "opening_hours": "Su-Th 10:30-22:00; Fr,Sa 10:30-23:00", "phone": "+1 215 809 1742", "smoking": "no", "takeaway": "yes", "website": "https://www.shakeshack.com/location/philadelphia/"}}, {"type": "node", "id": 2910156414, "lat": 39.9513934, "lon": -75.1737834, "tags": {"addr:city": "Philadelphia", "addr:housenumber": "118", "addr:postcode": "19103", "addr:street": "South 20th Street", "amenity": "restaurant", "check_date": "2025-06-29", "check_date:opening_hours": "2025-06-29", "cuisine": "american", "name": "Village Whiskey", "opening_hours": "Mo-Su 16:00-22:00, Sa,Su 11:30-15:00", "phone": "+1 215 665 1088", "website": "https://villagewhiskey.com/"}}, {"type": "node", "id": 2973059795, "lat": 39.9413269, "lon": -75.1539466, "tags": {"addr:city": "Philadelphia", "addr:housenumber": "611", "addr:postcode": "19147", "addr:street": "South 7th Street", "amenity": "restaurant", "cuisine": "malaysian", "name": "Kampar", "phone": "+1 215-989-2202", "smoking": "no", "website": "https://www.kamparphilly.com/"}}, {"type": "node", "id": 3040240343, "lat": 39.947338, "lon": -75.1534542, "tags": {"addr:city": "Philadelphia", "addr:housenumber": "208", "addr:postcode": "19106", "addr:street": "West Washington Square", "amenity": "cafe", "check_date": "2023-04-12", "contact:phone": "+1 215-592-6555", "contact:website": "https://talulasdaily.com", "cuisine": "coffee_shop", "name": "Talula's Daily", "opening_hours": "08:00-18:00", "wheelchair": "limited", "wheelchair:description": "Front door accessible but only allows access to serving counter. Seating area and accessible restroom reached via rear trash alley/kitchen entrance. No sign or info explaining this at front.", "wheelchair:description:en": "Front entrance accessible but limited access without going around to rear trash alley to enter and gain access to seating area and wheelchair accessible restroom."}}, {"type": "node", "id": 3040246034, "lat": 39.9471555, "lon": -75.1534825, "tags": {"addr:city": "Philadelphia", "addr:housenumber": "210", "addr:postcode": "19106", "addr:street": "West Washington Square", "amenity": "restaurant", "check_date": "2023-04-12", "contact:phone": "+1 215-592-7787", "contact:website": "https://talulasgarden.com", "cuisine": "american", "name": "Talula's Garden", "opening_hours": "Mo-Fr 17:00-22:00; Sa 16:00-22:00; Su 10:00-14:00 open \"brunch\", Su 16:00-22:00 open \"dinner\""}}, {"type": "node", "id": 3076951036, "lat": 39.94956, "lon": -75.166659, "tags": {"addr:city": "Philadelphia", "addr:housenumber": "1512", "addr:postcode": "19103", "addr:state": "PA", "addr:street": "Walnut Street", "alt_name": "Chipotle Mexican Grill", "amenity": "fast_food", "brand": "Chipotle", "brand:wikidata": "Q465751", "check_date": "2023-10-15", "cuisine": "mexican", "diet:vegan": "yes", "diet:vegetarian": "yes", "name": "Chipotle", "official_name": "Chipotle Mexican Grill", "opening_hours": "10:45-22:00", "phone": "+1 215-558-5213", "takeaway": "yes", "website": "https://locations.chipotle.com/pa/philadelphia/1512-walnut-street", "wheelchair": "yes"}}, {"type": "node", "id": 3076968333, "lat": 39.948017, "lon": -75.1528374, "tags": {"addr:city": "Philadelphia", "addr:housenumber": "703", "addr:postcode": "19106", "addr:state": "PA", "addr:street": "Walnut Street", "amenity": "cafe", "check_date": "2024-10-11", "cuisine": "coffee_shop", "internet_access": "wlan", "internet_access:fee": "customers", "name": "Cafe Walnut", "opening_hours": "Mo-Fr 08:00-17:00; Sa-Su 09:00-15:00", "outdoor_seating": "no", "phone": "+1 215-964-9044", "website": "https://www.instagram.com/cafe.walnut/", "wheelchair": "no", "wheelchair:description": "Lots of steps down to basement entrance."}}, {"type": "node", "id": 3076971133, "lat": 39.9480904, "lon": -75.1534068, "tags": {"addr:housenumber": "719", "addr:street": "Walnut Street", "amenity": "restaurant", "check_date": "2023-04-12", "contact:website": "https://www.fatsalmonsushi.com", "cuisine": "sushi", "name": "Fat Salmon", "opening_hours": "Mo off; Tu-Th 16:00-20:30; Fr-Sa 16:00-21:30; Su 16:00-20:00", "wheelchair": "yes"}}, {"type": "node", "id": 3076977533, "lat": 39.9482935, "lon": -75.1567637, "tags": {"addr:housenumber": "912-916", "addr:street": "Walnut Street", "brand": "Wawa", "brand:wikidata": "Q5936320", "check_date": "2023-10-16", "contact:phone": "+1 215-923-1404", "contact:website": "https://www.wawa.com/store/103/ma/pa-philadelphia-912-916-walnut-street", "name": "Wawa", "opening_hours": "24/7", "ref": "103", "shop": "convenience", "wheelchair": "yes"}}, {"type": "node", "id": 3076983433, "lat": 39.9485669, "lon": -75.157268, "tags": {"addr:city": "Philadelphia", "addr:housenumber": "929", "addr:postcode": "19107", "addr:street": "Walnut Street", "amenity": "restaurant", "check_date": "2023-04-13", "contact:website": "https://www.barrarossa.com", "name": "Barra Rossa", "opening_hours": "Tu 16:00-21:00; Mo off, Tu 12:00-21:00, We 12:00-21:00", "phone": "+1 215-644-9074", "wheelchair": "yes", "wheelchair:description": "entrance at right of front accessible."}}, {"type": "node", "id": 3077101935, "lat": 39.9546738, "lon": -75.1667176, "tags": {"addr:city": "Philadelphia", "addr:housenumber": "1600", "addr:postcode": "19103", "addr:state": "PA", "addr:street": "Arch Street", "amenity": "cafe", "brand": "Starbucks", "brand:wikidata": "Q37158", "check_date": "2015-07-01", "cuisine": "coffee_shop", "name": "Starbucks", "official_name": "Starbucks Coffee", "opening_hours": "Mo-Fr 05:30-20:00; Sa-Su 06:30-19:30", "takeaway": "yes", "wheelchair": "yes"}}, {"type": "node", "id": 3094941729, "lat": 39.946541, "lon": -75.161027, "tags": {"addr:city": "Philadelphia", "addr:housenumber": "1137", "addr:postcode": "19107", "addr:street": "Spruce Street", "amenity": "restaurant", "check_date": "2023-04-12", "contact:facebook": "https://www.facebook.com/TriaPhilly", "cuisine": "tapas", "internet_access": "wlan", "name": "Tria", "opening_hours": "Mo-Th 16:00-21:30; Fr-Sa 12:00-22:00; Su 14:00-20:30", "phone": "+1 215 629 92 00", "website": "https://triaphilly.com", "wheelchair": "limited", "wheelchair:description": "Entrance and restroom accessible but unfortunately all seating in wheelchair accessible indoor area is high top tables. Outdoor seating tables in warmer weather."}}, {"type": "node", "id": 3265628446, "lat": 39.9425823, "lon": -75.1575045, "tags": {"addr:city": "Philadelphia", "addr:housenumber": "900", "addr:street": "South Street", "amenity": "restaurant", "cuisine": "barbecue", "name": "Percy Street Barbecue", "smoking": "no", "website": "http://www.percystreet.com/"}}, {"type": "node", "id": 3306336752, "lat": 39.9548039, "lon": -75.1559344}, {"type": "node", "id": 3306336753, "lat": 39.9547613, "lon": -75.155604}, {"type": "node", "id": 3306336754, "lat": 39.9548279, "lon": -75.1555923}, {"type": "node", "id": 3308112713, "lat": 39.9533715, "lon": -75.1555168}, {"type": "node", "id": 3308112714, "lat": 39.9531851, "lon": -75.1555554}, {"type": "node", "id": 3308112715, "lat": 39.9531939, "lon": -75.155628}, {"type": "node", "id": 3400941943, "lat": 39.9557827, "lon": -75.1725874}, {"type": "node", "id": 3400941944, "lat": 39.9557722, "lon": -75.1725161}, {"type": "node", "id": 3400941945, "lat": 39.9556899, "lon": -75.1726104}, {"type": "node", "id": 3401274279, "lat": 39.9496912, "lon": -75.1611846}, {"type": "node", "id": 3401274280, "lat": 39.9495448, "lon": -75.1612159}, {"type": "node", "id": 3401274281, "lat": 39.9495339, "lon": -75.1611291}, {"type": "node", "id": 3401274282, "lat": 39.9496805, "lon": -75.1610978}, {"type": "node", "id": 3401274295, "lat": 39.9502673, "lon": -75.1626403}, {"type": "node", "id": 3401274296, "lat": 39.9501536, "lon": -75.1626666}, {"type": "node", "id": 3401274297, "lat": 39.9501323, "lon": -75.1625091}, {"type": "node", "id": 3401274298, "lat": 39.9502492, "lon": -75.1624858}, {"type": "node", "id": 3401274327, "lat": 39.9551124, "lon": -75.1542484}, {"type": "node", "id": 3401274328, "lat": 39.955097, "lon": -75.1541076}, {"type": "node", "id": 3401274364, "lat": 39.9533803, "lon": -75.1555894}, {"type": "node", "id": 3404334299, "lat": 39.948862, "lon": -75.1661924}, {"type": "node", "id": 3405465319, "lat": 39.951011, "lon": -75.170899}, {"type": "node", "id": 3408839892, "lat": 39.9510395, "lon": -75.1565439}, {"type": "node", "id": 3408839993, "lat": 39.9510454, "lon": -75.1565951}, {"type": "node", "id": 3408840034, "lat": 39.9513595, "lon": -75.1564748}, {"type": "node", "id": 3408840035, "lat": 39.9513658, "lon": -75.1565249}, {"type": "node", "id": 3409971723, "lat": 39.9556825, "lon": -75.1725353}, {"type": "node", "id": 3413417147, "lat": 39.9488031, "lon": -75.1662049}, {"type": "node", "id": 3413417148, "lat": 39.9488892, "lon": -75.1664113}, {"type": "node", "id": 3413417149, "lat": 39.9488304, "lon": -75.1664238}, {"type": "node", "id": 3413417151, "lat": 39.9487736, "lon": -75.1664358}, {"type": "node", "id": 3413417152, "lat": 39.9487464, "lon": -75.1662169}, {"type": "node", "id": 3413417154, "lat": 39.9487647, "lon": -75.1663639}, {"type": "node", "id": 3413742110, "lat": 39.9406117, "lon": -75.1667263}, {"type": "node", "id": 3413742111, "lat": 39.9407114, "lon": -75.1667073}, {"type": "node", "id": 3413742112, "lat": 39.940691, "lon": -75.1665249}, {"type": "node", "id": 3413742113, "lat": 39.9405913, "lon": -75.1665439}, {"type": "node", "id": 3414251603, "lat": 39.9547135, "lon": -75.1647378}, {"type": "node", "id": 3414251604, "lat": 39.9547042, "lon": -75.1646624}, {"type": "node", "id": 3420297422, "lat": 39.9406138, "lon": -75.1656766}, {"type": "node", "id": 3420297423, "lat": 39.9404164, "lon": -75.1657189}, {"type": "node", "id": 3420297424, "lat": 39.9404017, "lon": -75.1656017}, {"type": "node", "id": 3420297425, "lat": 39.9405991, "lon": -75.1655594}, {"type": "node", "id": 3420297426, "lat": 39.9400864, "lon": -75.1659013}, {"type": "node", "id": 3420297427, "lat": 39.9402442, "lon": -75.1658701}, {"type": "node", "id": 3420297428, "lat": 39.9402321, "lon": -75.1657662}, {"type": "node", "id": 3420297429, "lat": 39.9400743, "lon": -75.1657974}, {"type": "node", "id": 3424828944, "lat": 39.9495398, "lon": -75.1590901}, {"type": "node", "id": 3426207833, "lat": 39.9415172, "lon": -75.1560435}, {"type": "node", "id": 3426207834, "lat": 39.9413354, "lon": -75.1560819}, {"type": "node", "id": 3426207835, "lat": 39.9413181, "lon": -75.1559428}, {"type": "node", "id": 3426207836, "lat": 39.9414999, "lon": -75.1559044}, {"type": "node", "id": 3429164421, "lat": 39.9505433, "lon": -75.1534833}, {"type": "node", "id": 3429164434, "lat": 39.9507591, "lon": -75.1534368}, {"type": "node", "id": 3429164435, "lat": 39.9507771, "lon": -75.1535791}, {"type": "node", "id": 3429164436, "lat": 39.9505613, "lon": -75.1536256}, {"type": "node", "id": 3429439376, "lat": 39.9535061, "lon": -75.156578}, {"type": "node", "id": 3429439377, "lat": 39.953209, "lon": -75.1566407}, {"type": "node", "id": 3429439379, "lat": 39.9534952, "lon": -75.1564885}, {"type": "node", "id": 3429439380, "lat": 39.9531982, "lon": -75.1565586}, {"type": "node", "id": 3429439383, "lat": 39.9533501, "lon": -75.1565235}, {"type": "node", "id": 3429439404, "lat": 39.9538739, "lon": -75.1548696}, {"type": "node", "id": 3429439405, "lat": 39.953852, "lon": -75.1547016}, {"type": "node", "id": 3429439406, "lat": 39.9539233, "lon": -75.155314}, {"type": "node", "id": 3429439407, "lat": 39.9535429, "lon": -75.1553941}, {"type": "node", "id": 3429659657, "lat": 39.9538858, "lon": -75.1549605}, {"type": "node", "id": 3429659664, "lat": 39.9539861, "lon": -75.1549382}, {"type": "node", "id": 3429660044, "lat": 39.953634, "lon": -75.156129}, {"type": "node", "id": 3429660045, "lat": 39.953843, "lon": -75.1560843}, {"type": "node", "id": 3432401162, "lat": 39.9548702, "lon": -75.1559199}, {"type": "node", "id": 3432401167, "lat": 39.9550721, "lon": -75.1558716}, {"type": "node", "id": 3432401170, "lat": 39.9551263, "lon": -75.1558609}, {"type": "node", "id": 3432401171, "lat": 39.9550783, "lon": -75.1555202}, {"type": "node", "id": 3432401172, "lat": 39.9550263, "lon": -75.1555326}, {"type": "node", "id": 3435455072, "lat": 39.9509699, "lon": -75.1705951}, {"type": "node", "id": 3435455073, "lat": 39.9510187, "lon": -75.1705837}, {"type": "node", "id": 3435455075, "lat": 39.9510605, "lon": -75.1708879}, {"type": "node", "id": 3437582097, "lat": 39.9561827, "lon": -75.1630275, "tags": {"addr:city": "Philadelphia", "addr:housenumber": "150", "addr:postcode": "19102", "addr:state": "PA", "addr:street": "North Broad Street", "atm": "yes", "brand": "7-Eleven", "brand:wikidata": "Q259340", "check_date": "2023-10-10", "fast_food": "yes", "fuel:propane": "yes", "name": "7-Eleven", "opening_hours": "24/7", "phone": "+1 215-575-0827", "ref": "34908", "shop": "convenience", "website": "https://www.7-eleven.com/locations/pa/philadelphia/150-n-broad-st-34908"}}, {"type": "node", "id": 3441501224, "lat": 39.9501406, "lon": -75.1625689}, {"type": "node", "id": 3445896926, "lat": 39.9483269, "lon": -75.1531959}, {"type": "node", "id": 3445896927, "lat": 39.9485799, "lon": -75.1531411}, {"type": "node", "id": 3445896928, "lat": 39.9483354, "lon": -75.1532625}, {"type": "node", "id": 3445896929, "lat": 39.9484101, "lon": -75.1532463}, {"type": "node", "id": 3445896930, "lat": 39.9484061, "lon": -75.1532142}, {"type": "node", "id": 3445896931, "lat": 39.9484741, "lon": -75.1531994}, {"type": "node", "id": 3445896932, "lat": 39.9484777, "lon": -75.1532281}, {"type": "node", "id": 3445896933, "lat": 39.9485879, "lon": -75.1532042}, {"type": "node", "id": 3450859688, "lat": 39.954592, "lon": -75.1542145}, {"type": "node", "id": 3450860895, "lat": 39.9546088, "lon": -75.1543588}, {"type": "node", "id": 3450860906, "lat": 39.9546481, "lon": -75.1542026}, {"type": "node", "id": 3450860911, "lat": 39.9546647, "lon": -75.1543465}, {"type": "node", "id": 3450860940, "lat": 39.9549848, "lon": -75.1541314}, {"type": "node", "id": 3450860941, "lat": 39.9550005, "lon": -75.1542729}, {"type": "node", "id": 3450860942, "lat": 39.9550409, "lon": -75.1541195}, {"type": "node", "id": 3450860943, "lat": 39.9550564, "lon": -75.1542607}, {"type": "node", "id": 3450860944, "lat": 39.955272, "lon": -75.1543926}, {"type": "node", "id": 3450860945, "lat": 39.9553047, "lon": -75.15465}, {"type": "node", "id": 3450860946, "lat": 39.9553128, "lon": -75.1547199}, {"type": "node", "id": 3450860949, "lat": 39.955327, "lon": -75.1543811}, {"type": "node", "id": 3450860953, "lat": 39.9553545, "lon": -75.1546113}, {"type": "node", "id": 3450860954, "lat": 39.9553581, "lon": -75.1546395}, {"type": "node", "id": 3450860956, "lat": 39.9553719, "lon": -75.1543719}, {"type": "node", "id": 3450860957, "lat": 39.9553744, "lon": -75.1552025}, {"type": "node", "id": 3450860958, "lat": 39.9553836, "lon": -75.15527}, {"type": "node", "id": 3450860960, "lat": 39.9553993, "lon": -75.1546021}, {"type": "node", "id": 3450860961, "lat": 39.9554027, "lon": -75.1546307}, {"type": "node", "id": 3450860963, "lat": 39.9554107, "lon": -75.1547007}, {"type": "node", "id": 3450860967, "lat": 39.9554222, "lon": -75.1543617}, {"type": "node", "id": 3450860974, "lat": 39.9554354, "lon": -75.1546958}, {"type": "node", "id": 3450860979, "lat": 39.9554489, "lon": -75.155791}, {"type": "node", "id": 3450860980, "lat": 39.9554493, "lon": -75.1546758}, {"type": "node", "id": 3450860981, "lat": 39.9554513, "lon": -75.1546927}, {"type": "node", "id": 3450860983, "lat": 39.9554531, "lon": -75.1546208}, {"type": "node", "id": 3450861094, "lat": 39.9554942, "lon": -75.154667}, {"type": "node", "id": 3450861096, "lat": 39.9554961, "lon": -75.1546123}, {"type": "node", "id": 3450861111, "lat": 39.9555345, "lon": -75.1546048}, {"type": "node", "id": 3450861115, "lat": 39.9555406, "lon": -75.1546578}, {"type": "node", "id": 3450861138, "lat": 39.9555999, "lon": -75.1552245}, {"type": "node", "id": 3450861150, "lat": 39.9556207, "lon": -75.1551509}, {"type": "node", "id": 3450861156, "lat": 39.9556282, "lon": -75.1552186}, {"type": "node", "id": 3450861163, "lat": 39.9556473, "lon": -75.1557479}, {"type": "node", "id": 3454064542, "lat": 39.9517789, "lon": -75.1600409, "tags": {"addr:city": "Philadelphia", "addr:housenumber": "1200", "addr:postcode": "19107", "addr:street": "Market Street", "amenity": "restaurant", "check_date": "2025-06-27", "check_date:opening_hours": "2025-06-27", "contact:phone": "+1 215-231-7300", "contact:website": "https://www.bankandbourbon.com", "name": "Bank & Bourbon", "opening_hours": "Mo-Fr 07:00-11:30, Sa,Su 07:00-13:00, Mo-Fr 12:00-14:00, Mo-Su 17:00-22:00, Mo-Fr 04:00-24:00, Sa 10:00-02:00, Su 10:00-24:00"}}, {"type": "node", "id": 3460473842, "lat": 39.9535547, "lon": -75.1554891}, {"type": "node", "id": 3460473846, "lat": 39.9536415, "lon": -75.1561887}, {"type": "node", "id": 3460473853, "lat": 39.9538507, "lon": -75.1561438}, {"type": "node", "id": 3460473857, "lat": 39.9539189, "lon": -75.1554124}, {"type": "node", "id": 3460473860, "lat": 39.953935, "lon": -75.155409}, {"type": "node", "id": 3460473862, "lat": 39.9539523, "lon": -75.1546793}, {"type": "node", "id": 3460473886, "lat": 39.9541164, "lon": -75.1557302}, {"type": "node", "id": 3460473890, "lat": 39.9541265, "lon": -75.155807}, {"type": "node", "id": 3460473892, "lat": 39.9541366, "lon": -75.1558048}, {"type": "node", "id": 3460473895, "lat": 39.9541429, "lon": -75.1559366}, {"type": "node", "id": 3460473897, "lat": 39.9541536, "lon": -75.1559342}, {"type": "node", "id": 3460473898, "lat": 39.9541605, "lon": -75.1557204}, {"type": "node", "id": 3460473899, "lat": 39.9541612, "lon": -75.156076}, {"type": "node", "id": 3460473904, "lat": 39.9542059, "lon": -75.156066}, {"type": "node", "id": 3460473912, "lat": 39.9542304, "lon": -75.1565651}, {"type": "node", "id": 3460473926, "lat": 39.9543068, "lon": -75.1556975}, {"type": "node", "id": 3460473927, "lat": 39.9543126, "lon": -75.1557417}, {"type": "node", "id": 3460473931, "lat": 39.9543289, "lon": -75.1562206}, {"type": "node", "id": 3460473932, "lat": 39.9543364, "lon": -75.1557363}, {"type": "node", "id": 3460473934, "lat": 39.9543416, "lon": -75.156328}, {"type": "node", "id": 3460473937, "lat": 39.954354, "lon": -75.156433}, {"type": "node", "id": 3460473939, "lat": 39.9543664, "lon": -75.1565378}, {"type": "node", "id": 3460473941, "lat": 39.9543748, "lon": -75.1560282}, {"type": "node", "id": 3460473942, "lat": 39.9543774, "lon": -75.1556815}, {"type": "node", "id": 3460473943, "lat": 39.9544216, "lon": -75.1560189}, {"type": "node", "id": 3460931547, "lat": 39.9412945, "lon": -75.1524196}, {"type": "node", "id": 3466899710, "lat": 39.949504, "lon": -75.1536209}, {"type": "node", "id": 3472456199, "lat": 39.9495132, "lon": -75.1536939}, {"type": "node", "id": 3483213549, "lat": 39.9486937, "lon": -75.1741395}, {"type": "node", "id": 3483213550, "lat": 39.9485922, "lon": -75.174159}, {"type": "node", "id": 3483213551, "lat": 39.9485613, "lon": -75.1738858}, {"type": "node", "id": 3483213552, "lat": 39.948629, "lon": -75.1738727}, {"type": "node", "id": 3483213553, "lat": 39.9486412, "lon": -75.1739802}, {"type": "node", "id": 3483213554, "lat": 39.948654, "lon": -75.1739777}, {"type": "node", "id": 3483213555, "lat": 39.9486467, "lon": -75.173914}, {"type": "node", "id": 3483213556, "lat": 39.9486677, "lon": -75.17391}, {"type": "node", "id": 3485250867, "lat": 39.9525288, "lon": -75.1667166, "tags": {"addr:city": "Philadelphia", "addr:housenumber": "1500", "addr:postcode": "19102", "addr:state": "PA", "addr:street": "Market Street", "amenity": "cafe", "branch": "16th & Market", "brand": "Starbucks", "brand:wikidata": "Q37158", "check_date": "2023-10-15", "cuisine": "coffee_shop", "name": "Starbucks", "official_name": "Starbucks Coffee", "opening_hours": "Mo-Fr 06:00-18:00; Sa 07:00-17:00; Su 06:30-15:30", "phone": "+1 215-561-3699", "ref": "17702", "takeaway": "yes", "website": "https://www.starbucks.com/store-locator/store/17702/16th-market-1500-market-street-suite-465-philadelphia-pa-19102"}}, {"type": "node", "id": 3488810599, "lat": 39.949676, "lon": -75.1590277}, {"type": "node", "id": 3488810600, "lat": 39.9496803, "lon": -75.1590591}, {"type": "node", "id": 3488810601, "lat": 39.9496514, "lon": -75.1588467}, {"type": "node", "id": 3488810602, "lat": 39.949512, "lon": -75.1588788}, {"type": "node", "id": 3488901469, "lat": 39.9493892, "lon": -75.1536455}, {"type": "node", "id": 3488901470, "lat": 39.9493984, "lon": -75.1537185}, {"type": "node", "id": 3497025941, "lat": 39.9507473, "lon": -75.169711, "tags": {"addr:city": "Philadelphia", "addr:housenumber": "1722", "addr:postcode": "19103", "addr:street": "Sansom Street", "amenity": "cafe", "name": "La Creperie Cafe"}}, {"type": "node", "id": 3499206798, "lat": 39.9489002, "lon": -75.1599819}, {"type": "node", "id": 3499206799, "lat": 39.9490174, "lon": -75.1599564}, {"type": "node", "id": 3499206802, "lat": 39.9491724, "lon": -75.1599214}, {"type": "node", "id": 3499206803, "lat": 39.9492473, "lon": -75.1599051}, {"type": "node", "id": 3499206804, "lat": 39.9488898, "lon": -75.1599032}, {"type": "node", "id": 3499206805, "lat": 39.9492362, "lon": -75.159826}, {"type": "node", "id": 3499206806, "lat": 39.94917, "lon": -75.1599026}, {"type": "node", "id": 3499206807, "lat": 39.9490148, "lon": -75.1599364}, {"type": "node", "id": 3509457147, "lat": 39.9487774, "lon": -75.1741191}, {"type": "node", "id": 3518601735, "lat": 39.9542338, "lon": -75.1565979}, {"type": "node", "id": 3518601736, "lat": 39.9542909, "lon": -75.1565861}, {"type": "node", "id": 3518601737, "lat": 39.9542939, "lon": -75.1566104}, {"type": "node", "id": 3518601738, "lat": 39.9544761, "lon": -75.1565726}, {"type": "node", "id": 3518601739, "lat": 39.9544304, "lon": -75.1562002}, {"type": "node", "id": 3518601790, "lat": 39.9548431, "lon": -75.15571}, {"type": "node", "id": 3518601791, "lat": 39.9551271, "lon": -75.1558722}, {"type": "node", "id": 3518601792, "lat": 39.9552915, "lon": -75.1558345}, {"type": "node", "id": 3518602093, "lat": 39.9552973, "lon": -75.155839}, {"type": "node", "id": 3518602094, "lat": 39.9553021, "lon": -75.1558422}, {"type": "node", "id": 3518602095, "lat": 39.9553089, "lon": -75.1558422}, {"type": "node", "id": 3518602096, "lat": 39.9553145, "lon": -75.1558396}, {"type": "node", "id": 3518602097, "lat": 39.9553209, "lon": -75.1558349}, {"type": "node", "id": 3518602098, "lat": 39.9553241, "lon": -75.1558249}, {"type": "node", "id": 3518602099, "lat": 39.9553241, "lon": -75.1558129}, {"type": "node", "id": 3518602100, "lat": 39.9553221, "lon": -75.1558088}, {"type": "node", "id": 3518602101, "lat": 39.9553173, "lon": -75.1558046}, {"type": "node", "id": 3518602102, "lat": 39.9553137, "lon": -75.155802}, {"type": "node", "id": 3518602103, "lat": 39.9553067, "lon": -75.1557619}, {"type": "node", "id": 3518602104, "lat": 39.9551176, "lon": -75.1558051}, {"type": "node", "id": 3518602106, "lat": 39.9551104, "lon": -75.1557516}, {"type": "node", "id": 3518602108, "lat": 39.9551009, "lon": -75.1556838}, {"type": "node", "id": 3520099609, "lat": 39.9565475, "lon": -75.1559353}, {"type": "node", "id": 3520099610, "lat": 39.9565216, "lon": -75.1557403}, {"type": "node", "id": 3522399707, "lat": 39.9512998, "lon": -75.1665787, "tags": {"addr:city": "Philadelphia", "addr:housenumber": "1527", "addr:postcode": "19102", "addr:state": "PA", "addr:street": "Chestnut Street", "amenity": "fast_food", "branch": "Chestnut St.", "brand": "Five Guys", "brand:wikidata": "Q1131810", "check_date": "2023-10-08", "cuisine": "burger", "name": "Five Guys", "official_name": "Five Guys Burgers and Fries", "opening_hours": "11:00-21:00", "phone": "+1 215-972-1375", "takeaway": "yes", "website": "https://restaurants.fiveguys.com/1527-chestnut-st"}}, {"type": "node", "id": 3524777069, "lat": 39.9534766, "lon": -75.1682079, "tags": {"addr:city": "Philadelphia", "addr:housenumber": "1635", "addr:postcode": "19103", "addr:street": "Market Street", "addr:unit": "103", "amenity": "fast_food", "check_date": "2023-10-09", "contact:instagram": "https://www.instagram.com/qujapan_phl", "name": "Qu Japan Bistro & Bar", "opening_hours": "Mo-Th 11:30-21:30; Fr 11:30-22:00; Sa 13:00-22:00", "phone": "+1 267-362-9999; +1 267-239-0828", "takeaway": "yes", "website": "https://www.qujapan1635.com"}}, {"type": "node", "id": 3529171171, "lat": 39.9499718, "lon": -75.1624278, "tags": {"addr:city": "Philadelphia", "addr:housenumber": "1311", "addr:postcode": "19107", "addr:street": "Sansom Street", "amenity": "restaurant", "check_date": "2023-10-12", "contact:instagram": "https://www.instagram.com/dbgphilly", "cuisine": "burger", "name": "DBG", "opening_hours": "Mo-Tu off, We-Fr 16:00-26:00, Sa-Su 12:00-26:00", "phone": "+1 215-545-0170", "website": "https://dbgphilly.com"}}, {"type": "node", "id": 3529171172, "lat": 39.9500002, "lon": -75.162644, "tags": {"addr:housenumber": "1315", "addr:street": "Sansom Street", "amenity": "restaurant", "name": "Time"}}, {"type": "node", "id": 3529171337, "lat": 39.9491182, "lon": -75.1632279, "tags": {"addr:city": "Philadelphia", "addr:housenumber": "1324", "addr:postcode": "19107", "addr:state": "PA", "addr:street": "Walnut Street", "alt_name": "Dunkin' Donuts", "amenity": "fast_food", "brand": "Dunkin'", "brand:wikidata": "Q847743", "check_date": "2023-10-16", "cuisine": "donut;coffee_shop", "drive_through": "no", "name": "Dunkin'", "opening_hours": "Mo-Fr 05:30-19:00; Sa 06:00-17:00; Su off", "phone": "+1 215-732-1853", "ref": "310391", "takeaway": "yes", "website": "https://locations.dunkindonuts.com/en/pa/philadelphia/1324-walnut-street/310391"}}, {"type": "node", "id": 3529346615, "lat": 39.9565995, "lon": -75.1559237}, {"type": "node", "id": 3529346616, "lat": 39.9565732, "lon": -75.1557286}, {"type": "node", "id": 3531082345, "lat": 39.9494024, "lon": -75.1667152, "tags": {"addr:city": "Philadelphia", "addr:housenumber": "207", "addr:postcode": "19102", "addr:street": "South Sydenham Street", "amenity": "cafe", "contact:facebook": "ElixrCoffee", "contact:instagram": "elixrcoffee", "cuisine": "coffee_shop", "internet_access": "wlan", "name": "Elixr Coffee Roasters", "opening_hours": "Mo-Su 07:00-19:00", "power_supply": "yes", "website": "https://elixrcoffee.com/", "website:menu": "https://www.elixrpickup.com/?location=11ea67b9aa07e0cca76c0cc47a2b1e8c"}}, {"type": "node", "id": 3532578442, "lat": 39.9483204, "lon": -75.1624047, "tags": {"addr:housenumber": "1301", "addr:street": "Locust Street", "amenity": "restaurant", "check_date": "2023-04-11", "contact:phone": "+1 267-861-0314", "contact:website": "https://greeneggscafe.com", "name": "Green Eggs Cafe", "opening_hours": "Mo-Fr 09:00-15:00; Sa-Su 09:00-16:00", "ref": "Midtown Village"}}, {"type": "node", "id": 3540215756, "lat": 39.9488915, "lon": -75.1740961}, {"type": "node", "id": 3540215757, "lat": 39.948882, "lon": -75.1740176}, {"type": "node", "id": 3540215758, "lat": 39.9487684, "lon": -75.174041}, {"type": "node", "id": 3540604458, "lat": 39.9496501, "lon": -75.167432, "tags": {"addr:city": "Philadelphia", "addr:housenumber": "1528", "addr:postcode": "19102", "addr:state": "PA", "addr:street": "Walnut Street", "amenity": "cafe", "branch": "16th & Walnut", "brand": "Starbucks", "brand:wikidata": "Q37158", "check_date": "2023-10-15", "cuisine": "coffee_shop", "name": "Starbucks", "official_name": "Starbucks Coffee", "opening_hours": "Mo-Fr 05:00-20:00; Sa-Su 06:00-20:00", "phone": "+1 215-732-0708", "takeaway": "yes", "website": "https://www.starbucks.com/store-locator/store/15881"}}, {"type": "node", "id": 3545078824, "lat": 39.9501513, "lon": -75.1659493, "tags": {"addr:city": "Philadelphia", "addr:housenumber": "124", "addr:postcode": "19102", "addr:street": "South 15th Street", "amenity": "restaurant", "check_date": "2025-06-27", "check_date:opening_hours": "2025-06-27", "contact:instagram": "https://www.instagram.com/oceanprimephilly", "name": "Ocean Prime", "opening_hours": "Mo-Th,Su 16:00-21:00; Fr-Sa 16:00-22:00", "phone": "+1 215-563-0163", "website": "https://www.ocean-prime.com/locations-menus/philadelphia"}}, {"type": "node", "id": 3548494994, "lat": 39.9484091, "lon": -75.1653065, "tags": {"addr:housenumber": "1405", "addr:street": "Locust Street", "amenity": "restaurant", "check_date": "2023-04-11", "contact:facebook": "https://www.facebook.com/EstiaRestaurant", "contact:phone": "+1 215-735-7700", "contact:website": "https://estiarestaurant.com/philadelphia-pa/philadelphia-pa.asp", "cuisine": "greek", "name": "Estia", "opening_hours": "Mo-Th,Sa 15:00-20:30 \"(last seating)\"; Fr-Sa 15:00-21:30 \"(last seating)\""}}, {"type": "node", "id": 3548911780, "lat": 39.9501147, "lon": -75.1588484, "tags": {"addr:city": "Philadelphia", "addr:housenumber": "1102", "addr:postcode": "19107", "addr:street": "Chestnut Street", "amenity": "restaurant", "check_date": "2023-04-12", "contact:facebook": "https://www.facebook.com/HiroRamen", "contact:website": "http://hiroramenhouse.com", "cuisine": "ramen", "name": "Hiro Ramen", "opening_hours": "Mo-Sa 12:00-18:00; Su off"}}, {"type": "node", "id": 3548911781, "lat": 39.9497363, "lon": -75.1604902, "tags": {"addr:city": "Philadelphia", "addr:housenumber": "118", "addr:postcode": "19107", "addr:street": "South 12th Street", "amenity": "pub", "check_date": "2023-04-12", "contact:phone": "+1 215-923-3090", "contact:website": "https://www.finnmccoolsphilly.com", "name": "Finn McCools Ale House"}}, {"type": "node", "id": 3548911782, "lat": 39.9498213, "lon": -75.1602317, "tags": {"addr:city": "Philadelphia", "addr:housenumber": "117", "addr:postcode": "19107", "addr:street": "South 12th Street", "amenity": "restaurant", "name": "Kitchenette"}}, {"type": "node", "id": 3548911783, "lat": 39.9505325, "lon": -75.1603164, "tags": {"addr:city": "Philadelphia", "addr:housenumber": "1201", "addr:postcode": "19107", "addr:state": "PA", "addr:street": "Chestnut Street", "atm": "yes", "brand": "7-Eleven", "brand:wikidata": "Q259340", "delivery": "yes", "fast_food": "yes", "fuel:propane": "yes", "name": "7-Eleven", "phone": "+1 215-564-6003", "ref": "33305", "shop": "convenience", "website": "https://www.7-eleven.com/locations/pa/philadelphia/1201-chestnut-street-33305"}}, {"type": "node", "id": 3554597075, "lat": 39.9556376, "lon": -75.1556719}, {"type": "node", "id": 3554597076, "lat": 39.9554392, "lon": -75.155715}, {"type": "node", "id": 3554597112, "lat": 39.9539283, "lon": -75.155354}, {"type": "node", "id": 3573041119, "lat": 39.9562945, "lon": -75.1542048, "tags": {"addr:city": "Philadelphia", "addr:housenumber": "234", "addr:postcode": "19107", "addr:street": "North 9th Street", "amenity": "restaurant", "check_date": "2023-10-11", "cuisine": "chinese", "name": "Ocean City Restaurant", "name:zh": "\u6771\u65b9\u660e\u73e0\u9152\u5bb6", "opening_hours": "Mo-Th 10:30-22:00; Fr 10:30-22:30; Sa 10:00-22:30; Su 10:00-22:00", "phone": "+1-215-829-0688", "website": "https://www.oceancityrestaurantphilly.com"}}, {"type": "node", "id": 3799448712, "lat": 39.9548649, "lon": -75.167898, "tags": {"amenity": "cafe", "cuisine": "coffee_shop", "name": "Green Line Cafe", "website": "https://greenlinecafe.com/"}}, {"type": "node", "id": 4055253177, "lat": 39.9514573, "lon": -75.1694699, "tags": {"addr:city": "Philadelphia", "addr:housenumber": "1716", "addr:postcode": "19103", "addr:state": "PA", "addr:street": "Chestnut Street", "amenity": "restaurant", "check_date": "2025-07-20", "contact:website": "https://grancaffelaquila.com", "cuisine": "italian", "delivery": "no", "internet_access": "wlan", "name": "Gran Caffe L'Aquila", "opening_hours": "Mo-Th 07:00-23:00; Fr 07:00-24:00; Sa 08:00-24:00; Su 08:00-23:00", "phone": "+1 215 568 5600"}}, {"type": "node", "id": 4140719306, "lat": 39.9503121, "lon": -75.1653423, "tags": {"amenity": "restaurant", "name": "Jazz"}}, {"type": "node", "id": 4236656391, "lat": 39.9479023, "lon": -75.1613868, "tags": {"addr:city": "Philadelphia", "addr:housenumber": "1221", "addr:state": "PA", "addr:street": "Locust Street", "amenity": "restaurant", "cuisine": "fine_dining", "diet:vegan": "only", "name": "Vedge", "phone": "+1 215 3207500", "smoking": "no", "website": "https://www.vedgerestaurant.com/", "wikidata": "Q61968737"}}, {"type": "node", "id": 4236713604, "lat": 39.9509517, "lon": -75.1722659, "tags": {"addr:city": "Philadelphia", "addr:housenumber": "126", "addr:state": "PA", "addr:street": "South 19th Street", "amenity": "restaurant", "cuisine": "european", "diet:vegetarian": "yes", "name": "Restaurant Aleksandar", "opening_hours": "Tu-Th 17:00-21:00, Fr,Sa 17:00-22:00, Sa,Su 11:00-15:00", "smoking": "no", "website": "https://www.restaurantaleksandar.com/"}}, {"type": "node", "id": 4271027594, "lat": 39.9495876, "lon": -75.1604344, "tags": {"addr:housenumber": "122", "addr:street": "South 12th Street", "amenity": "restaurant", "check_date": "2023-04-12", "contact:facebook": "https://www.facebook.com/hatchandcoopphilly", "contact:phone": "+1 215-922-0102", "contact:website": "https://www.hatchandcoop.com", "cuisine": "american", "email": "hello@hatchandcoop.com", "name": "Hatch & Coop", "opening_hours": "24/7"}}, {"type": "node", "id": 4514675789, "lat": 39.950618, "lon": -75.1704475, "tags": {"addr:city": "Philadelphia", "addr:housenumber": "133", "addr:postcode": "19103", "addr:state": "PA", "addr:street": "South 18th Street", "air_conditioning": "yes", "amenity": "restaurant", "bar": "yes", "contact:facebook": "https://www.facebook.com/pages/Bar-Bomb%C3%B3n/785784264867528", "contact:instagram": "https://instagram.com/barbombon", "contact:twitter": "https://twitter.com/BarBombon", "cuisine": "puerto_rican", "description": "Snug spot serving vegan arepas, tacos & empanadas, plus a take-out window for java, juices & more.", "diet:vegan": "only", "diet:vegetarian": "yes", "email": "info@barbombon.com", "name": "Bar Bombon", "opening_hours": "Mo-Tu 17:00-21:00; We 17:00-22:00; Thu-Fr 11:30-22:00; Sa 11:00-22:00; Su 11:00-21:00", "phone": "+1-267-606-6612", "website": "https://barbombon.com/", "website:menu": "https://barbombon.com/wp-content/uploads/2024/11/BBB-24-DINNER-MENU.pdf", "website:orders": "https://www.toasttab.com/barbombon", "website:reservation": "https://www.opentable.com/r/bar-bombon-reservations-philadelphia?restref=170422&lang=en-US&ot_source=Restaurant%20website"}}, {"type": "node", "id": 4542120004, "lat": 39.9504294, "lon": -75.1672599, "tags": {"addr:housenumber": "121", "addr:postcode": "19102", "addr:street": "South 16th Street", "amenity": "restaurant", "check_date": "2023-10-08", "internet_access": "wlan", "name": "Marathon - 16th & Sansom", "name:en": "Marathon", "opening_hours": "Mo-Th,Su 11:00-21:00; Fr-Sa 11:00-22:00", "phone": "+1-215-569-3278", "website": "https://www.eatmarathon.com"}}, {"type": "node", "id": 4790082821, "lat": 39.9493994, "lon": -75.16841, "tags": {"addr:housenumber": "1615", "addr:street": "Chancellor Street", "amenity": "restaurant", "check_date": "2023-04-11", "contact:facebook": "https://www.facebook.com/PizzeriaVetri", "contact:phone": "+1 215-763-3760", "contact:website": "http://www.pizzeriavetri.com/location/rittenhouse-square/", "name": "Pizzeria Vetri", "opening_hours": "Mo-Th,Su 11:30-21:00; Fr-Sa 11:30-22:00"}}, {"type": "node", "id": 4803887568, "lat": 39.9537042, "lon": -75.1669846, "tags": {"addr:city": "Philadelphia", "addr:housenumber": "1700", "addr:postcode": "19103", "addr:state": "PA", "addr:street": "John F. Kennedy Boulevard", "alt_name": "Dunkin' Donuts", "amenity": "fast_food", "brand": "Dunkin'", "brand:wikidata": "Q847743", "check_date": "2024-08-10", "cuisine": "donut;coffee_shop", "drive_through": "no", "name": "Dunkin'", "opening_hours": "Mo-Fr 05:00-21:00; Sa-Su 06:00-19:00", "payment:cash": "yes", "payment:contactless": "yes", "payment:credit_cards": "yes", "payment:debit_cards": "yes", "phone": "+1 215-751-1602", "ref": "352238", "takeaway": "yes", "website": "https://locations.dunkindonuts.com/en/pa/philadelphia/1600-john-f-kennedy-blvd/352238", "wheelchair": "limited"}}, {"type": "node", "id": 4880698721, "lat": 39.9495012, "lon": -75.152127, "tags": {"addr:postcode": "19106", "amenity": "restaurant", "cuisine": "italian", "email": "Eat@lascalasphilly.com", "internet_access": "wlan", "name": "LaScala's", "name:en": "LaScala's", "opening_hours": "Mo-Th 11:00-22:00; Fr-Sa 11:00-23:00; Su 11:00-21:00", "phone": "+1 215 928 09 00", "website": "http://lascalasphilly.com/"}}, {"type": "node", "id": 4884521621, "lat": 39.9485693, "lon": -75.1591721, "tags": {"addr:city": "Philadelphia", "addr:housenumber": "1100", "addr:postcode": "19107", "addr:state": "PA", "addr:street": "Walnut Street", "alt_name": "Dunkin' Donuts", "amenity": "fast_food", "brand": "Dunkin'", "brand:wikidata": "Q847743", "check_date": "2023-04-13", "cuisine": "donut;coffee_shop", "drive_through": "no", "name": "Dunkin'", "opening_hours": "Mo-Fr 05:30-19:00; Sa-Su 06:00-15:00", "phone": "+1 215-925-1919", "ref": "348933", "takeaway": "yes", "website": "https://locations.dunkindonuts.com/en/pa/philadelphia/1100-walnut-st/348933"}}, {"type": "node", "id": 5172104653, "lat": 39.9530129, "lon": -75.1701856, "tags": {"addr:city": "Philadelphia", "addr:housenumber": "1800", "addr:postcode": "19103", "addr:state": "PA", "addr:street": "Market Street", "amenity": "restaurant", "brand": "Ruth's Chris Steak House", "brand:wikidata": "Q7382829", "check_date": "2023-10-09", "cuisine": "american", "name": "Ruth's Chris Steak House", "opening_hours": "Mo-Th 11:30-15:00,16:00-21:00; Fr 11:30-15:00,16:00-22:00; Sa 16:00-22:00; Su 16:00-21:00", "phone": "+1 215-790-1515", "website": "https://ruthschris.com/philadelphia"}}, {"type": "node", "id": 5413260221, "lat": 39.9412051, "lon": -75.1524413}, {"type": "node", "id": 5437614421, "lat": 39.9497016, "lon": -75.161896, "tags": {"addr:housenumber": "121", "addr:postcode": "19107", "addr:street": "South 13th Street", "amenity": "restaurant", "check_date": "2023-10-12", "contact:instagram": "https://www.instagram.com/elvezphilly", "name": "El Vez", "opening_hours": "Mo-Th 11:30-22:00; Fr 11:30-24:00; Sa 11:30-15:00,16:00-24:00; Su 11:30-15:00,16:00-22:00", "phone": "+1 215-928-9800", "website": "https://elvezrestaurant.com"}}, {"type": "node", "id": 5486477421, "lat": 39.9505906, "lon": -75.1507679, "tags": {"amenity": "cafe", "brand": "La Colombe Coffee Roasters", "brand:wikidata": "Q23461663", "check_date": "2023-02-19", "cuisine": "coffee_shop", "name": "La Colombe Coffee Roasters", "outdoor_seating": "yes", "short_name": "La Colombe", "takeaway": "yes", "toilets": "yes"}}, {"type": "node", "id": 5595413962, "lat": 39.9495249, "lon": -75.1618901, "tags": {"addr:city": "Philadelphia", "addr:housenumber": "131", "addr:postcode": "19107", "addr:state": "PA", "addr:street": "South 13th Street", "amenity": "restaurant", "check_date": "2023-10-12", "description": "High-end vegan bar with small plates, open late.", "diet:vegan": "yes", "name": "Charlie Was a Sinner", "opening_hours": "Mo-Th,Su 16:00-23:00 \"kitchen closes at 10pm\", Fr-Sa 16:00-24:00 \"kitchen closes at 11pm\"", "phone": "+1 267-758-5372", "website": "https://charliewasasinner.com/"}}, {"type": "node", "id": 5595440227, "lat": 39.9422809, "lon": -75.1552152, "tags": {"addr:city": "Philadelphia", "addr:housenumber": "742", "addr:postcode": "19147", "addr:state": "PA", "addr:street": "South Street", "amenity": "restaurant", "check_date:opening_hours": "2021-03-22", "cuisine": "asian;chinese;bubble_tea", "diet:vegan": "only", "diet:vegetarian": "yes", "name": "Vegan Tree", "opening_hours": "We-Mo 11:00-20:00", "outdoor_seating": "no", "phone": "+1-215-454-2898", "smoking": "no", "takeaway": "yes"}}, {"type": "node", "id": 5595443764, "lat": 39.9502614, "lon": -75.1638109, "tags": {"addr:city": "Philadelphia", "addr:housenumber": "121", "addr:postcode": "19107", "addr:state": "PA", "addr:street": "South Broad Street", "amenity": "restaurant", "cuisine": "american;fast_food", "description": "Vegan fast food.", "diet:vegan": "only", "diet:vegetarian": "yes", "name": "HipCityVeg"}}, {"type": "node", "id": 5595446575, "lat": 39.9487788, "lon": -75.1697905, "tags": {"addr:city": "Philadelphia", "addr:housenumber": "1706", "addr:postcode": "19103", "addr:state": "PA", "addr:street": "Locust Street", "amenity": "restaurant", "check_date": "2025-06-27", "cuisine": "bakery;smoothie;juice", "description": "Rustic vegan bakery and cafe with a quiet, sophisticated vibe.", "diet:vegan": "only", "name": "P.S. and Co", "opening_hours": "09:00-20:00 || \"these are typical, but hours may vary\"", "phone": "+1 215-985-1706"}}, {"type": "node", "id": 5595449225, "lat": 39.9503602, "lon": -75.1668521, "tags": {"addr:city": "Philadelphia", "addr:housenumber": "1526", "addr:postcode": "19102", "addr:state": "PA", "addr:street": "Sansom Street", "amenity": "cafe", "branch": "Rittenhouse", "brand": "Bagels & Co.", "check_date": "2025-02-23", "check_date:opening_hours": "2025-02-23", "cuisine": "coffee_shop", "name": "Bagels & Co.", "opening_hours": "07:00-15:00", "opening_hours:signed": "no", "outdoor_seating": "no", "phone": "+1 215-964-9974", "website": "https://www.thebagelsandco.com/location/bagels-and-co-rittenhouse"}}, {"type": "node", "id": 5595478221, "lat": 39.9507673, "lon": -75.1704223, "tags": {"addr:city": "Philadelphia", "addr:housenumber": "127", "addr:postcode": "19103", "addr:state": "PA", "addr:street": "South 18th Street", "amenity": "restaurant", "cuisine": "american;sandwich;cheesesteak", "description": "Healthful dine-in or take-out vegan food & smoothies served in a small, industrial-looking space.", "diet:vegan": "yes", "diet:vegetarian": "yes", "name": "HipCityVeg", "opening_hours": "Mo-Su 10:30-22:00", "phone": "+1 215-278-7605", "website": "https://hipcityveg.com/"}}, {"type": "node", "id": 5605114326, "lat": 39.9436822, "lon": -75.1664502, "tags": {"addr:city": "Philadelphia", "addr:housenumber": "1424", "addr:postcode": "19146", "addr:state": "PA", "addr:street": "South Street", "amenity": "restaurant", "cuisine": "bakery;dessert", "description": "Bakery offering cupcakes, muffins, cake, cookies, bars, donuts, and other desserts. All items are vegan gluten-free.", "diet:vegan": "only", "diet:vegetarian": "only", "name": "Sweet Freedom Bakery", "opening_hours": "Tu-Sa 10:00-19:00; Su 10:00-16:00", "phone": "+1 215-545-1899", "website": "https://www.sweetfreedombakery.com/"}}, {"type": "node", "id": 5605233860, "lat": 39.9503026, "lon": -75.1663275, "tags": {"addr:city": "Philadelphia", "addr:housenumber": "1508", "addr:postcode": "19102", "addr:state": "PA", "addr:street": "Sansom Street", "amenity": "restaurant", "cuisine": "chinese;sichuan", "diet:vegan": "yes", "diet:vegetarian": "yes", "name": "Chengdu Center City", "opening_hours": "Mo-Fr 11:00-21:30; Sa-Su 11:30-22:00", "phone": "+1 215 564 2949", "was:name": "Su Xing House", "website": "https://suxinghouserestaurant.com/"}}, {"type": "node", "id": 5636054821, "lat": 39.9518174, "lon": -75.1704471, "tags": {"addr:city": "Philadelphia", "addr:housenumber": "1801", "addr:postcode": "19103", "addr:state": "PA", "addr:street": "Chestnut Street", "amenity": "restaurant", "check_date": "2023-10-09", "contact:instagram": "continental_midtown", "cuisine": "american", "happy_hours": "Mo-Fr 16:00-18:00", "name": "The Continental Mid-Town", "opening_hours:brunch": "Sa-Su 10:00-15:00", "opening_hours:dinner": "Mo-Th 16:00-22:00; Fr-Sa 16:00-23:00; Su 16:00-22:00", "opening_hours:lunch": "Mo-Fr 11:30-15:00", "phone": "+1 215-567-1800", "website": "https://continentalmidtown.com"}}, {"type": "node", "id": 5761714315, "lat": 39.9488087, "lon": -75.1606774, "tags": {"addr:city": "Philadelphia", "addr:housenumber": "1200", "addr:postcode": "19107", "addr:state": "PA", "addr:street": "Walnut Street", "addr:unit": "Suite B", "amenity": "fast_food", "brand": "Chipotle", "brand:wikidata": "Q465751", "check_date": "2023-10-12", "cuisine": "mexican", "name": "Chipotle", "official_name": "Chipotle Mexican Grill", "opening_hours": "Mo-Su 10:45-22:00", "phone": "+1 267-535-5483", "takeaway": "yes", "website": "https://locations.chipotle.com/pa/philadelphia/1200-walnut-st"}}, {"type": "node", "id": 5796170555, "lat": 39.9507567, "lon": -75.172263, "tags": {"addr:housenumber": "130", "addr:street": "South 19th Street", "amenity": "cafe", "brand": "La Colombe Coffee Roasters", "brand:wikidata": "Q23461663", "check_date": "2025-06-27", "check_date:opening_hours": "2025-06-27", "contact:phone": "+1 215-563-0860", "contact:website": "https://www.lacolombe.com/pages/cafes", "cuisine": "coffee_shop", "name": "La Colombe Coffee Roasters", "opening_hours": "Mo-Fr 07:00-19:00; Sa,Su 08:00-19:00", "short_name": "La Colombe", "takeaway": "yes"}}, {"type": "node", "id": 5885155785, "lat": 39.9516239, "lon": -75.1651589, "tags": {"addr:city": "Philadelphia", "addr:housenumber": "1414", "addr:postcode": "19102", "addr:state": "PA", "addr:street": "South Penn Square", "amenity": "cafe", "check_date": "2023-10-08", "name": "Waterfront Gourmet Cafe & Deli", "opening_hours": "Mo-Fr 08:00-18:00; Sa-Su off", "phone": "+1 267-758-2383", "website": "https://dilworthplaza.waterfrontgourmet.com"}}, {"type": "node", "id": 5955006785, "lat": 39.942934, "lon": -75.1587786, "tags": {"addr:city": "Philadelphia", "addr:housenumber": "1001", "addr:postcode": "19147", "addr:state": "PA", "addr:street": "South Street", "brand": "Acme", "brand:wikidata": "Q341975", "name": "Acme", "opening_hours": "Mo-Su 07:00-22:00", "phone": "+1 215-238-1108", "shop": "supermarket", "website": "https://local.acmemarkets.com/pa/philadelphia/1001-south-st.html"}}, {"type": "node", "id": 6100284400, "lat": 39.9532639, "lon": -75.1594341, "tags": {"addr:city": "Philadelphia", "addr:housenumber": "51", "addr:postcode": "19107", "addr:state": "PA", "addr:street": "North 12th Street", "air_conditioning": "yes", "amenity": "restaurant", "contact:instagram": "https://www.instagram.com/luhvfood/", "cuisine": "sandwich;deli", "diet:vegan": "only", "email": "Hello@luhvfood.com", "name": "LUHV Vegan Deli", "opening_hours": "Mo-Su 08:00-18:00", "payment:apple_pay": "yes", "payment:cards": "yes", "payment:cash": "yes", "payment:contactless": "yes", "phone": "+1-267-758-5779", "website": "https://deli.luhvfood.com/", "website:orders": "https://deli.luhvfood.com/s/order?location=11ea365ddac7c040b0c80cc47a2ae378#56"}}, {"type": "node", "id": 6217483362, "lat": 39.9474605, "lon": -75.1593556, "tags": {"addr:city": "Philadelphia", "addr:housenumber": "234", "addr:state": "PA", "addr:street": "South 11th Street", "amenity": "cafe", "cuisine": "coffee_shop", "internet_access": "yes", "internet_access:fee": "no", "name": "Saxby's Coffee", "opening_hours": "Mo-Fr 06:00-20:00, Sa-Su 07:00-20:00", "outdoor_seating": "no", "smoking": "no", "website": "https://www.saxbyscoffee.com/"}}, {"type": "node", "id": 6221547185, "lat": 39.9494459, "lon": -75.1656902, "tags": {"addr:city": "Philadelphia", "addr:housenumber": "1430", "addr:postcode": "19102", "addr:street": "Walnut Street", "alt_name": "Cheesecake Factory", "amenity": "restaurant", "brand": "The Cheesecake Factory", "brand:wikidata": "Q1045842", "check_date": "2023-10-15", "cuisine": "american", "name": "The Cheesecake Factory", "name:ca": "Cheesecake factory", "opening_hours": "Mo-Th 11:30-22:00; Fr 11:30-23:00; Sa 11:00-23:00; Su 10:00-22:00", "phone": "+1 267-457-2203", "website": "https://locations.thecheesecakefactory.com/pa/philadelphia-181.html"}}, {"type": "node", "id": 6223847430, "lat": 39.9520644, "lon": -75.1595415, "tags": {"addr:city": "Philadelphia", "addr:housenumber": "1113", "addr:postcode": "19107", "addr:state": "PA", "addr:street": "Market Street", "alt_name": "Dunkin' Donuts", "amenity": "fast_food", "brand": "Dunkin'", "brand:wikidata": "Q847743", "check_date": "2023-10-15", "cuisine": "donut;coffee_shop", "drive_through": "no", "name": "Dunkin'", "opening_hours": "05:00-20:30", "phone": "+1 215-351-9370", "ref": "336373", "takeaway": "yes", "website": "https://locations.dunkindonuts.com/en/pa/philadelphia/1113-market-st/336373"}}, {"type": "node", "id": 6223847431, "lat": 39.9531295, "lon": -75.1594543, "tags": {"addr:city": "Philadelphia", "addr:housenumber": "1200", "addr:postcode": "19107", "addr:state": "PA", "addr:street": "Filbert Street", "amenity": "cafe", "cuisine": "coffee_shop;coffee;bagel;milkshake", "name": "Old City Coffee", "opening_hours": "08:00-18:00"}}, {"type": "node", "id": 6223847438, "lat": 39.9537093, "lon": -75.1586647, "tags": {"addr:city": "Philadelphia", "addr:housenumber": "51", "addr:postcode": "19107", "addr:state": "PA", "addr:street": "North 12th Street", "amenity": "cafe", "cuisine": "coffee_shop;salad;local;bakery;dessert", "name": "Metropolitan Bakery", "opening_hours": "08:00-18:00"}}, {"type": "node", "id": 6223847439, "lat": 39.9546004, "lon": -75.1562263, "tags": {"addr:city": "Philadelphia", "addr:housenumber": "132", "addr:postcode": "19107", "addr:state": "PA", "addr:street": "North 10th Street", "amenity": "cafe", "cuisine": "tea;bubble_tea", "name": "Tea Do", "opening_hours": "10:30-00:00"}}, {"type": "node", "id": 6223847440, "lat": 39.9553873, "lon": -75.1573713, "tags": {"addr:city": "Philadelphia", "addr:housenumber": "145", "addr:postcode": "19107", "addr:state": "PA", "addr:street": "North 11th Street", "amenity": "cafe", "branch": "Center City", "check_date": "2025-09-20", "check_date:opening_hours": "2025-09-20", "contact:facebook": "https://www.facebook.com/alamoussecafe", "cuisine": "coffee_shop;tea;bubble_tea;dessert", "name": "A La Mousse", "opening_hours": "12:00-23:00", "phone": "+1 215-238-9100", "website": "https://alamousse.com"}}, {"type": "node", "id": 6223880859, "lat": 39.942922, "lon": -75.1520273, "tags": {"addr:city": "Philadelphia", "addr:housenumber": "542", "addr:postcode": "19147", "addr:state": "PA", "addr:street": "Lombard Street", "amenity": "cafe", "name": "Lombard Cafe"}}, {"type": "node", "id": 6223890457, "lat": 39.9507472, "lon": -75.1519232, "tags": {"addr:city": "Philadelphia", "addr:housenumber": "634", "addr:postcode": "19106", "addr:state": "PA", "addr:street": "Market Street", "alt_name": "Dunkin' Donuts", "amenity": "fast_food", "brand": "Dunkin'", "brand:wikidata": "Q847743", "cuisine": "donut;coffee_shop", "drive_through": "no", "name": "Dunkin'", "opening_hours": "Mo-Fr 05:30-19:00; Sa-Su 06:00-18:00", "phone": "+1 215-922-6447", "ref": "310408", "takeaway": "yes", "website": "https://locations.dunkindonuts.com/en/pa/philadelphia/634-market-st/310408"}}, {"type": "node", "id": 6245808185, "lat": 39.9533557, "lon": -75.1730454, "tags": {"addr:city": "Philadelphia", "addr:housenumber": "1900", "addr:postcode": "19103", "addr:state": "PA", "addr:street": "Market Street", "amenity": "cafe", "branch": "20th & Market", "brand": "Starbucks", "brand:wikidata": "Q37158", "check_date": "2023-10-15", "cuisine": "coffee_shop", "name": "Starbucks", "official_name": "Starbucks Coffee", "opening_hours": "06:00-18:00", "phone": "+1 215-564-2840", "takeaway": "yes", "website": "https://www.starbucks.com/store-locator/store/16145/20th-market-1900-market-street-philadelphia-pa-191033527-us"}}, {"type": "node", "id": 6376956284, "lat": 39.9419128, "lon": -75.1525978, "tags": {"addr:city": "Philadelphia", "addr:housenumber": "604", "addr:postcode": "19147", "addr:state": "PA", "addr:street": "South Street", "amenity": "restaurant", "cuisine": "sushi;japanese", "name": "Shiso", "website": "https://shisonoodleandsushi.com/"}}, {"type": "node", "id": 6417151886, "lat": 39.9541459, "lon": -75.1576212, "tags": {"addr:housenumber": "101", "addr:postcode": "19107", "addr:street": "North 11th Street", "amenity": "pub", "name": "Bar Ly", "phone": "+1 215-922-2688"}}, {"type": "node", "id": 6448326618, "lat": 39.9517161, "lon": -75.1595773, "tags": {"addr:city": "Philadelphia", "addr:housenumber": "1150", "addr:postcode": "19107", "addr:street": "Market Street", "amenity": "pub", "check_date": "2023-10-15", "name": "Iron Hill Brewery", "opening_hours": "Mo-Th 11:00-23:00; Fr-Sa 11:00-24:00; Su 11:00-22:00", "phone": "+1 267-507-7365", "website": "https://ironhillbrewery.com/location/philadelphia-pa"}}, {"type": "node", "id": 6450859594, "lat": 39.9516581, "lon": -75.1591223, "tags": {"addr:housenumber": "1140", "addr:street": "Market Street", "amenity": "fast_food", "brand": "District Taco", "brand:wikidata": "Q26237090", "cuisine": "mexican", "name": "District Taco", "opening_hours": "Mo-Su 07:00-22:00", "phone": "+1-267-861-7880", "takeaway": "yes"}}, {"type": "node", "id": 6458698350, "lat": 39.9439723, "lon": -75.1689438, "tags": {"addr:city": "Philadelphia", "addr:housenumber": "1600", "addr:street": "South Street", "amenity": "restaurant", "check_date": "2023-10-14", "contact:instagram": "https://www.instagram.com/tiofloresonsouth", "cuisine": "mexican", "internet_access": "wlan", "internet_access:fee": "no", "level": "0", "name": "Tio Flores", "opening_hours": "Mo-We 16:00-22:00; Th-Fr 16:00-24:00; Sa 12:00-24:00; Su 12:00-22:00", "outdoor_seating": "yes", "phone": "+1 267-687-2220", "takeaway": "yes", "toilets": "yes", "website": "https://tioflores.com/"}}, {"type": "node", "id": 6521771171, "lat": 39.9531972, "lon": -75.1652148, "tags": {"amenity": "fast_food", "cuisine": "asian", "description": "Accepts orders via text before 11:45 AM.", "drive_through": "no", "name": "Wok Works", "opening_hours": "Mo-Fr 10:00-15:00", "phone": "+1-215-399-1293", "website": "https://www.wokworks.com/"}}, {"type": "node", "id": 6521815586, "lat": 39.9547869, "lon": -75.1646447}, {"type": "node", "id": 6521815587, "lat": 39.9547964, "lon": -75.1647204}, {"type": "node", "id": 6556392885, "lat": 39.9539174, "lon": -75.1561117, "tags": {"amenity": "restaurant", "name": "Siu Kee Duck House", "name:zh": "\u8d99\u8a18\u6e2f\u5f0f\u71d2\u81d8"}}, {"type": "node", "id": 6556392888, "lat": 39.9538331, "lon": -75.1570828, "tags": {"amenity": "restaurant", "name": "Happy Lamb", "name:zh": "\u5feb\u4e50\u5c0f\u7f8a"}}, {"type": "node", "id": 6556392893, "lat": 39.9535462, "lon": -75.1574773, "tags": {"addr:housenumber": "1028", "addr:street": "Arch Street", "amenity": "fast_food", "check_date": "2023-04-12", "contact:phone": "+1 215-629-3888", "contact:website": "https://yamitsuki1028.wixsite.com/yamitsukiramen", "cuisine": "japanese", "email": "yamitsuki1028@gmail.com", "name": "Yamitsuki Ramen", "opening_hours": "Mo-Th 11:30-22:00; Fr-Sa 11:30-24:00; Su 11:30-23:00", "wheelchair": "yes"}}, {"type": "node", "id": 6556392895, "lat": 39.9535807, "lon": -75.1551656, "tags": {"addr:housenumber": "909", "addr:street": "Arch Street", "amenity": "restaurant", "check_date": "2023-04-12", "contact:phone": "+1 267-930-7634", "contact:website": "https://bubblefishphilly.com", "cuisine": "japanese", "email": "bubblefishphilly@gmail.com", "name": "Bubblefish", "opening_hours": "Mo-Th,Su 11:00-23:30; Fr-Sa 11:00-24:30"}}, {"type": "node", "id": 6556392897, "lat": 39.9534886, "lon": -75.1567881, "tags": {"amenity": "cafe", "name": "Mr. 8 Cafe"}}, {"type": "node", "id": 6556392898, "lat": 39.9535947, "lon": -75.1577198, "tags": {"addr:city": "Philadelphia", "addr:housenumber": "1038", "addr:postcode": "19107", "addr:state": "PA", "addr:street": "Arch Street", "alt_name": "Dunkin' Donuts", "amenity": "fast_food", "brand": "Dunkin'", "brand:wikidata": "Q847743", "check_date": "2023-04-12", "cuisine": "donut;coffee_shop", "drive_through": "no", "name": "Dunkin'", "opening_hours": "05:00-19:00", "phone": "+1 215-625-4546", "ref": "354789", "takeaway": "yes", "website": "https://locations.dunkindonuts.com/en/pa/philadelphia/1038-arch-st/354789"}}, {"type": "node", "id": 6556392899, "lat": 39.9534795, "lon": -75.1567216, "tags": {"addr:city": "Philadelphia", "addr:country": "US", "addr:housenumber": "1006", "addr:postcode": "19107", "addr:state": "PA", "addr:street": "Arch Street", "amenity": "cafe", "brand": "Kung Fu Tea", "brand:wikidata": "Q66023886", "cuisine": "bubble_tea", "name": "Kung Fu Tea", "name:zh": "\u529f\u592b\u8336", "opening_hours": "Su-Th 10:30-00:00; Fr-Sa 10:30-01:00", "phone": "+1-267-758-2871", "takeaway": "yes", "website": "https://www.kungfutea.com"}}, {"type": "node", "id": 6556392903, "lat": 39.9536402, "lon": -75.155894, "tags": {"name": "No. 1 Supermarket", "name:zh": "\u5927\u4e16\u754c\u8d85\u5e02", "shop": "supermarket"}}, {"type": "node", "id": 6556392904, "lat": 39.9540692, "lon": -75.1560607, "tags": {"amenity": "restaurant", "cuisine": "chinese", "name": "Penang"}}, {"type": "node", "id": 6556392909, "lat": 39.9536431, "lon": -75.15572, "tags": {"addr:housenumber": "923", "addr:street": "Arch Street", "amenity": "cafe", "brand": "Paris Baguette", "brand:wikidata": "Q62605260", "check_date": "2023-04-12", "contact:phone": "+1 215-928-8888", "contact:website": "https://parisbaguette.com", "name": "Paris Baguette", "opening_hours": "08:00-20:00", "shop": "bakery"}}, {"type": "node", "id": 6556404818, "lat": 39.9542464, "lon": -75.1552492, "tags": {"amenity": "restaurant", "cuisine": "asian", "name": "Chowbus"}}, {"type": "node", "id": 6556417040, "lat": 39.9550412, "lon": -75.1561244, "tags": {"amenity": "restaurant", "name": "Ming River Side Walk House", "name:zh": "\u95a9\u6c5f\u8857\u908a\u5c0f\u5403"}}, {"type": "node", "id": 6556417041, "lat": 39.9549969, "lon": -75.1561314, "tags": {"amenity": "restaurant", "name": "Chubby Cattle"}}, {"type": "node", "id": 6556417042, "lat": 39.9548174, "lon": -75.1561826, "tags": {"amenity": "restaurant", "name": "Xun Yu Si Kao"}}, {"type": "node", "id": 6556417044, "lat": 39.9547662, "lon": -75.1561914, "tags": {"addr:postcode": "19107", "amenity": "restaurant", "cuisine": "chinese", "name": "Ting Wong Restaurant", "name:zh": "\u5929\u65fa\u5927\u98ef\u5e97", "opening_hours": "Su-Th 08:00-22:00; Fr-Sa 08:00-23:00", "phone": "+1-215-928-1883", "website": "http://www.tingwongrestaurant.com/"}}, {"type": "node", "id": 6556417045, "lat": 39.9553881, "lon": -75.1549275, "tags": {"addr:city": "Philadelphia", "addr:housenumber": "915", "addr:street": "Race Street", "amenity": "restaurant", "check_date": "2024-08-10", "cuisine": "japanese", "name": "Megumi Japanese Ramen & Sushi Bar", "opening_hours": "Mo-Tu,Th-Su 11:00-21:30; We off", "phone": "+1 215-733-0129", "website": "https://www.megumisushi.com"}}, {"type": "node", "id": 6556417046, "lat": 39.9547139, "lon": -75.156204, "tags": {"name": "New World Laundromat & Food Market", "name:zh": "\u65b0\u4e16\u754c\u6d17\u8863\u5e97\u548c\u98df\u54c1\u516c\u53f8", "shop": "supermarket"}}, {"type": "node", "id": 6556417048, "lat": 39.9546597, "lon": -75.1562147, "tags": {"addr:city": "Philadelphia", "addr:housenumber": "134", "addr:postcode": "19107", "addr:state": "PA", "addr:street": "North 10th Street", "amenity": "restaurant", "cuisine": "chinese;seafood", "name": "Tai Lake Seafood Restaurant", "phone": "+1 215-922-0698", "website": "http://www.tailakeseafoodrest.com/", "website:menu": "http://www.tailakeseafoodrest.com/menu.asp"}}, {"type": "node", "id": 6556417049, "lat": 39.9554571, "lon": -75.1554864, "tags": {"amenity": "restaurant", "cuisine": "barbecue", "name": "Red Kings B.B.Q. Bar"}}, {"type": "node", "id": 6556417050, "lat": 39.9542177, "lon": -75.1562996, "tags": {"amenity": "restaurant", "cuisine": "chinese", "name": "Hidden Gem"}}, {"type": "node", "id": 6556417053, "lat": 39.955465, "lon": -75.1556482, "tags": {"amenity": "restaurant", "cuisine": "seafood", "name": "Ocean Harmony"}}, {"type": "node", "id": 6556417054, "lat": 39.9550919, "lon": -75.1561157, "tags": {"amenity": "fast_food", "name": "T-Swirl Cr\u00eape", "wheelchair": "no"}}, {"type": "node", "id": 6556430221, "lat": 39.9562137, "lon": -75.1555256, "tags": {"amenity": "cafe", "name": "Teassert Bar"}}, {"type": "node", "id": 6556430222, "lat": 39.956203, "lon": -75.155871, "tags": {"amenity": "cafe", "name": "Miucha", "name:zh": "\u5999\u8336"}}, {"type": "node", "id": 6558075391, "lat": 39.9493552, "lon": -75.1528408, "tags": {"amenity": "fast_food", "name": "Park\u2019s Salad Bar"}}, {"type": "node", "id": 6558075397, "lat": 39.9497165, "lon": -75.1536442, "tags": {"amenity": "fast_food", "brand": "Philly Pretzel Factory", "brand:wikidata": "Q60097339", "cuisine": "pretzel", "name": "Philly Pretzel Factory", "takeaway": "yes"}}, {"type": "node", "id": 6558075398, "lat": 39.9493817, "lon": -75.1530828, "tags": {"amenity": "restaurant", "name": "El Azteca"}}, {"type": "node", "id": 6558075400, "lat": 39.9495163, "lon": -75.1544281, "tags": {"name": "Chestnut Food Market", "shop": "supermarket"}}, {"type": "node", "id": 6558075404, "lat": 39.9498259, "lon": -75.1523903, "tags": {"addr:city": "Philadelphia", "addr:housenumber": "36", "addr:postcode": "19106", "addr:state": "PA", "addr:street": "South 7th Street", "amenity": "cafe", "internet_access": "yes", "name": "Time & Peace", "outdoor_seating": "no", "phone": "+1-267-687-7024", "website": "https://www.time-and-peace.com/"}}, {"type": "node", "id": 6611205185, "lat": 39.9565775, "lon": -75.1606101, "tags": {"addr:city": "Philadelphia", "addr:housenumber": "218", "addr:postcode": "19107", "addr:state": "PA", "addr:street": "North 13th Street", "amenity": "restaurant", "contact:instagram": "https://www.instagram.com/nomwah/", "cuisine": "chinese", "internet_access": "wlan", "name": "Nom Wah", "opening_hours": "Mo, We-Fr 11:30-22:00; Su 10:30-21:00; Sa 10:30-22:00", "phone": "+1-267-519-2889", "website": "https://nomwah.com/philadelphia/"}}, {"type": "node", "id": 6611740530, "lat": 39.953852, "lon": -75.1591312, "tags": {"amenity": "restaurant", "name": "dutch eating place"}}, {"type": "node", "id": 6634187878, "lat": 39.9519387, "lon": -75.1646594}, {"type": "node", "id": 6634187879, "lat": 39.9519553, "lon": -75.1647904}, {"type": "node", "id": 6681553190, "lat": 39.9522786, "lon": -75.1649785, "tags": {"access": "yes", "amenity": "drinking_water", "bottle": "yes", "dog": "yes", "fee": "no", "fountain": "bubbler"}}, {"type": "node", "id": 6682341806, "lat": 39.9490779, "lon": -75.1510749, "tags": {"addr:city": "Philadelphia", "addr:housenumber": "150", "addr:postcode": "19106", "addr:state": "PA", "addr:street": "South Independence Mall West", "addr:unit": "102", "air_conditioning": "yes", "brand": "Wawa", "brand:wikidata": "Q5936320", "internet_access": "wlan", "name": "Wawa", "opening_hours": "24/7", "operator": "Wawa", "payment:cards": "yes", "payment:cash": "yes", "payment:coins": "yes", "payment:contactless": "yes", "payment:credit_cards": "yes", "payment:debit_cards": "yes", "payment:mastercard": "yes", "payment:notes": "yes", "payment:visa": "yes", "phone": "+1-267-299-6269", "shop": "convenience", "website": "https://wawa.com/"}}, {"type": "node", "id": 6693379145, "lat": 39.9520039, "lon": -75.1737779, "tags": {"addr:city": "Philadelphia", "addr:country": "US", "addr:housenumber": "2004", "addr:postcode": "19103", "addr:state": "PA", "addr:street": "Chestnut Street", "amenity": "restaurant", "contact:facebook": "https://www.facebook.com/masalakitchenphilly/", "contact:instagram": "https://www.instagram.com/masalakitchenphilly", "contact:twitter": "https://twitter.com/mkitchenphilly", "contact:yelp": "https://www.yelp.com/biz/masala-kitchen-kati-rolls-and-platters-philadelphia", "cuisine": "indian;street_food", "diet:vegan": "no", "diet:vegetarian": "yes", "email": "info@masalakitchenphilly.com", "name": "Masala Kitchen", "opening_hours": "Mo-Th 11:00-24:00; Fr 11:00-03:30; Sa 12:00-03:30; Su 12:00-23:00", "phone": "+1-267-639-9405", "website": "http://masalakitchenphilly.com", "website:menu": "https://www.masalakitchenphilly.com/menus/"}}, {"type": "node", "id": 6899331049, "lat": 39.9564037, "lon": -75.1571701, "tags": {"addr:housenumber": "225", "addr:street": "North 11th Street", "amenity": "cafe", "check_date": "2025-07-20", "cuisine": "vietnamese", "internet_access": "wlan", "internet_access:fee": "customers", "name": "Drip Vietnamese Cafe", "opening_hours": "Mo-Th 09:00-17:00; Fr-Su 09:00-19:00", "payment:cash": "yes", "payment:credit_cards": "yes", "payment:debit_cards": "yes"}}, {"type": "node", "id": 6899331050, "lat": 39.9562671, "lon": -75.1571995, "tags": {"amenity": "restaurant", "check_date": "2025-07-20", "cuisine": "chinese", "name": "Lee How Fook"}}, {"type": "node", "id": 6899331051, "lat": 39.9562758, "lon": -75.1574431, "tags": {"amenity": "restaurant", "check_date": "2025-07-20", "cuisine": "vietnamese", "name": "Vietnam Palace"}}, {"type": "node", "id": 6899331060, "lat": 39.955461, "lon": -75.1573588, "tags": {"addr:city": "Philadelphia", "addr:housenumber": "1038", "addr:street": "Race Street", "amenity": "restaurant", "check_date": "2023-10-11", "contact:facebook": "https://www.facebook.com/BaiWei1038", "cuisine": "chinese", "name": "Bai Wei", "name:zh": "\u767e\u5473\u8ed2", "opening_hours": "Mo-Th,Su 11:00-22:00; Fr-Sa 11:30-22:30", "phone": "+1 215-873-8338", "website": "https://www.baiweipa.com"}}, {"type": "node", "id": 6964126497, "lat": 39.9480126, "lon": -75.1544541, "tags": {"addr:housenumber": "804", "addr:street": "Walnut Street", "brand": "7-Eleven", "brand:wikidata": "Q259340", "check_date": "2023-04-13", "contact:phone": "+1 215-574-1248", "contact:website": "https://www.7-eleven.com/locations/pa/philadelphia/804-walnut-street-33358", "name": "7-Eleven", "opening_hours": "24/7", "shop": "convenience"}}, {"type": "node", "id": 6964126498, "lat": 39.9526803, "lon": -75.1562587, "tags": {"addr:city": "Philadelphia", "addr:housenumber": "917", "addr:postcode": "19107", "addr:state": "PA", "addr:street": "Filbert Street", "atm": "yes", "brand": "7-Eleven", "brand:wikidata": "Q259340", "fast_food": "yes", "fuel:propane": "yes", "name": "7-Eleven", "phone": "+1 616-772-0354", "ref": "36493", "shop": "convenience", "website": "https://www.7-eleven.com/locations/pa/philadelphia/917-filbert-ave-36493"}}, {"type": "node", "id": 7098779262, "lat": 39.9556312, "lon": -75.1571992, "tags": {"addr:housenumber": "1037", "addr:street": "Race Street", "name": "S&D Market", "name:zh": "\u9806\u9054\u852c\u679c\u5e02\u5834", "phone": "2159288878", "shop": "convenience"}}, {"type": "node", "id": 7098783385, "lat": 39.9553946, "lon": -75.1568023, "tags": {"addr:city": "Philadelphia", "addr:housenumber": "1022", "addr:postcode": "19107", "addr:street": "Race Street", "amenity": "restaurant", "check_date": "2025-08-26", "cuisine": "chinese", "name": "Nan Zhou Hand Drawn Noodle House", "name:zh": "\u7f8e\u5473\u862d\u5dde\u624b\u62c9\u9eb5", "opening_hours": "Mo-Th,Su 11:00-22:00; Fr-Sa 11:00-22:30", "payment:cash": "yes", "payment:credit_cards": "no", "payment:debit_cards": "no", "phone": "+1-215-923-1550", "website": "https://www.nanzhounoodlehouse.com"}}, {"type": "node", "id": 7098832902, "lat": 39.9553187, "lon": -75.1561036, "tags": {"amenity": "restaurant", "cuisine": "chinese", "name": "M Kee", "name:zh": "\u6587\u65fa\u5927\u98ef\u5e97"}}, {"type": "node", "id": 7098832903, "lat": 39.9553914, "lon": -75.1567386, "tags": {"addr:city": "Philadelphia", "addr:housenumber": "1024", "addr:postcode": "19107", "addr:street": "Race Street", "amenity": "restaurant", "check_date": "2023-10-11", "cuisine": "chinese", "email": "info@dimsumgardenphilly.com", "name": "Dim Sum Garden", "name:zh": "\u9ede\u5712", "opening_hours": "11:00-22:00", "phone": "+1-215-873-0258", "website": "https://www.dimsumgardenphilly.com"}}, {"type": "node", "id": 7142841685, "lat": 39.940697, "lon": -75.1575784, "tags": {"addr:housenumber": "736", "addr:postcode": "19147", "addr:street": "South 9th Street", "amenity": "restaurant", "cuisine": "pizza", "name": "Angelo's pizza", "name:en": "Angelo's Pizzeria South Philly", "website": "https://www.angelospizzeriasouthphiladelphia.com/"}}, {"type": "node", "id": 7170228685, "lat": 39.9534043, "lon": -75.1594088, "tags": {"amenity": "fast_food", "cuisine": "american", "name": "Carmen's Cheesesteaks Hoagies"}}, {"type": "node", "id": 7265222641, "lat": 39.9445562, "lon": -75.1578617, "tags": {"addr:city": "Philadelphia", "addr:housenumber": "928", "addr:postcode": "19107", "addr:state": "PA", "addr:street": "Pine Street", "air_conditioning": "yes", "amenity": "cafe", "capacity": "50", "check_date:opening_hours": "2023-10-08", "internet_access": "yes", "internet_access:ssid": "@GoodKarmaGuest", "name": "Good Karma", "opening_hours": "Mo-Su 07:00-22:00", "opening_hours:signed": "no", "outdoor_seating": "yes", "phone": "+1-267-519-8860", "website": "https://www.thegoodkarmacafe.com/", "wheelchair": "no"}}, {"type": "node", "id": 7393396261, "lat": 39.9502748, "lon": -75.1601262, "tags": {"amenity": "fast_food", "brand": "Shake Shack", "brand:wikidata": "Q1058722", "cuisine": "burger", "name": "Shake Shack", "phone": "+1-215-709-2702", "takeaway": "yes"}}, {"type": "node", "id": 7433918009, "lat": 39.9411822, "lon": -75.1522466}, {"type": "node", "id": 7433918010, "lat": 39.9412697, "lon": -75.1522281}, {"type": "node", "id": 7434094964, "lat": 39.9512177, "lon": -75.1660018, "tags": {"addr:city": "Philadelphia", "addr:housenumber": "1509", "addr:postcode": "19102", "addr:state": "PA", "addr:street": "Chestnut Street", "alt_name": "Dunkin' Donuts", "amenity": "fast_food", "brand": "Dunkin'", "brand:wikidata": "Q847743", "check_date": "2023-10-08", "cuisine": "donut;coffee_shop", "drive_through": "no", "name": "Dunkin'", "opening_hours": "Mo-Sa 05:00-19:00; Su 06:00-17:30", "phone": "+1 218-636-0910", "ref": "353149", "takeaway": "yes", "website": "https://locations.dunkindonuts.com/en/pa/philadelphia/1509-chestnut-st/353149"}}, {"type": "node", "id": 7976943939, "lat": 39.9487125, "lon": -75.1598497, "tags": {"addr:housenumber": "1116", "addr:street": "Walnut Street", "amenity": "restaurant", "check_date": "2023-04-11", "contact:phone": "+1 215-627-7676", "contact:website": "https://moriartyspub.com", "name": "Moriarty\u2019s Restaurant", "opening_hours": "Mo,Su 11:00-24:00 \"Kitchen open until 10pm\", Tu-Th 11:00-26:00 \"Kitchen open until 10pm\", Fr-Sa 11:00-26:00 \"Kitchen open until 12am\""}}, {"type": "node", "id": 7977075188, "lat": 39.9405146, "lon": -75.1546003, "tags": {"addr:city": "Philadelphia", "addr:housenumber": "728", "addr:postcode": "19147", "addr:state": "PA", "addr:street": "South 7th Street", "amenity": "cafe", "contact:instagram": "https://www.instagram.com/thefitzwatercafe/", "name": "Fitzwater Cafe", "opening_hours": "Mo-Su 08:00-14:45", "outdoor_seating": "no", "payment:credit_cards": "no", "payment:debit_cards": "no"}}, {"type": "node", "id": 8127686617, "lat": 39.950302, "lon": -75.166539, "tags": {"addr:city": "Philadelphia", "addr:housenumber": "1516", "addr:postcode": "19102", "addr:street": "Sansom Street", "amenity": "restaurant", "check_date": "2025-02-23", "check_date:opening_hours": "2025-02-23", "happy_hours": "Tu-Fr 16:00-18:00", "name": "Oyster House", "opening_hours": "Mo,Su off; Tu-Th 11:30-21:00; Fr-Sa 11:30-22:00", "opening_hours:signed": "no", "phone": "+1 215-567-7683", "website": "https://oysterhousephilly.com"}}, {"type": "node", "id": 8127755217, "lat": 39.9495191, "lon": -75.1622021, "tags": {"addr:city": "Philadelphia", "addr:housenumber": "124", "addr:postcode": "19107", "addr:street": "South 13th Street", "amenity": "restaurant", "check_date": "2023-10-12", "contact:facebook": "https://www.facebook.com/sampanphilly", "contact:instagram": "https://www.instagram.com/sampanphilly", "name": "Sampan", "opening_hours": "Mo-Tu,Su 16:00-22:00; We-Th 16:00-23:00; Fr-Sa 16:00-24:00", "phone": "+1 215-732-3501", "website": "http://www.sampanphilly.com"}}, {"type": "node", "id": 8132980317, "lat": 39.9412814, "lon": -75.1540685, "tags": {"addr:housenumber": "701", "addr:street": "South 7th Street", "amenity": "cafe", "name": "Rally Coffee"}}, {"type": "node", "id": 8410340128, "lat": 39.9500607, "lon": -75.1731075, "tags": {"addr:city": "Philadelphia", "addr:housenumber": "210", "addr:postcode": "19103", "addr:street": "West Rittenhouse Square", "amenity": "restaurant", "check_date": "2023-10-14", "contact:website": "https://www.lacroixrestaurant.com", "name": "Lacroix", "phone": "+1 215-790-2533"}}, {"type": "node", "id": 8410340129, "lat": 39.9499162, "lon": -75.1730466, "tags": {"addr:housenumber": "210", "addr:street": "West Rittenhouse Square", "amenity": "restaurant", "check_date": "2023-04-11", "contact:phone": "+1 215-790-2533", "contact:website": "https://www.rittenhousehotel.com/dining/tea", "description": "The Signature Tea $70 The Impressionist Tea $95 The Rittenhouse Tea $120 The Opulence Tea $275", "name": "Mary Cassatt Tea Room", "opening_hours": "Mo-We off; Th-Su 12:00-15:00"}}, {"type": "node", "id": 8410340132, "lat": 39.9500579, "lon": -75.1729745, "tags": {"addr:housenumber": "210", "addr:street": "West Rittenhouse Square", "amenity": "restaurant", "check_date": "2023-04-11", "contact:facebook": "https://www.facebook.com/ScarpettaPhiladelphia", "contact:phone": "+1 215-558-4199", "contact:website": "https://www.scarpettarestaurants.com/location/scarpetta-philadelphia/", "description": "bar and lounge open until 11pm", "name": "Scarpetta", "opening_hours": "Mo-Sa 17:30-21:00; Su off"}}, {"type": "node", "id": 8410355483, "lat": 39.9526323, "lon": -75.1713516, "tags": {"addr:city": "Philadelphia", "addr:housenumber": "1830", "addr:postcode": "19103", "addr:state": "PA", "addr:street": "Ludlow Street", "amenity": "restaurant", "check_date": "2023-10-09", "description": "another entrance is at 31 South 19th Street", "name": "Condesa", "opening_hours:Condesa": "Mo-Th 17:00-22:00; Fr-Sa 17:00-23:00; Su off", "opening_hours:El_Cafe": "Mo-Fr 06:00-12:00; Sa-Su 07:00-13:00", "opening_hours:El_Techo": "Mo-Th 16:00-23:00 \"food until 10pm\"; Fr 16:00-24:00+ \"food until 11pm\"; Sa 14:00-24:00+ \"food until 11pm\"; Su 11:00-16:00", "phone": "+1 267-930-5600", "website": "https://www.condesaphilly.com"}}, {"type": "node", "id": 8587322044, "lat": 39.9484805, "lon": -75.1642317, "tags": {"amenity": "restaurant", "branch": "Grille", "brand": "Del Frisco's Double Eagle Steakhouse", "brand:wikidata": "Q23461481", "cuisine": "steak_house", "name": "Del Frisco's Double Eagle Steakhouse"}}, {"type": "node", "id": 8588131588, "lat": 39.9513606, "lon": -75.1566391, "tags": {"addr:city": "Philadelphia", "addr:housenumber": "942", "addr:postcode": "19107", "addr:state": "PA", "addr:street": "Market Street", "amenity": "fast_food", "branch": "Market St & South 10th St", "brand": "Panda Express", "brand:wikidata": "Q1358690", "cuisine": "chinese", "name": "Panda Express", "opening_hours": "Mo-Fr 10:00-21:30; Sa-Su 10:30-21:30", "phone": "+1 215-928-8882", "takeaway": "yes", "website": "https://www.pandaexpress.com/locations/pa/philadelphia/2791"}}, {"type": "node", "id": 8591425503, "lat": 39.9522954, "lon": -75.1680109, "tags": {"amenity": "fast_food", "brand": "Au Bon Pain", "brand:wikidata": "Q4818942", "cuisine": "sandwich", "name": "Au Bon Pain", "takeaway": "yes"}}, {"type": "node", "id": 8591448455, "lat": 39.9517699, "lon": -75.1669708, "tags": {"brand": "Wawa", "brand:wikidata": "Q5936320", "name": "Wawa", "shop": "convenience"}}, {"type": "node", "id": 8591448483, "lat": 39.9533378, "lon": -75.1588565, "tags": {"amenity": "restaurant", "name": "A Taste of Spain"}}, {"type": "node", "id": 8591448484, "lat": 39.9532512, "lon": -75.1593062, "tags": {"amenity": "restaurant", "name": "Beck's Cajun Cafe"}}, {"type": "node", "id": 8591448485, "lat": 39.9534645, "lon": -75.1593962, "tags": {"amenity": "restaurant", "name": "By George! Pizza, Pasta & Cheesesteaks"}}, {"type": "node", "id": 8591448486, "lat": 39.953697, "lon": -75.1593564, "tags": {"amenity": "restaurant", "name": "Careda's Caribbean Cuisine"}}, {"type": "node", "id": 8591448487, "lat": 39.9536793, "lon": -75.1592372, "tags": {"amenity": "restaurant", "name": "DiNic's"}}, {"type": "node", "id": 8591448488, "lat": 39.9530475, "lon": -75.1594757, "tags": {"amenity": "restaurant", "name": "Down Home Diner"}}, {"type": "node", "id": 8591448489, "lat": 39.953628, "lon": -75.1588146, "tags": {"amenity": "fast_food", "name": "Fox & Son Fancy Corndogs"}}, {"type": "node", "id": 8591448491, "lat": 39.9534789, "lon": -75.1588376, "tags": {"amenity": "fast_food", "name": "Hunger Burger"}}, {"type": "node", "id": 8591448492, "lat": 39.9536184, "lon": -75.1593669, "tags": {"amenity": "restaurant", "name": "Kamal's Middle Eastern Specialities"}}, {"type": "node", "id": 8591448493, "lat": 39.9533378, "lon": -75.1594234, "tags": {"amenity": "restaurant", "name": "Keven Parker's Soul Food Cafe"}}, {"type": "node", "id": 8591448495, "lat": 39.9534035, "lon": -75.1588481, "tags": {"amenity": "restaurant", "name": "Nanee's Kitchen"}}, {"type": "node", "id": 8591448496, "lat": 39.953604, "lon": -75.1592498, "tags": {"amenity": "fast_food", "name": "Olympia Gyro"}}, {"type": "node", "id": 8591448497, "lat": 39.9530315, "lon": -75.1593502, "tags": {"addr:housenumber": "51", "addr:street": "North 12th Street", "amenity": "restaurant", "check_date": "2023-04-12", "contact:phone": "+1 215-964-9792", "contact:website": "https://pearlsrtm.com", "description": "Inside Reading Terminal Market; entrance at 12th and Filbert St.", "name": "Pearl's Oyster Bar"}}, {"type": "node", "id": 8591448498, "lat": 39.9534564, "lon": -75.159279, "tags": {"amenity": "restaurant", "name": "Sang Kee Peking Duck"}}, {"type": "node", "id": 8591448499, "lat": 39.9535254, "lon": -75.1592644, "tags": {"amenity": "restaurant", "name": "Shanghai Gourmet"}}, {"type": "node", "id": 8591448500, "lat": 39.9533987, "lon": -75.1592916, "tags": {"amenity": "fast_food", "name": "Spataro's Cheesesteaks"}}, {"type": "node", "id": 8591448501, "lat": 39.9533233, "lon": -75.1592958, "tags": {"amenity": "fast_food", "name": "The Original Turkey"}}, {"type": "node", "id": 8591448502, "lat": 39.9531149, "lon": -75.1593272, "tags": {"amenity": "restaurant", "name": "Umi Seafood and Sushi Bar"}}, {"type": "node", "id": 8591458717, "lat": 39.9522995, "lon": -75.1683838, "tags": {"addr:city": "Philadelphia", "addr:housenumber": "1625", "addr:postcode": "19103", "addr:state": "PA", "addr:street": "Chestnut Street", "amenity": "fast_food", "branch": "Liberty Place", "brand": "Chipotle", "brand:wikidata": "Q465751", "cuisine": "mexican", "name": "Chipotle", "official_name": "Chipotle Mexican Grill", "opening_hours": "Mo-Fr 11:00-18:00; Sa 11:00-19:00; Su 12:00-18:00", "phone": "+1 215-279-6845", "takeaway": "yes", "website": "https://locations.chipotle.com/pa/philadelphia/1625-chestnut-st"}}, {"type": "node", "id": 8591458718, "lat": 39.9522851, "lon": -75.1682336, "tags": {"addr:city": "Philadelphia", "addr:housenumber": "1625", "addr:postcode": "19103", "addr:state": "PA", "addr:street": "Chestnut Street", "addr:unit": "F1", "amenity": "fast_food", "brand": "Subway", "brand:wikidata": "Q244457", "cuisine": "sandwich", "name": "Subway", "opening_hours": "Mo-Sa 09:30-19:00; Su 11:00-18:00", "phone": "+1 215-851-8019", "takeaway": "yes", "website": "https://restaurants.subway.com/united-states/pa/philadelphia/1625-chestnut-street"}}, {"type": "node", "id": 8591458719, "lat": 39.9522399, "lon": -75.1678902, "tags": {"amenity": "fast_food", "brand": "Auntie Anne's", "brand:wikidata": "Q4822010", "cuisine": "pretzel", "name": "Auntie Anne's", "takeaway": "yes"}}, {"type": "node", "id": 8591458720, "lat": 39.9521679, "lon": -75.1678151, "tags": {"amenity": "fast_food", "brand": "Smoothie King", "brand:wikidata": "Q5491421", "cuisine": "juice", "name": "Smoothie King", "takeaway": "yes"}}, {"type": "node", "id": 8591536919, "lat": 39.9537194, "lon": -75.1588063, "tags": {"name": "PA General Store", "shop": "general"}}, {"type": "node", "id": 8591536921, "lat": 39.9533955, "lon": -75.1587309, "tags": {"amenity": "fast_food", "cuisine": "hot_dog", "name": "Franks A Lot"}}, {"type": "node", "id": 8596945539, "lat": 39.94955, "lon": -75.1525849, "tags": {"addr:city": "Philadelphia", "addr:housenumber": "705", "addr:postcode": "19106", "addr:state": "PA", "addr:street": "Chestnut Street", "amenity": "restaurant", "cuisine": "georgian", "name": "Sakartvelo"}}, {"type": "node", "id": 8596945540, "lat": 39.9495378, "lon": -75.1525293, "tags": {"addr:city": "Philadelphia", "addr:housenumber": "703", "addr:postcode": "19106", "addr:state": "PA", "addr:street": "Chestnut Street", "amenity": "restaurant", "cuisine": "mexican", "name": "Don Barriga", "opening_hours": "Mo-Fr 10:00-22:00; Sa 12:00-22:00; Su 12:00-21:00", "phone": "+1-267-876-7101;+1-267-876-7102", "website": "https://www.donbarriga.com/"}}, {"type": "node", "id": 8765431355, "lat": 39.9500281, "lon": -75.1689285, "tags": {"addr:housenumber": "135", "addr:street": "South 17th Street", "addr:unit": "A", "amenity": "cafe", "check_date": "2025-06-27", "check_date:opening_hours": "2025-06-27", "name": "Capital One Cafe", "opening_hours": "Mo-Fr 07:00-19:00; Sa 08:00-19:00; Su 09:00-17:00", "phone": "+1 215-239-2765", "website": "https://www.capitalone.com/local/philadelphia-rittenhouse"}}, {"type": "node", "id": 8765431382, "lat": 39.950461, "lon": -75.1674766, "tags": {"addr:city": "Philadelphia", "addr:housenumber": "118", "addr:postcode": "19102", "addr:state": "PA", "addr:street": "South 16th Street", "amenity": "restaurant", "check_date": "2023-10-08", "name": "The Happy Rooster", "opening_hours": "11:30-26:00", "phone": "+1 215-963-9311", "website": "https://thehappyroosterpa.com"}}, {"type": "node", "id": 8765431383, "lat": 39.9505746, "lon": -75.1672266, "tags": {"addr:city": "Philadelphia", "addr:housenumber": "117", "addr:postcode": "19102", "addr:state": "PA", "addr:street": "South 16th Street", "alt_name": "Dunkin' Donuts", "amenity": "fast_food", "brand": "Dunkin'", "brand:wikidata": "Q847743", "check_date": "2023-10-08", "cuisine": "donut;coffee_shop", "drive_through": "no", "name": "Dunkin'", "opening_hours": "Mo-Fr 05:00-19:00; Sa 05:30-18:00; Su 05:00-18:00", "phone": "+1 215-231-2006", "ref": "301935", "takeaway": "yes", "website": "https://locations.dunkindonuts.com/en/pa/philadelphia/117-south-16th-street/301935"}}, {"type": "node", "id": 8765431385, "lat": 39.9503759, "lon": -75.1675031, "tags": {"addr:city": "Philadelphia", "addr:housenumber": "122", "addr:postcode": "19102", "addr:state": "PA", "addr:street": "South 16th Street", "amenity": "restaurant", "check_date": "2023-10-08", "contact:facebook": "https://www.facebook.com/joespizzaphilly", "name": "Joe's Pizza", "opening_hours": "Mo-Fr 10:00-20:30; Sa 11:00-20:30; Su 11:00-19:00", "phone": "+1 215-569-0898", "website": "https://www.joespizzaphl.com"}}, {"type": "node", "id": 8765431386, "lat": 39.950243, "lon": -75.1675348, "tags": {"addr:city": "Philadelphia", "addr:housenumber": "126", "addr:postcode": "19102", "addr:state": "PA", "addr:street": "South 16th Street", "amenity": "restaurant", "check_date": "2023-10-08", "contact:facebook": "https://www.facebook.com/DanDanRittenhouse", "contact:instagram": "https://www.instagram.com/dandanrittenhouse", "cuisine": "asian", "name": "DanDan", "opening_hours": "Mo-Th 11:00-22:00; Fr 11:00-22:30; Sa 11:30-22:30; Su 11:30-22:00", "phone": "+1 215-800-1165", "website": "https://www.dandanrestaurant.com/location/dan-dan-philadelphia"}}, {"type": "node", "id": 8765431387, "lat": 39.9496296, "lon": -75.1672359, "tags": {"addr:city": "Philadelphia", "addr:housenumber": "1528", "addr:postcode": "19102", "addr:state": "PA", "addr:street": "Walnut Street", "amenity": "fast_food", "branch": "Walnut", "brand": "Qdoba", "brand:wikidata": "Q1363885", "check_date": "2025-01-27", "cuisine": "mexican", "name": "Qdoba", "official_name": "Qdoba Mexican Eats", "opening_hours": "11:00-22:00", "phone": "+1 215-546-8007", "takeaway": "yes", "website": "https://locations.qdoba.com/us/pa/philadelphia/1528-walnut-st.html"}}, {"type": "node", "id": 8822229338, "lat": 39.9488839, "lon": -75.1597813, "tags": {"addr:housenumber": "1115", "addr:street": "Walnut Street", "amenity": "restaurant", "check_date": "2023-04-13", "contact:facebook": "https://www.facebook.com/masalakitchenphilly", "contact:phone": "+1 215-309-3301", "contact:website": "https://www.masalakitchenphilly.com", "cuisine": "indian", "name": "Masala Kitchen", "opening_hours": "Mo-Th 11:00-24:00; Fr 11:00-27:30; Sa 12:00-27:30; Su 12:00-23:00", "takeaway": "yes"}}, {"type": "node", "id": 8968533260, "lat": 39.9524635, "lon": -75.1703806, "tags": {"addr:city": "Philadelphia", "addr:housenumber": "20", "addr:postcode": "19103", "addr:state": "PA", "addr:street": "South 18th Street", "amenity": "restaurant", "check_date": "2023-04-13", "contact:phone": "+1 215-988-0898", "cuisine": "ramen", "name": "Nom Nom Ramen", "opening_hours": "Mo-Th,Su 11:00-15:30,17:00-21:30; Fr-Sa 11:00-15:30,17:00-22:30", "website": "nomnomramen.com"}}, {"type": "node", "id": 9078268217, "lat": 39.9500257, "lon": -75.1620492, "tags": {"addr:city": "Philadelphia", "addr:housenumber": "110", "addr:postcode": "19107", "addr:street": "South 13th Street", "amenity": "restaurant", "check_date": "2023-10-12", "cuisine": "mediterranean", "name": "Barbuzzo", "opening_hours": "Mo-Th 17:00-22:00; Fr 17:00-23:00; Sa 11:00-15:00,17:00-23:00; Su 11:00-15:00,16:00-22:00", "phone": "+1 215-546-9300", "website": "https://barbuzzo.com"}}, {"type": "node", "id": 9272887825, "lat": 39.9516495, "lon": -75.1561114, "tags": {"addr:city": "Philadelphia", "addr:housenumber": "901", "addr:postcode": "19107", "addr:state": "PA", "addr:street": "Market Street", "addr:unit": "1165", "amenity": "cafe", "branch": "10th & Market - Philadelphia", "brand": "Starbucks", "brand:wikidata": "Q37158", "cuisine": "coffee_shop", "name": "Starbucks", "official_name": "Starbucks Coffee", "phone": "+1 267-667-3415", "ref": "1028617", "takeaway": "yes", "website": "https://www.starbucks.com/store-locator/store/1028617/10th-market-philadelphia-901-market-street-1165-philadelphia-pa-191073111-u"}}, {"type": "node", "id": 9283609980, "lat": 39.9512759, "lon": -75.1679478, "tags": {"addr:city": "Philadelphia", "addr:housenumber": "1616", "addr:postcode": "19103", "addr:state": "PA", "addr:street": "Chestnut Street", "alt_name": "Dig Inn", "amenity": "fast_food", "brand": "Dig", "brand:wikidata": "Q28226241", "cuisine": "regional", "name": "Dig", "opening_hours": "Mo-Su 11:00-22:00", "phone": "+1-215-344-8440", "takeaway": "yes", "website": "https://www.diginn.com/"}}, {"type": "node", "id": 9382669317, "lat": 39.9464897, "lon": -75.1579158, "tags": {"addr:housenumber": "262", "addr:street": "South 10th Street", "amenity": "restaurant", "check_date": "2023-04-12", "contact:facebook": "https://www.facebook.com/bleusushi", "contact:phone": "+1 215-829-0800", "contact:website": "https://www.bleusushiphilly.com", "cuisine": "japanese", "name": "Bleu Sushi", "opening_hours": "Mo-Th 11:00-22:00; Fr 11:00-23:00; Sa 12:00-23:00; Su 12:00-22:00", "outdoor_seating": "yes"}}, {"type": "node", "id": 9385011517, "lat": 39.95477, "lon": -75.1701478, "tags": {"addr:city": "Philadelphia", "addr:housenumber": "1800", "addr:postcode": "19103", "addr:state": "PA", "addr:street": "Arch Street", "amenity": "cafe", "check_date": "2023-10-10", "description": "located in the Comcast Technology Center, 2nd floor lobby; building entrance on 18th between JFK & Arch streets", "name": "Vernick Coffee Bar", "opening_hours": "Mo-Fr 07:30-16:00", "website": "https://www.vernickcoffeebar.com"}}, {"type": "node", "id": 9593113322, "lat": 39.94877, "lon": -75.1604539, "tags": {"addr:city": "Philadelphia", "addr:housenumber": "1128", "addr:postcode": "19107", "addr:state": "PA", "addr:street": "Walnut Street", "amenity": "cafe", "branch": "12th St & Walnut", "brand": "Starbucks", "brand:wikidata": "Q37158", "check_date": "2023-10-12", "cuisine": "coffee_shop", "name": "Starbucks", "official_name": "Starbucks Coffee", "opening_hours": "Mo-Fr 05:30-20:00; Sa-Su 06:00-19:00", "outdoor_seating": "no", "phone": "+1 215-923-3399", "ref": "1026456", "takeaway": "yes", "website": "https://www.starbucks.com/store-locator/store/1026456/12-th-st-walnut-1128-walnut-st-philadelphia-pa-191075568-us"}}, {"type": "node", "id": 9593113373, "lat": 39.9509231, "lon": -75.1586671, "tags": {"addr:city": "Philadelphia", "addr:housenumber": "34", "addr:postcode": "19107", "addr:state": "PA", "addr:street": "South 11th Street", "brand": "MOM's Organic Market", "brand:wikidata": "Q111805642", "name": "MOM's Organic Market", "opening_hours": "Mo-Su 09:00-21:00", "phone": "+1 215 709 0022", "shop": "supermarket", "website": "https://momsorganicmarket.com/"}}, {"type": "node", "id": 9715467004, "lat": 39.9509978, "lon": -75.1615809, "tags": {"addr:city": "Philadelphia", "addr:housenumber": "35", "addr:postcode": "19107", "addr:state": "PA", "addr:street": "South 13th Street", "name": "Old Nelson Food Co", "opening_hours": "Mo-Fr 08:00-17:00", "shop": "convenience", "website": "https://oldnelsonfood.com"}}, {"type": "node", "id": 9715843944, "lat": 39.9491319, "lon": -75.163345, "tags": {"addr:city": "Philadelphia", "addr:housenumber": "1328", "addr:postcode": "19107", "addr:state": "PA", "addr:street": "Walnut Street", "amenity": "fast_food", "cuisine": "popcorn", "name": "GO Popcorn", "opening_hours": "Mo-We 11:00-20:00; Th-Sa 11:00-20:30; Su 11:00-19:00", "website": "https://www.letsgopopcorn.com/midtown-village-phila"}}, {"type": "node", "id": 9742142722, "lat": 39.9541969, "lon": -75.1624251, "tags": {"addr:city": "Philadelphia", "addr:housenumber": "1324", "addr:postcode": "19107", "addr:state": "PA", "addr:street": "Arch Street", "branch": "Arch Street", "brand": "Trader Joe's", "brand:wikidata": "Q688825", "name": "Trader Joe's", "opening_hours": "Mo-Su 08:00-21:00", "phone": "+1 215-563-2170", "ref": "618", "shop": "supermarket", "website": "https://locations.traderjoes.com/pa/philadelphia/618/"}}, {"type": "node", "id": 9760367454, "lat": 39.9432492, "lon": -75.1639031}, {"type": "node", "id": 9765915617, "lat": 39.9505401, "lon": -75.1668604, "tags": {"addr:city": "Philadelphia", "addr:housenumber": "1525", "addr:postcode": "19102", "addr:state": "PA", "addr:street": "Sansom Street", "amenity": "restaurant", "check_date": "2025-02-23", "check_date:opening_hours": "2025-02-23", "contact:facebook": "https://www.facebook.com/harpcrownphl", "name": "Harp & Crown", "opening_hours:signed": "no", "phone": "+1 215-330-2800", "website": "https://harpcrown.com"}}, {"type": "node", "id": 9915336017, "lat": 39.9553587, "lon": -75.1565868, "tags": {"addr:housenumber": "1016", "addr:street": "Race Street", "amenity": "restaurant", "name:en": "Chinatown Dumpling  House"}}, {"type": "node", "id": 9915336019, "lat": 39.9546427, "lon": -75.1566285, "tags": {"addr:housenumber": "1013", "addr:postcode": "19107", "addr:street": "Cherry Street", "amenity": "cafe", "brand": "Mango Mango Dessert", "brand:wikidata": "Q117811257", "cuisine": "asian;dessert", "name": "Mango Mango Dessert", "opening_hours": "Mo-Su 12:00-23:00", "outdoor_seating": "no", "phone": "+1 (215) 922-2233", "self_service": "no", "takeaway": "yes", "website": "https://mangomangodessert.com/", "website:menu": "https://www.mangomangodessert.com/menu"}}, {"type": "node", "id": 10042667060, "lat": 39.9419665, "lon": -75.151079, "tags": {"addr:city": "Philadelphia", "addr:housenumber": "509", "addr:postcode": "19147", "addr:state": "PA", "addr:street": "South Street", "amenity": "restaurant", "check_date": "2023-10-13", "cuisine": "greek;american", "name": "South Street Souvlaki", "opening_hours": "Mo-Th,Su 12:00-21:00; Fr-Sa 12:00-22:00", "phone": "+1 215-925-3026", "website": "https://southstreetsouvlaki.com"}}, {"type": "node", "id": 10076153317, "lat": 39.953206, "lon": -75.1643762, "tags": {"addr:city": "Philadelphia", "addr:housenumber": "1400", "addr:postcode": "19107", "addr:state": "PA", "addr:street": "John F. Kennedy Boulevard", "amenity": "cafe", "check_date": "2023-10-09", "contact:facebook": "https://www.facebook.com/DilworthParkCafe", "name": "Dilworth Park Caf\u00e9", "opening_hours": "Mo-Fr 07:00-19:00; Sa-Su 10:00-18:00", "outdoor_seating": "yes", "phone": "+1 215-972-0111"}}, {"type": "node", "id": 10263191445, "lat": 39.9418954, "lon": -75.152241, "tags": {"addr:housenumber": "540", "addr:street": "South Street", "amenity": "fast_food", "check_date": "2023-04-12", "contact:phone": "+1 267-761-4512", "contact:website": "https://www.federaldonuts.com", "name": "Federal Donuts South Street", "opening_hours": "10:00-20:00"}}, {"type": "node", "id": 10679432873, "lat": 39.9483406, "lon": -75.1571253, "tags": {"amenity": "fast_food", "brand": "Sweetgreen", "brand:wikidata": "Q18636413", "check_date": "2023-10-16", "cuisine": "salad", "diet:vegan": "yes", "diet:vegetarian": "yes", "name": "Sweetgreen", "payment:mastercard": "yes", "payment:visa": "yes", "takeaway": "yes", "website": "https://order.sweetgreen.com/10th-walnut", "wheelchair": "yes"}}, {"type": "node", "id": 10722831983, "lat": 39.9562399, "lon": -75.1691479, "tags": {"addr:city": "Philadelphia", "addr:housenumber": "1776", "addr:postcode": "19103", "addr:state": "PA", "addr:street": "Benjamin Franklin Parkway", "amenity": "fast_food", "cuisine": "donut;chicken", "drive_through": "no", "name": "Federal Donuts", "opening_hours": "07:00-20:00", "outdoor_seating": "yes", "payment:cash": "yes", "payment:contactless": "yes", "payment:credit_cards": "yes", "payment:debit_cards": "yes", "phone": "+1-215-560-8112", "website": "https://www.federaldonuts.com/"}}, {"type": "node", "id": 10722831986, "lat": 39.9553315, "lon": -75.1687744, "tags": {"addr:city": "Philadelphia", "addr:housenumber": "1717", "addr:postcode": "19103", "addr:state": "PA", "addr:street": "Arch Street", "amenity": "cafe", "check_date": "2023-10-09", "cuisine": "coffee_shop", "internet_access": "wlan", "internet_access:ssid": "Bluestone Lane Free WIFI", "name": "Bluestone Lane", "opening_hours": "Mo-Fr 07:00-16:00; Sa-Su off", "phone": "+1 718-374-6858", "website": "https://bluestonelane.com/coffee-shops/arch-street"}}, {"type": "node", "id": 10722872406, "lat": 39.9510578, "lon": -75.1663334, "tags": {"addr:city": "Philadelphia", "addr:housenumber": "1516", "addr:postcode": "19102", "addr:state": "PA", "addr:street": "Chestnut Street", "amenity": "fast_food", "brand": "Popeyes", "brand:wikidata": "Q1330910", "check_date": "2023-10-08", "cuisine": "chicken", "delivery": "yes", "drive_through": "no", "fixme": "may be a few buildings off; will confirm this is the correct spot when possible.", "indoor_seating": "yes", "name": "Popeyes", "official_name": "Popeyes Louisiana Kitchen", "opening_hours": "Mo-Th,Su 10:30-22:00; Fr-Sa 10:30-23:00", "phone": "+1 215-665-8470", "takeaway": "yes", "website": "https://www.popeyes.com/store-locator/store/restaurant_85013"}}, {"type": "node", "id": 10760573813, "lat": 39.9578243, "lon": -75.169657, "tags": {"amenity": "vending_machine", "ref": "925304-A", "vending": "parking_tickets"}}, {"type": "node", "id": 10896228920, "lat": 39.9514921, "lon": -75.1721342, "tags": {"addr:city": "Philadelphia", "addr:housenumber": "110", "addr:postcode": "19103", "addr:state": "PA", "addr:street": "South 19th Street", "amenity": "cafe", "check_date": "2025-06-27", "check_date:opening_hours": "2025-06-27", "name": "K\u2019Far", "opening_hours": "08:00-17:00", "payment:mastercard": "yes", "payment:visa": "yes", "phone": "+1 267-800-7200", "website": "https://kfarcafe.com", "wheelchair": "limited"}}, {"type": "node", "id": 10960598571, "lat": 39.9508111, "lon": -75.170355, "tags": {"addr:city": "Philadelphia", "addr:housenumber": "125", "addr:postcode": "19103", "addr:state": "PA", "addr:street": "South 18th Street", "amenity": "fast_food", "branch": "Center City", "brand": "Manhattan Bagel", "brand:wikidata": "Q64517333", "check_date": "2025-06-28", "check_date:diet:vegetarian": "2025-06-28", "check_date:opening_hours": "2025-06-28", "cuisine": "bagel", "diet:vegetarian": "yes", "drive_through": "no", "name": "Manhattan Bagel", "opening_hours": "Mo-Fr 06:00-15:00; Sa-Su 07:00-15:00", "phone": "+1 215-564-4340", "takeaway": "yes", "website": "https://locations.manhattanbagel.com/us/pa/philadelphia/125-s-18th-st"}}, {"type": "node", "id": 10979953124, "lat": 39.9554905, "lon": -75.1696667, "tags": {"amenity": "restaurant", "cuisine": "sushi", "fixme": "Zushi is temporarily closed. The opening_hours should be changed once it opens again.", "name": "Zushi", "opening_hours": "closed \"Temporarily closed\""}}, {"type": "node", "id": 10979953125, "lat": 39.9555681, "lon": -75.1696513, "tags": {"amenity": "restaurant", "cuisine": "sandwich", "name": "Matt & Marie's", "opening_hours": "Mo-Fr 10:00-14:00", "payment:cash": "yes", "payment:contactless": "yes", "payment:credit_cards": "yes", "payment:debit_cards": "yes", "website:menu": "https://mattandmaries.square.site/?location=11ea7f438a037e78bee054ab3a4df151"}}, {"type": "node", "id": 11018048003, "lat": 39.9536819, "lon": -75.1724664, "tags": {"addr:city": "Philadelphia", "addr:country": "US", "addr:housenumber": "1919", "addr:postcode": "19103", "addr:state": "PA", "addr:street": "Market Street", "addr:unit": "101", "amenity": "restaurant", "branch": "Market Street", "brand": "Naf Naf Grill", "brand:wikidata": "Q111901442", "check_date": "2023-10-15", "cuisine": "middle_eastern", "name": "Naf Naf Grill", "opening_hours": "Mo-Sa 10:30-20:00; Su off", "phone": "+1 267-930-4002", "website": "https://www.nafnafgrill.com/locations/#jump-1919-market"}}, {"type": "node", "id": 11018074830, "lat": 39.9564778, "lon": -75.1654605, "tags": {"addr:city": "Philadelphia", "addr:housenumber": "1526", "addr:postcode": "19102", "addr:state": "PA", "addr:street": "Race Street", "amenity": "fast_food", "check_date": "2023-10-10", "name": "Rex Pizza", "opening_hours": "Mo-Sa 10:00-23:00; Su 11:00-23:00", "phone": "+1 215-557-9555", "website": "https://www.rexpizzapa.com"}}, {"type": "node", "id": 11018127859, "lat": 39.9547961, "lon": -75.1628466, "tags": {"addr:city": "Philadelphia", "addr:housenumber": "101", "addr:postcode": "19107", "addr:state": "PA", "addr:street": "North Broad Street", "amenity": "cafe", "branch": "The Aloft Hotel Philadelphia", "brand": "Starbucks", "brand:wikidata": "Q37158", "cuisine": "coffee_shop", "name": "Starbucks", "official_name": "Starbucks Coffee", "phone": "+1 215-638-2505", "ref": "1033486", "takeaway": "yes", "website": "https://www.starbucks.com/store-locator/store/1033486/the-aloft-hotel-philadelphia-101-n-broad-st-philadelphia-pa-19107-us"}}, {"type": "node", "id": 11018800562, "lat": 39.9468161, "lon": -75.1624829, "tags": {"amenity": "restaurant", "name": "Libertine"}}, {"type": "node", "id": 11018832732, "lat": 39.9540291, "lon": -75.1609422, "tags": {"amenity": "fast_food", "cuisine": "vietnamese", "name": "Pho Street"}}, {"type": "node", "id": 11018837131, "lat": 39.9497889, "lon": -75.1589017, "tags": {"addr:city": "Philadelphia", "addr:housenumber": "110", "addr:street": "South 11th Street", "amenity": "restaurant", "check_date": "2023-10-11", "name": "Morea", "opening_hours": "Mo-Th 16:00-24:00, Fr 10:30-25:00, Sa 10:00-25:00, Su 10:00-23:00", "phone": "+1 267-930-1110", "website": "https://moreaphilly.com"}}, {"type": "node", "id": 11018841131, "lat": 39.9503189, "lon": -75.158386, "tags": {"addr:city": "Philadelphia", "addr:housenumber": "1037", "addr:postcode": "19107", "addr:state": "PA", "addr:street": "Chestnut Street", "amenity": "fast_food", "brand": "Taco Bell", "brand:wikidata": "Q752941", "cuisine": "tex-mex", "name": "Taco Bell", "opening_hours": "24/7", "phone": "+1 215-925-1037", "takeaway": "yes", "website": "https://locations.tacobell.com/pa/philadelphia/1037-chestnut-st.html"}}, {"type": "node", "id": 11020616236, "lat": 39.951311, "lon": -75.1565708, "tags": {"addr:city": "Philadelphia", "addr:housenumber": "940", "addr:postcode": "19107", "addr:state": "PA", "addr:street": "Market Street", "amenity": "fast_food", "brand": "Popeyes", "brand:wikidata": "Q1330910", "cuisine": "chicken", "delivery": "yes", "indoor_seating": "yes", "internet_access": "wlan", "name": "Popeyes", "official_name": "Popeyes Louisiana Kitchen", "opening_hours": "10:00-22:00", "phone": "+1 267-239-2388", "takeaway": "yes", "website": "https://www.popeyes.com/store-locator/store/restaurant_241024"}}, {"type": "node", "id": 11020622675, "lat": 39.9472736, "lon": -75.1616368, "tags": {"amenity": "restaurant", "name": "TOC - Tavern on Camac"}}, {"type": "node", "id": 11020940867, "lat": 39.9553286, "lon": -75.1645434, "tags": {"amenity": "fast_food", "name": "Tacos Texas"}}, {"type": "node", "id": 11023953286, "lat": 39.9509286, "lon": -75.1583314, "tags": {"addr:city": "Philadelphia", "addr:housenumber": "15", "addr:postcode": "19107", "addr:state": "PA", "addr:street": "South 11th Street", "amenity": "fast_food", "name": "Honeygrow", "opening_hours": "10:30-22:00", "phone": "+1 215-845-5592", "website": "https://www.honeygrow.com/location/11th-street/"}}, {"type": "node", "id": 11024013470, "lat": 39.9492877, "lon": -75.1590478, "tags": {"addr:city": "Philadelphia", "addr:housenumber": "128", "addr:postcode": "19107", "addr:street": "South 11th Street", "amenity": "fast_food", "check_date": "2023-10-11", "cuisine": "sandwich", "name": "PrimoHoagies", "opening_hours": "Mo-Fr 08:30-21:00; Sa 10:00-21:00; Su 10:00-20:00", "phone": "+1 215-925-4500", "website": "https://www.primohoagies.com/location/Philadelphia-11th-St-PA"}}, {"type": "node", "id": 11024023888, "lat": 39.9415363, "lon": -75.1509637, "tags": {"addr:city": "Philadelphia", "addr:housenumber": "610", "addr:postcode": "19147", "addr:street": "South 5th Street", "amenity": "restaurant", "check_date": "2023-10-13", "cuisine": "thai", "name": "Golden Triangle", "opening_hours": "Mo-Sa 12:00-22:00; Su 17:00-22:00", "phone": "+1 267-930-7990", "website": "https://goldentrianglephilly.com"}}, {"type": "node", "id": 11024033988, "lat": 39.9528928, "lon": -75.1582301, "tags": {"amenity": "fast_food", "name": "Crown Chicken"}}, {"type": "node", "id": 11054789533, "lat": 39.9514455, "lon": -75.1538054, "tags": {"branch": "Heirloom", "brand": "Giant", "brand:wikidata": "Q5558332", "name": "Giant", "phone": "+1 215 408 4830", "shop": "supermarket", "website": "https://giantfoodstores.com/"}}, {"type": "node", "id": 11068025194, "lat": 39.9561914, "lon": -75.1686628, "tags": {"addr:city": "Philadelphia", "addr:housenumber": "1776", "addr:postcode": "19103", "addr:state": "PA", "addr:street": "Benjamin Franklin Parkway", "amenity": "restaurant", "bar": "yes", "brewery": "yes", "check_date": "2024-09-23", "check_date:opening_hours": "2024-09-23", "contact:facebook": "https://www.facebook.com/victorytaproomPHL/", "name": "Victory Brewing Company", "opening_hours": "Mo-Th 11:00-22:00; Fr-Sa 11:00-23:00; Su 11:00-21:00", "outdoor_seating": "yes", "phone": "+1-445-223-1130", "website": "https://taprooms.victorybeer.com/victory-brewing-company-philadelphia-d1474f3f7a0c", "website:menu": "https://taprooms.victorybeer.com/victory-brewing-company-philadelphia-d1474f3f7a0c#food"}}, {"type": "node", "id": 11068037602, "lat": 39.9521739, "lon": -75.1702051, "tags": {"addr:city": "Philadelphia", "addr:housenumber": "33", "addr:postcode": "19103", "addr:state": "PA", "addr:street": "South 18th Street", "amenity": "restaurant", "check_date": "2023-07-22", "contact:facebook": "https://www.facebook.com/MyGreenEggsCafe/", "name": "Green Eggs Cafe", "opening_hours": "Mo-Fr 09:00-15:00; Sa-Su 09:00-16:00", "outdoor_seating": "yes", "payment:cash": "yes", "phone": "+1-267-687-8013", "website": "https://greeneggscafe.com/", "website:menu": "https://greeneggscafe.com/menu/"}}, {"type": "node", "id": 11068116875, "lat": 39.9552155, "lon": -75.1553392, "tags": {"addr:city": "Philadelphia", "addr:housenumber": "926-928", "addr:postcode": "19107", "addr:state": "PA", "addr:street": "Race Street", "amenity": "restaurant", "branch": "Chinatown", "check_date": "2023-10-11", "contact:facebook": "https://www.facebook.com/ninetingchinatown", "cuisine": "korean", "name": "Nine Ting", "opening_hours": "Mo-Th,Su 12:00-23:00; Fr-Sa 12:00-24:00", "phone": "+1-215-238-9996", "website": "https://ninetingpa.com/location/philadelphia-chinatown"}}, {"type": "node", "id": 11073579905, "lat": 39.95596, "lon": -75.1558795, "tags": {"addr:housenumber": "216", "addr:postcode": "19107", "addr:street": "North 10th Street", "amenity": "cafe", "cuisine": "bubble_tea", "name": "Mr. Wish", "opening_hours": "Mo-Th 10:00-21:00; Fr-Su 10:00-22:00", "phone": "2674572650", "website": "https://www.mrwishusa.com/"}}, {"type": "node", "id": 11360576169, "lat": 39.9552424, "lon": -75.1554935, "tags": {"addr:postcode": "19107", "amenity": "cafe", "cuisine": "bubble_tea;tea", "email": "chichasanchen.pa@gmail.com", "name": "Chicha San Chen", "name:zh": "\u5403\u8336\u4e09\u5343", "phone": "9173301873", "website": "https://pa.chichasanchen.com/"}}, {"type": "node", "id": 11360882069, "lat": 39.9485012, "lon": -75.1660454, "tags": {"addr:housenumber": "235", "addr:street": "South 15th Street", "amenity": "restaurant", "cuisine": "pizza", "name": "Alice Pizza and Restaurant"}}, {"type": "node", "id": 11362466269, "lat": 39.9426713, "lon": -75.1640832, "tags": {"amenity": "restaurant", "cuisine": "pizza", "name": "Gennaro's Pizza\u200e & steak"}}, {"type": "node", "id": 11390609613, "lat": 39.9518579, "lon": -75.1688034, "tags": {"addr:city": "Philadelphia", "addr:housenumber": "40", "addr:postcode": "19103", "addr:state": "PA", "addr:street": "South 17th Street", "amenity": "cafe", "cuisine": "coffee_shop", "name": "Konditori", "website": "https://konditori.com/"}}, {"type": "node", "id": 11459832126, "lat": 39.9433863, "lon": -75.1638832}, {"type": "node", "id": 11459832131, "lat": 39.943306, "lon": -75.1639004}, {"type": "node", "id": 11459832143, "lat": 39.9432431, "lon": -75.1638578}, {"type": "node", "id": 11459832147, "lat": 39.9433791, "lon": -75.1638272}, {"type": "node", "id": 11629630569, "lat": 39.9553697, "lon": -75.1544973, "tags": {"amenity": "cafe", "cuisine": "bubble_tea;cake;ice_cream", "name": "Matcha Panda"}}, {"type": "node", "id": 11819301570, "lat": 39.9467829, "lon": -75.1622275, "tags": {"addr:city": "Philadelphia", "addr:housenumber": "1229", "addr:postcode": "19107", "addr:state": "PA", "addr:street": "Spruce Street", "air_conditioning": "yes", "amenity": "restaurant", "cuisine": "sandwich;burger;american;pasta;salad", "diet:vegan": "only", "email": "hello@themonstervegan.com", "name": "Monster Vegan", "name:en": "Monster Vegan", "opening_hours": "Mo-Tu 17:00-21:00; We-Th 17:00-22:00; Fr 17:00-23:30; Sa 12:00-23:30", "phone": "+1-215-790-9494", "takeaway": "yes", "website": "https://www.themonstervegan.com/", "website:menu": "https://www.themonstervegan.com/_files/ugd/646f42_eb3a2e0a6f994b4eba8bf931ab9fdaee.pdf"}}, {"type": "node", "id": 11829354069, "lat": 39.9514429, "lon": -75.1740486, "tags": {"amenity": "restaurant", "internet_access": "wlan", "name": "the Wilder", "name:en": "Wilder", "website": "https://www.wilderphilly.com/"}}, {"type": "node", "id": 12049571048, "lat": 39.9519118, "lon": -75.1647998}, {"type": "node", "id": 12049571049, "lat": 39.9519055, "lon": -75.1647499}, {"type": "node", "id": 12049571050, "lat": 39.951925, "lon": -75.1647457}, {"type": "node", "id": 12049571051, "lat": 39.9519147, "lon": -75.1646646}, {"type": "node", "id": 12057367122, "lat": 39.9515374, "lon": -75.1699753, "tags": {"amenity": "cafe", "name": "Di Bruno Bros. Cafe", "note": "located inside store"}}, {"type": "node", "id": 12070468129, "lat": 39.9532801, "lon": -75.1548603, "tags": {"addr:housenumber": "900", "addr:street": "Arch Street", "amenity": "restaurant", "check_date": "2023-04-12", "name": "Banh Mi Cali"}}, {"type": "node", "id": 12070468130, "lat": 39.9532901, "lon": -75.1549162, "tags": {"addr:housenumber": "902", "addr:street": "Arch Street", "amenity": "restaurant", "check_date": "2023-04-12", "contact:phone": "+1 215-925-1688", "contact:website": "https://xiansizzlingwoksphilly.com", "name": "Xi\u2019an Sizzling Woks", "opening_hours": "Mo,We-Th,Su 11:00-22:00; Tu off; Fr-Sa 11:00-22:30"}}, {"type": "node", "id": 12070468132, "lat": 39.9533023, "lon": -75.1550228, "tags": {"addr:housenumber": "906", "addr:street": "Arch Street", "amenity": "restaurant", "check_date": "2023-04-12", "name": "Delightful Garden", "name:zh": "\u6210\u90fd\u5c0f\u5403"}}, {"type": "node", "id": 12152098101, "lat": 39.9472504, "lon": -75.1677484, "tags": {"addr:housenumber": "1528", "addr:postcode": "19102", "addr:street": "Spruce Street", "amenity": "restaurant", "contact:facebook": "enswellcocktailbar", "contact:instagram": "enswellphilly", "cuisine": "american", "name": "Enswell", "opening_hours": "Mo-Fr 07:00-11:00; Sa-Su 08:00-11:00;\nMo-Fr 11:00-15:00;\nMo-Th 16:30-22:00;  Fr-Sa 16:30-22:30; Su 16:30-21:00", "website": "https://www.enswellphilly.com/"}}, {"type": "node", "id": 12184490701, "lat": 39.9510675, "lon": -75.1663937, "tags": {"addr:housenumber": "1518", "addr:postcode": "19102", "addr:street": "Chestnut Street", "amenity": "restaurant", "cuisine": "indian", "email": "info@ammasusa.com", "name": "Amma's South Indian Cuisine", "opening_hours": "Mo-Fr 11:00-21:45; Sa-Su 12:00-21:45", "phone": "+1 808-762-6627", "website": "https://ammasrestaurants.com/"}}, {"type": "node", "id": 12200267546, "lat": 39.9495648, "lon": -75.1526616, "tags": {"addr:city": "Philadelphia", "addr:housenumber": "707", "addr:postcode": "19106", "addr:state": "PA", "addr:street": "Chestnut Street", "amenity": "restaurant", "cuisine": "pizza", "name": "Lamberti Pizza & Market", "outdoor_seating": "yes", "website": "https://lambertipizzamarket.com/"}}, {"type": "node", "id": 12228642803, "lat": 39.9506082, "lon": -75.1674831, "tags": {"addr:city": "Philadelphia", "addr:housenumber": "1601", "addr:postcode": "19103", "addr:state": "PA", "addr:street": "Sansom Street", "amenity": "pub", "name": "Tapster", "opening_hours": "Su 12:00-22:00; Mo 16:00-22:00; Tu-Th 16:00-24:00; Fr 14:00-02:00; Sa 12:00-02:00", "website": "https://tapstertastingroom.com/sublocation/philadelphia/"}}, {"type": "node", "id": 12236521001, "lat": 39.9553001, "lon": -75.156033, "tags": {"amenity": "restaurant", "name": "Ho Sai Gai Restaurant"}}, {"type": "node", "id": 12250890612, "lat": 39.9490345, "lon": -75.1624072, "tags": {"amenity": "restaurant", "bar": "yes", "cuisine": "tapas;thai", "internet_access": "no", "internet_access:fee": "no", "level": "0", "name": "Grandma's", "opening_hours": "Tu-Th,Su 11:30-23:30; Fr-Sa 12:00-24:00,00:00-00:30; Mo 11:30-22:00", "takeaway": "yes", "toilets:access": "customers", "website": "https://www.grandmasphilly.com/", "wheelchair": "yes"}}, {"type": "node", "id": 12252960822, "lat": 39.9532878, "lon": -75.1654861, "tags": {"amenity": "fast_food", "cuisine": "sandwich", "drive_through": "no", "name": "Express Breakfast & Lunch"}}, {"type": "node", "id": 12307725096, "lat": 39.9506794, "lon": -75.16927, "tags": {"addr:city": "Philadelphia", "addr:housenumber": "1700", "addr:state": "PA", "addr:street": "Sansom Street", "amenity": "fast_food", "cuisine": "bagel", "drive_through": "no", "name": "Kismet Bagels", "opening_hours": "Mo-Fr 07:00-14:00; Sa-Su 08:00-15:00", "phone": "+1 215 259-8385", "website": "https://kismetbagels.com/"}}, {"type": "node", "id": 12482329399, "lat": 39.9555296, "lon": -75.1709446, "tags": {"addr:city": "Philadelphia", "addr:housenumber": "1835", "addr:postcode": "19103", "addr:state": "PA", "addr:street": "Arch St", "amenity": "restaurant", "name": "The Mulberry on Arch", "opening_hours": "Mo-Su 10:00-22:00", "phone": "2155864366", "website": "https://www.themulberryphl.com/"}}, {"type": "node", "id": 12497429201, "lat": 39.9486404, "lon": -75.1641484, "tags": {"addr:postcode": "19107", "amenity": "restaurant", "cuisine": "american;burger;chicken;diner;fish;pasta;seafood", "name": "Attico Rooftop", "opening_hours": "We-Th 16:00-23:00; Fr 16:00-02:00; Sa 10:30-02:00; Su 10:30-23:00", "phone": "+1 267-519-0965", "website": "https://atticorooftop.com/"}}, {"type": "node", "id": 12587737191, "lat": 39.9523932, "lon": -75.173314, "tags": {"amenity": "fast_food", "check_date": "2025-02-14", "cuisine": "burger;breakfast", "drive_through": "no", "name": "Good Day Deli"}}, {"type": "node", "id": 12587737192, "lat": 39.952179, "lon": -75.1735746, "tags": {"alt_name": "Dunkin' Donuts", "amenity": "fast_food", "brand": "Dunkin'", "brand:wikidata": "Q847743", "check_date": "2025-02-14", "cuisine": "donut;coffee_shop", "name": "Dunkin'", "takeaway": "yes"}}, {"type": "node", "id": 12613401501, "lat": 39.949916, "lon": -75.1604443, "tags": {"addr:postcode": "19107", "amenity": "restaurant", "cuisine": "sushi", "name": "Kichi Omakase", "opening_hours": "Su-Th 17:00-22:00; Fr-Sa 17:00-23:00"}}, {"type": "node", "id": 12614221301, "lat": 39.9497468, "lon": -75.1621039, "tags": {"addr:housenumber": "114", "addr:postcode": "19107", "addr:street": "South 13th Street", "amenity": "restaurant", "cuisine": "seafood", "internet_access": "wlan", "name": "Pearl & Mary", "opening_hours": "Mo-Tu 16:00-22:00; We-Th 16:00-23:00; Fr 16:00-00:00; Sa 11:30-00:00; Su 11:30-22:00", "phone": "+12153306786", "website": "https://www.pearlandmary.com"}}, {"type": "node", "id": 12623469001, "lat": 39.9511359, "lon": -75.1599073, "tags": {"addr:postcode": "19107", "amenity": "cafe", "cuisine": "chicken;donut", "name": "Federal Donuts & Chicken", "opening_hours": "Mo-Su 07:00-19:00", "phone": "+1 (215) 964-9810", "website": "https://federaldonuts.com/"}}, {"type": "node", "id": 12626825101, "lat": 39.9536502, "lon": -75.1559573, "tags": {"addr:housenumber": "927", "addr:postcode": "19107", "addr:street": "Arch Street", "amenity": "restaurant", "name": "JiangNan Philadelphia", "website": "https://jiangnanny.com/"}}, {"type": "node", "id": 12638576828, "lat": 39.9516972, "lon": -75.1736718, "tags": {"addr:city": "Philadelphia", "addr:housenumber": "108", "addr:postcode": "19103", "addr:state": "PA", "addr:street": "South 20th Street", "amenity": "restaurant", "cuisine": "pizza", "diet:vegan": "only", "name": "20th Street Pizza", "opening_hours": "Tu-Su 12:00-21:00", "outdoor_seating": "no", "takeaway": "yes", "website": "https://20thstreet.pizza", "website:menu": "https://order.20thstreet.pizza/order/20th-street-pizza"}}, {"type": "node", "id": 12647784501, "lat": 39.9545413, "lon": -75.1711775, "tags": {"addr:housenumber": "1833", "addr:postcode": "19103", "addr:street": "John F. Kennedy Boulevard", "name": "Old Nelson Food Company", "phone": "(267) 773-8089", "shop": "convenience", "website": "https://www.oldnelsonfood.com/pages-static/home"}}, {"type": "node", "id": 12865811301, "lat": 39.9554686, "lon": -75.1554683, "tags": {"addr:housenumber": "933", "addr:postcode": "19107", "addr:street": "Race Street", "amenity": "restaurant", "cuisine": "thai", "name": "Cily Chicken Rice and Thai Food", "opening_hours": "Su-Tu, Th 11:00-15:00, 16:00-21:30; Fr-Sa 11:00-15:00, 16:00-22:30", "outdoor_seating": "no", "phone": "2159821113", "self_service": "no"}}, {"type": "node", "id": 12952784530, "lat": 39.9516748, "lon": -75.1693436, "tags": {"addr:city": "Philadelphia", "addr:housenumber": "1715", "addr:postcode": "19103", "addr:state": "PA", "addr:street": "Chestnut Street", "amenity": "restaurant", "check_date": "2025-06-21", "cuisine": "asian", "level": "0", "name": "Ten Asian Food Hall", "opening_hours": "Mo-Th 10:30-02:00; Fr-Sa 10:30-03:00; Su 17:00-02:00", "phone": "+1-215-273-9193"}}, {"type": "node", "id": 12952784531, "lat": 39.9516687, "lon": -75.1692932, "tags": {"addr:city": "Philadelphia", "addr:housenumber": "1713", "addr:postcode": "19103", "addr:state": "PA", "addr:street": "Chestnut Street", "amenity": "restaurant", "brand": "CAVA", "brand:wikidata": "Q85751038", "check_date": "2025-06-21", "cuisine": "mediterranean", "diet:mediterranean": "yes", "diet:vegan": "yes", "diet:vegetarian": "yes", "level": "0", "name": "CAVA", "opening_hours": "Mo-Su 10:45-22:00", "phone": "+1-215-259-3266", "toilets": "yes", "toilets:access": "customers", "toilets:unisex": "yes", "website": "https://cava.com/locations/rittenhouse-pa"}}, {"type": "node", "id": 12952784533, "lat": 39.9516565, "lon": -75.1691845, "tags": {"addr:city": "Philadelphia", "addr:housenumber": "1709", "addr:postcode": "19103", "addr:state": "PA", "addr:street": "Chestnut Street", "amenity": "cafe", "branch": "Pick Up", "brand": "Starbucks", "brand:wikidata": "Q37158", "check_date": "2025-06-21", "cuisine": "coffee_shop", "level": "0", "name": "Starbucks", "official_name": "Starbucks Coffee", "opening_hours": "Mo-Fr 05:30-19:00; Sa-Su 06:00-18:00", "phone": "+1-455-300-7989", "takeaway": "yes", "website": "https://www.starbucks.com/menu?storeNumber=67195-299961", "website:menu": "https://www.starbucks.com/menu?storeNumber=67195-299961"}}, {"type": "node", "id": 12971339503, "lat": 39.9499902, "lon": -75.173759, "tags": {"amenity": "cafe", "name": "Machi suchi bar", "opening_hours": "We-Mo 12:00-22:00", "outdoor_seating": "no"}}, {"type": "node", "id": 13091364055, "lat": 39.9508905, "lon": -75.1722442, "tags": {"amenity": "restaurant", "name": "Zama", "panoramax": "821cb9a5-1607-47ac-a9f6-60305321a2d8", "panoramax:0": "9c387c8a-15a5-420e-97d2-9c0a7452df39", "panoramax:1": "92336847-45f3-464d-92d2-ff092534dcbc"}}, {"type": "node", "id": 13093825401, "lat": 39.9465154, "lon": -75.1732036, "tags": {"addr:housenumber": "1900", "addr:street": "Pine Street", "amenity": "restaurant", "cuisine": "japanese", "name": "UNI Japanese Cuisine", "opening_hours": "Mo-Sa 16:30-02:00; Su 14:00-01:00"}}, {"type": "way", "id": 179815699, "nodes": [1902470791, 1902470795, 1902470785, 1902470798, 1902470804, 1902470810, 1902470801, 1902470794, 1902470791], "tags": {"amenity": "cafe", "building": "retail", "check_date": "2023-10-10", "name": "Sister Cities Cafe", "opening_hours": "09:00-18:00", "outdoor_seating": "yes", "website": "https://centercityphila.org/parks/sister-cities-park/sister-cities-cafe"}}, {"type": "way", "id": 239873161, "nodes": [2476519206, 2476519204, 2476519212, 2476519207, 2476519206], "tags": {"addr:city": "Philadelphia", "addr:housenumber": "110", "addr:postcode": "19102", "addr:street": "North 16th Street", "amenity": "cafe", "building": "yes", "building:levels": "1", "cuisine": "coffee_shop", "name": "Capriccio", "opening_hours": "Mo-Fr 07:00-19:00; Sa,Su 08:00-19:00", "phone": "+1 215 735 9797", "website": "https://www.capricciocafe.com/"}}, {"type": "way", "id": 332974956, "nodes": [3400941943, 3400941945, 3409971723, 3400941944, 3400941943], "tags": {"addr:city": "Philadelphia", "addr:housenumber": "1939", "addr:postcode": "19103", "addr:street": "Arch Street", "amenity": "restaurant", "building": "yes", "building:levels": "4", "check_date": "2023-10-10", "cuisine": "indian", "name": "Thanal Indian Tavern", "opening_hours": "Mo-Th 11:30-14:30,17:00-22:00; Fr-Sa 11:30-14:30,17:00-23:00; Su 11:30-15:00,17:00-21:00", "phone": "+1 215-515-2511", "website": "https://www.thanalphilly.com"}}, {"type": "way", "id": 333012788, "nodes": [3401274279, 3401274280, 3401274281, 3401274282, 3401274279], "tags": {"addr:city": "Philadelphia", "addr:housenumber": "1214", "addr:street": "Sansom Street", "amenity": "pub", "building": "yes", "building:levels": "2", "check_date": "2023-04-12", "contact:mastodon": "fergiespub@jawns.club", "contact:phone": "+1 215-928-8118", "contact:website": "https://www.fergies.com", "name": "Fergie's Pub", "opening_hours": "12:00-26:00 \"Kitchen open until 23:45\""}}, {"type": "way", "id": 333012793, "nodes": [3401274295, 3401274296, 3441501224, 3401274297, 3401274298, 3401274295], "tags": {"addr:city": "Philadelphia", "addr:housenumber": "1310", "addr:postcode": "19107", "addr:street": "Drury Street", "amenity": "pub", "building": "yes", "building:levels": "2", "check_date": "2023-10-12", "name": "McGillin's Olde Ale House", "opening_hours": "11:00-26:00 \"kitchen closes at 1am\"", "phone": "+1-215-735-5562", "website": "https://mcgillins.com"}}, {"type": "way", "id": 333012808, "nodes": [3308112714, 3308112715, 3401274364, 3308112713, 3308112714], "tags": {"addr:street": "Arch Street", "amenity": "restaurant", "building": "yes", "building:levels": "4", "cuisine": "chinese", "name": "China King"}}, {"type": "way", "id": 333831772, "nodes": [3408840034, 3408840035, 3408839993, 3408839892, 3408840034], "tags": {"amenity": "fast_food", "building": "yes", "name": "Taste Town", "takeaway": "yes"}}, {"type": "way", "id": 334239522, "nodes": [3413417147, 3404334299, 3413417148, 3413417149, 3413417147], "tags": {"addr:housenumber": "222", "addr:street": "South 15th Street", "amenity": "restaurant", "building": "yes", "building:levels": "2", "check_date": "2025-06-27", "check_date:opening_hours": "2025-06-27", "contact:phone": "+1 215-735-4444", "contact:website": "http://shiroihana.com/", "cuisine": "japanese", "email": "sushishiroihana@gmail.com", "name": "Shiroi Hana", "opening_hours": "Tu-Fr 11:30-14:00, Tu-Su 17:00-21:00"}}, {"type": "way", "id": 334239526, "nodes": [3413417149, 3413417151, 3413417154, 3413417152, 3413417147, 3413417149], "tags": {"addr:housenumber": "224", "addr:street": "South 15th Street", "amenity": "pub", "building": "yes", "building:levels": "3", "check_date": "2025-06-27", "check_date:opening_hours": "2025-06-27", "contact:facebook": "https://www.facebook.com/gooddogphilly", "contact:phone": "+1 215-985-9600", "contact:website": "https://gooddogbar.com/", "name": "Good Dog Bar", "opening_hours": "11:30-02:00"}}, {"type": "way", "id": 334264450, "nodes": [3413742110, 3413742111, 3413742112, 3413742113, 3413742110], "tags": {"addr:city": "Philadelphia", "addr:housenumber": "800", "addr:postcode": "19146", "addr:state": "PA", "addr:street": "South Broad Street", "amenity": "fast_food", "brand": "Popeyes", "brand:wikidata": "Q1330910", "building": "yes", "cuisine": "chicken", "delivery": "yes", "drive_through": "yes", "indoor_seating": "yes", "internet_access": "wlan", "name": "Popeyes", "official_name": "Popeyes Louisiana Kitchen", "opening_hours": "10:30-22:00", "phone": "+1 215-772-1120", "takeaway": "yes", "website": "https://www.popeyes.com/store-locator/store/restaurant_83263"}}, {"type": "way", "id": 334903462, "nodes": [3420297422, 3420297423, 3420297424, 3420297425, 3420297422], "tags": {"brand": "Sunoco", "brand:wikidata": "Q1423218", "building": "yes", "name": "Sunoco", "operator": "Sunoco", "shop": "convenience"}}, {"type": "way", "id": 334903463, "nodes": [3420297426, 3420297427, 3420297428, 3420297429, 3420297426], "tags": {"addr:city": "Philadelphia", "addr:housenumber": "809", "addr:postcode": "19147", "addr:state": "PA", "addr:street": "South Broad Street", "alt_name": "Dunkin' Donuts", "amenity": "fast_food", "brand": "Dunkin'", "brand:wikidata": "Q847743", "building": "yes", "cuisine": "donut;coffee_shop", "drive_through": "no", "name": "Dunkin'", "opening_hours": "Mo-Fr 05:00-20:00; Sa-Su 06:00-18:00", "phone": "+1 215-545-9677", "ref": "331427", "takeaway": "yes", "website": "https://locations.dunkindonuts.com/en/pa/philadelphia/809-s-broad-st/331427"}}, {"type": "way", "id": 335519750, "nodes": [3426207833, 3426207834, 3426207835, 3426207836, 3426207833], "tags": {"addr:housenumber": "70", "addr:postcode": "19147", "addr:street": "South 8th Street", "building": "yes", "name": "1 Stop", "shop": "convenience"}}, {"type": "way", "id": 335799952, "nodes": [3429164434, 3429164435, 3429164436, 3429164421, 3429164434], "tags": {"amenity": "fast_food", "brand": "Burger King", "brand:wikidata": "Q177054", "building": "yes", "cuisine": "burger", "height": "2", "name": "Burger King", "takeaway": "yes"}}, {"type": "way", "id": 335828101, "nodes": [3429439376, 3429439379, 3429439383, 3429439380, 3429439377, 3429439376], "tags": {"addr:housenumber": "1002", "addr:street": "Arch Street", "amenity": "restaurant", "building": "yes", "building:levels": "5", "name": "Hippot Shabu Shabu"}}, {"type": "way", "id": 336161736, "nodes": [3306336753, 3306336752, 3432401162, 3518601790, 3306336754, 3306336753], "tags": {"addr:postcode": "19107", "addr:street": "North 10th Street", "amenity": "cafe", "building": "yes", "building:levels": "4", "name": "Vivi Bubble Tea"}}, {"type": "way", "id": 336161739, "nodes": [3432401167, 3432401170, 3518602104, 3518602106, 3518602108, 3432401171, 3432401172, 3432401167], "tags": {"addr:city": "Philadelphia", "addr:postcode": "19107", "addr:street": "North 10th Street", "building": "yes", "building:levels": "3", "name": "L & L Lucky Market", "name:zh": "\u5174\u9686\u65e5\u7528\u767e\u8d27", "shop": "supermarket"}}, {"type": "way", "id": 336505649, "nodes": [3435455075, 3405465319, 3435455072, 3435455073, 3435455075], "tags": {"addr:city": "Philadelphia", "addr:housenumber": "124", "addr:postcode": "19103", "addr:street": "South 18th Street", "air_conditioning": "yes", "amenity": "pub", "building": "yes", "building:levels": "3", "email": "thedandelion.info@starr-restaurants.com", "name": "The Dandelion", "opening_hours": "Mo-Th 11:30-23:00; Fr 11:30-24:00; Sa 10:00-24:00; Su 10:00-22:00", "phone": "+1 215 558 2500", "roof:levels": "1", "smoking": "no", "toilets": "yes", "website": "https://thedandelionpub.com/"}}, {"type": "way", "id": 337510066, "nodes": [3445896926, 3445896928, 3445896929, 3445896930, 3445896931, 3445896932, 3445896933, 3445896927, 3445896926], "tags": {"addr:city": "Philadelphia", "addr:housenumber": "716", "addr:postcode": "19106", "addr:state": "PA", "addr:street": "Sansom Street", "amenity": "restaurant", "building": "yes", "building:levels": "5", "check_date": "2024-10-11", "cuisine": "pizza;burger", "delivery": "yes", "name": "Maya's Pizza & Grill", "opening_hours": "Mo-We 08:00-20:00; Th-Fr 08:00-21:00; Sa 10:00-20:00; Su 11:00-19:00", "payment:credit_cards": "yes", "payment:debit_cards": "yes", "phone": "+1-217-773-5331", "website": "https://www.mayaspizzagrill.com"}}, {"type": "way", "id": 338020156, "nodes": [3450860946, 3450860945, 3450860954, 3450860961, 3450860983, 3450861096, 3450861111, 3450861115, 3450861094, 3450860980, 3450860981, 3450860974, 3450860963, 3450860946], "tags": {"addr:city": "Philadelphia", "addr:housenumber": "907", "addr:street": "Race Street", "amenity": "restaurant", "building": "yes", "building:levels": "3", "check_date": "2023-10-11", "cuisine": "asian", "name": "Xe Lua Vietnamese & Thai Restaurant", "opening_hours": "Mo-Tu,Th-Su 11:00-20:00; We off", "phone": "+1 215-627-8883", "website": "https://phoxeluavietthai.com"}}, {"type": "way", "id": 338020166, "nodes": [3450860941, 3450860943, 3450860942, 3450860940, 3450860941], "tags": {"addr:street": "North 9th Street", "amenity": "cafe", "building": "yes", "building:levels": "4", "name": "Greenland Caf\u00e9"}}, {"type": "way", "id": 338020205, "nodes": [3450860943, 3401274327, 3401274328, 3450860942, 3450860943], "tags": {"addr:city": "Philadelphia", "addr:housenumber": "157", "addr:postcode": "19107", "addr:street": "North 9th Street", "amenity": "fast_food", "building": "yes", "building:levels": "4", "check_date": "2023-10-11", "contact:instagram": "https://www.instagram.com/ziopizzapalace", "cuisine": "pizza", "name": "Zio Pizza Palace & Grill", "opening_hours": "Mo-Sa 11:00-21:00; Su off", "phone": "+1 215-629-0200", "website": "https://www.ziopizzapalacegrillmenu.com"}}, {"type": "way", "id": 338020209, "nodes": [3450860895, 3450860911, 3450860906, 3450859688, 3450860895], "tags": {"addr:street": "North 9th Street", "amenity": "cafe", "building": "yes", "building:levels": "4", "name": "Ray\u2019s Cafe & Tea House"}}, {"type": "way", "id": 338020211, "nodes": [3450861163, 3450860979, 3554597076, 3554597075, 3450861163], "tags": {"addr:city": "Philadelphia", "addr:housenumber": "941", "addr:postcode": "19107", "addr:street": "Race Street", "amenity": "restaurant", "building": "yes", "building:levels": "4", "name": "Wong Wong Restaurant", "name:zh": "\u65fa\u65fa\u996d\u5e97"}}, {"type": "way", "id": 338020228, "nodes": [3450860957, 3450860958, 3450861138, 3450861156, 3450861150, 3450860957], "tags": {"addr:city": "Philadelphia", "addr:housenumber": "925", "addr:street": "Race Street", "amenity": "restaurant", "building": "yes", "building:levels": "3", "cuisine": "chinese", "diet:vegetarian": "yes", "name": "Jin Wei Restaurant"}}, {"type": "way", "id": 338020235, "nodes": [3450860983, 3450860961, 3450860960, 3450860956, 3450860967, 3450860983], "tags": {"addr:city": "Philadelphia", "addr:housenumber": "204", "addr:postcode": "19107", "addr:street": "North 9th Street", "amenity": "restaurant", "building": "yes", "building:levels": "2", "check_date": "2023-10-11", "contact:instagram": "https://www.instagram.com/terakawaphilly", "cuisine": "ramen", "name": "Terakawa Ramen", "name:ja": "\u5bfa\u5ddd\u3089\u30fc\u3081\u3093", "opening_hours": "Mo off; Tu-Th,Su 11:30-22:00; Fr-Sa 11:30-23:00", "phone": "+1 267-687-1355", "website": "https://terakawaramen.com"}}, {"type": "way", "id": 338020239, "nodes": [3450860945, 3450860944, 3450860949, 3450860953, 3450860954, 3450860945], "tags": {"addr:city": "Philadelphia", "addr:housenumber": "200", "addr:street": "North 9th Street", "amenity": "restaurant", "building": "yes", "building:levels": "4", "name": "Vietnam House", "name:zh": "\u8d8a\u4e4b\u5bb6"}}, {"type": "way", "id": 338894903, "nodes": [3429660044, 3460473846, 3460473853, 3429660045, 3429660044], "tags": {"addr:city": "Philadelphia", "addr:housenumber": "935", "addr:street": "Arch Street", "amenity": "restaurant", "building": "yes", "check_date": "2023-04-12", "contact:phone": "+1 215-982-1997", "contact:website": "http://www.lanzhou-hand-pulled-noodles.com/", "cuisine": "chinese", "name": "Lan Zhou Hand-Pulled Noodles", "name:zh": "\u862d\u5dde\u62c9\u9eb5", "name:zn": "\u5170\u5dde\u62c9\u9762", "opening_hours": "08:00-22:00"}}, {"type": "way", "id": 338894916, "nodes": [3429439406, 3554597112, 3460473860, 3460473857, 3460473842, 3429439407, 3429439406], "tags": {"addr:city": "Philadelphia", "addr:housenumber": "915", "addr:street": "Arch Street", "amenity": "restaurant", "building": "yes", "check_date": "2023-04-12", "contact:phone": "+1 215-627-2500", "contact:website": "https://emeiphilly.com", "cuisine": "chinese", "email": "hello@emei.restaurant", "name": "E Mei Szechuan Style Restaurant", "name:zh": "\u5ce8\u5d4b\u5c71\u5e84", "opening_hours": "Mo-Th,Su 11:00-21:00; Fr-Sa 11:00-22:00"}}, {"type": "way", "id": 338894919, "nodes": [3429439405, 3429439404, 3429659657, 3429659664, 3460473862, 3429439405], "tags": {"addr:city": "Philadelphia", "addr:street": "North 9th Street", "amenity": "restaurant", "building": "yes", "building:levels": "3", "name": "Rangoon"}}, {"type": "way", "id": 338894930, "nodes": [3460473941, 3460473943, 3460473942, 3460473926, 3460473927, 3460473932, 3460473941], "tags": {"addr:city": "Philadelphia", "addr:housenumber": "1311", "addr:postcode": "19107", "addr:street": "North 10th Street", "amenity": "restaurant", "building": "yes", "building:levels": "4", "contact:facebook": "SpiceCnoodles", "cuisine": "chinese;noodles", "email": "spicecnoodle@gmail.com", "name": "Spice C", "name:zh": "\u5170\u5dde\u624b\u62c9\u9762", "opening_hours": "Su-Th 11:00-21:00; Fr-Sa 11:00-21:30", "phone": "+1-215-923-2222", "self_service": "no", "website": "https://www.spicecphiladelphia.com/"}}, {"type": "way", "id": 338894934, "nodes": [3460473899, 3460473904, 3460473898, 3460473886, 3460473890, 3460473892, 3460473897, 3460473895, 3460473899], "tags": {"addr:housenumber": "123", "addr:postcode": "19107", "addr:street": "North 10th Street", "amenity": "restaurant", "building": "yes", "cuisine": "chinese", "name": "Heng Feng Hand Drawn Noodles", "opening_hours": "Mo-Su 10:30-21:00", "phone": "+1-267-457-5363", "website:menu": "https://hengfengnoodles.com"}}, {"type": "way", "id": 341092941, "nodes": [3483213549, 3483213550, 3483213551, 3483213552, 3483213553, 3483213554, 3483213555, 3483213556, 3483213549], "tags": {"addr:housenumber": "261", "addr:street": "South 20th Street", "amenity": "restaurant", "building": "yes", "check_date": "2023-04-14", "contact:facebook": "https://www.facebook.com/TwentyManning", "contact:phone": "+1 215-731-0900", "contact:website": "https://twentymanning.com", "cuisine": "american", "delivery": "no", "name": "20 Manning", "opening_hours": "Tu-Sa 17:00-22:00; Su 10:00-16:00", "smoking": "no", "takeaway": "no"}}, {"type": "way", "id": 341790034, "nodes": [3424828944, 3488810602, 3488810601, 3488810599, 3488810600, 3424828944], "tags": {"addr:city": "Philadelphia", "addr:housenumber": "116", "addr:postcode": "19107", "addr:street": "South 11th Street", "amenity": "restaurant", "building": "yes", "building:levels": "2", "check_date": "2023-04-13", "contact:facebook": "https://www.facebook.com/toptomatobar", "contact:phone": "+1 215-592-8242", "contact:website": "https://www.toptomatophilly.com/", "cuisine": "pizza", "description": "Kitchen open until 10pm, pizza all night", "email": "Info@Toptomatophilly.Com", "happy_hours": "16:00-19:00", "name": "Top Tomato Bar & Pizza", "opening_hours": "Mo-Fr 10:00-26:00; Sa-Su 11:00-26:00"}}, {"type": "way", "id": 341803111, "nodes": [3466899710, 3472456199, 3488901470, 3488901469, 3466899710], "tags": {"addr:street": "Chestnut Street", "amenity": "cafe", "building": "yes", "name": "Munchie\u2019s Cafe"}}, {"type": "way", "id": 342989912, "nodes": [3499206798, 3499206804, 3499206805, 3499206803, 3499206802, 3499206806, 3499206807, 3499206799, 3499206798], "tags": {"addr:city": "Philadelphia", "addr:housenumber": "1119", "addr:postcode": "19107", "addr:state": "PA", "addr:street": "Walnut Street", "amenity": "restaurant", "building": "retail", "check_date": "2023-02-27", "cuisine": "thai", "name": "Xiandu Thai", "phone": "+1-215-940-8855"}}, {"type": "way", "id": 345167226, "nodes": [3460473912, 3518601735, 3518601736, 3518601737, 3518601738, 3518601739, 3460473931, 3460473934, 3460473937, 3460473939, 3460473912], "tags": {"addr:city": "Philadelphia", "addr:postcode": "19107", "building": "yes", "name": "Heng Fa Supermarket", "name:zh": "\u6052\u53d1\u8d85\u5e02", "shop": "supermarket"}}, {"type": "way", "id": 345167249, "nodes": [3518601791, 3518601792, 3518602093, 3518602094, 3518602095, 3518602096, 3518602097, 3518602098, 3518602099, 3518602100, 3518602101, 3518602102, 3518602103, 3518602104, 3432401170, 3518601791], "tags": {"addr:city": "Philadelphia", "addr:housenumber": "942", "addr:postcode": "19107", "addr:street": "Race Street", "amenity": "restaurant", "building": "yes", "building:levels": "4", "check_date": "2023-10-11", "cuisine": "chinese", "description": "website says hours are 4pm-3am; Yelp says Sun-Thu 4pm-2:30am and Fri-Sat 4pm-3am", "name": "Jade Harbor Restaurant", "name:zh": "\u9280\u6cc9\u6d77\u9bae\u9152\u5bb6", "phone": "+1 215-928-0451", "website": "https://www.jade-harbor.com"}}, {"type": "way", "id": 346392052, "nodes": [3520099609, 3529346615, 3529346616, 3520099610, 3520099609], "tags": {"amenity": "restaurant", "building": "yes", "name": "Pho 20"}}, {"type": "way", "id": 347764199, "nodes": [3509457147, 3540215756, 3540215757, 3540215758, 3509457147], "tags": {"amenity": "cafe", "building": "yes"}}, {"type": "way", "id": 694556251, "nodes": [3414251603, 3414251604, 6521815586, 6521815587, 3414251603], "tags": {"addr:city": "Philadelphia", "addr:housenumber": "1435", "addr:postcode": "19102", "addr:state": "PA", "addr:street": "Arch Street", "amenity": "restaurant", "cuisine": "sandwich;coffee_shop", "name": "Old Nelson", "opening_hours": "Mo-Fr 07:00-19:00, Sa 08:00-16:00", "phone": "+1-215-568-1730"}}, {"type": "way", "id": 794794361, "nodes": [5413260221, 7433918009, 7433918010, 3460931547, 5413260221], "tags": {"addr:city": "Philadelphia", "addr:housenumber": "625", "addr:postcode": "19147", "addr:state": "PA", "addr:street": "South 6th Street", "amenity": "restaurant", "building": "yes", "name": "Redcrest Kitchen", "opening_hours": "Mo-Su 10:00-15:00,16:00-22:00", "payment:credit_cards": "yes", "payment:debit_cards": "yes", "phone": "+1 215 454 6951", "website": "https://www.redcrest.kitchen/"}}, {"type": "way", "id": 1062427961, "nodes": [11459832147, 11459832143, 9760367454, 1482492640, 11459832131, 11459832126, 11459832147], "tags": {"addr:city": "Philadelphia", "addr:housenumber": "1314", "addr:postcode": "19146", "addr:state": "PA", "addr:street": "South Street", "amenity": "restaurant", "building": "yes", "cuisine": "american", "height": "11.58", "name": "Ms. Tootsies", "source": "City of Philadelphia"}}, {"type": "way", "id": 1300936788, "nodes": [6634187879, 12049571048, 12049571049, 12049571050, 12049571051, 6634187878, 6634187879], "tags": {"addr:city": "Philadelphia", "addr:housenumber": "1", "addr:postcode": "19102", "addr:state": "PA", "addr:street": "South 15th Street", "amenity": "cafe", "branch": "Dilworth Park", "brand": "Starbucks", "brand:wikidata": "Q37158", "building": "yes", "check_date": "2023-10-08", "cuisine": "coffee_shop", "name": "Starbucks", "official_name": "Starbucks Coffee", "opening_hours": "Mo-Fr 07:00-17:00; Sa-Su 09:00-17:00", "phone": "+1 218-923-6000", "takeaway": "yes", "website": "https://www.starbucks.com/store-locator/store/1025027/dilworth-park-1-s-15th-street-philadelphia-pa-19102-us"}}]}